{
  "type": "FeatureCollection",
  "metadata": {
    "generated": "2026-10-04",
    "note": "Representative markers for New England bike-share and e-bike-share systems that publish no public GBFS feed (or whose feed is key-gated). One marker per member municipality, or per home station where the operator publishes exact locations (CargoB). Markers are not live station status. Systems with public GBFS feeds (Bluebikes, Veo Hartford, Veo New Haven, Spin Providence) are drawn live by the shared-mobility layer instead.",
    "geocoding": "Town-center markers geocoded with Nominatim (OpenStreetMap, ODbL); CargoB hubs from the operator’s public station map."
  },
  "features": [
    {"type": "Feature", "geometry": {"type": "Point", "coordinates": [-72.5887, 42.1019]}, "properties": {"group": "bikeshare", "dataStatus": "reference", "color": "#c084fc", "title": "ValleyBike Share · Springfield", "status": "Public e-bike share · member municipality", "details": "Pedal-assist e-bike share jointly owned by nine Pioneer Valley municipalities and UMass Amherst, operated by Drop Mobility since the August 2024 relaunch. Rentals through the ValleyBike app. Drop Mobility’s GBFS feed is key-gated, so live dock counts are not shown. Marker sits at the town center, not at a dock; the operator app shows exact stations and availability.", "provider": "ValleyBike Share (Drop Mobility)", "sourceUrl": "https://valleybike.org/", "operator": "Drop Mobility", "system": "valleybike"}},
    {"type": "Feature", "geometry": {"type": "Point", "coordinates": [-72.6214, 42.1052]}, "properties": {"group": "bikeshare", "dataStatus": "reference", "color": "#c084fc", "title": "ValleyBike Share · West Springfield", "status": "Public e-bike share · member municipality", "details": "Pedal-assist e-bike share jointly owned by nine Pioneer Valley municipalities and UMass Amherst, operated by Drop Mobility since the August 2024 relaunch. Rentals through the ValleyBike app. Drop Mobility’s GBFS feed is key-gated, so live dock counts are not shown. Marker sits at the town center, not at a dock; the operator app shows exact stations and availability.", "provider": "ValleyBike Share (Drop Mobility)", "sourceUrl": "https://valleybike.org/", "operator": "Drop Mobility", "system": "valleybike"}},
    {"type": "Feature", "geometry": {"type": "Point", "coordinates": [-72.6076, 42.2071]}, "properties": {"group": "bikeshare", "dataStatus": "reference", "color": "#c084fc", "title": "ValleyBike Share · Holyoke", "status": "Public e-bike share · member municipality", "details": "Pedal-assist e-bike share jointly owned by nine Pioneer Valley municipalities and UMass Amherst, operated by Drop Mobility since the August 2024 relaunch. Rentals through the ValleyBike app. Drop Mobility’s GBFS feed is key-gated, so live dock counts are not shown. Marker sits at the town center, not at a dock; the operator app shows exact stations and availability.", "provider": "ValleyBike Share (Drop Mobility)", "sourceUrl": "https://valleybike.org/", "operator": "Drop Mobility", "system": "valleybike"}},
    {"type": "Feature", "geometry": {"type": "Point", "coordinates": [-72.6071, 42.1488]}, "properties": {"group": "bikeshare", "dataStatus": "reference", "color": "#c084fc", "title": "ValleyBike Share · Chicopee", "status": "Public e-bike share · member municipality", "details": "Pedal-assist e-bike share jointly owned by nine Pioneer Valley municipalities and UMass Amherst, operated by Drop Mobility since the August 2024 relaunch. Rentals through the ValleyBike app. Drop Mobility’s GBFS feed is key-gated, so live dock counts are not shown. Marker sits at the town center, not at a dock; the operator app shows exact stations and availability.", "provider": "ValleyBike Share (Drop Mobility)", "sourceUrl": "https://valleybike.org/", "operator": "Drop Mobility", "system": "valleybike"}},
    {"type": "Feature", "geometry": {"type": "Point", "coordinates": [-72.672, 42.2709]}, "properties": {"group": "bikeshare", "dataStatus": "reference", "color": "#c084fc", "title": "ValleyBike Share · Easthampton", "status": "Public e-bike share · member municipality", "details": "Pedal-assist e-bike share jointly owned by nine Pioneer Valley municipalities and UMass Amherst, operated by Drop Mobility since the August 2024 relaunch. Rentals through the ValleyBike app. Drop Mobility’s GBFS feed is key-gated, so live dock counts are not shown. Marker sits at the town center, not at a dock; the operator app shows exact stations and availability.", "provider": "ValleyBike Share (Drop Mobility)", "sourceUrl": "https://valleybike.org/", "operator": "Drop Mobility", "system": "valleybike"}},
    {"type": "Feature", "geometry": {"type": "Point", "coordinates": [-72.6311, 42.3179]}, "properties": {"group": "bikeshare", "dataStatus": "reference", "color": "#c084fc", "title": "ValleyBike Share · Northampton", "status": "Public e-bike share · member municipality", "details": "Pedal-assist e-bike share jointly owned by nine Pioneer Valley municipalities and UMass Amherst, operated by Drop Mobility since the August 2024 relaunch. Rentals through the ValleyBike app. Drop Mobility’s GBFS feed is key-gated, so live dock counts are not shown. Marker sits at the town center, not at a dock; the operator app shows exact stations and availability.", "provider": "ValleyBike Share (Drop Mobility)", "sourceUrl": "https://valleybike.org/", "operator": "Drop Mobility", "system": "valleybike"}},
    {"type": "Feature", "geometry": {"type": "Point", "coordinates": [-72.5751, 42.2591]}, "properties": {"group": "bikeshare", "dataStatus": "reference", "color": "#c084fc", "title": "ValleyBike Share · South Hadley", "status": "Public e-bike share · member municipality", "details": "Pedal-assist e-bike share jointly owned by nine Pioneer Valley municipalities and UMass Amherst, operated by Drop Mobility since the August 2024 relaunch. Rentals through the ValleyBike app. Drop Mobility’s GBFS feed is key-gated, so live dock counts are not shown. Marker sits at the town center, not at a dock; the operator app shows exact stations and availability.", "provider": "ValleyBike Share (Drop Mobility)", "sourceUrl": "https://valleybike.org/", "operator": "Drop Mobility", "system": "valleybike"}},
    {"type": "Feature", "geometry": {"type": "Point", "coordinates": [-72.5199, 42.3732]}, "properties": {"group": "bikeshare", "dataStatus": "reference", "color": "#c084fc", "title": "ValleyBike Share · Amherst", "status": "Public e-bike share · member municipality", "details": "Pedal-assist e-bike share jointly owned by nine Pioneer Valley municipalities and UMass Amherst, operated by Drop Mobility since the August 2024 relaunch. Rentals through the ValleyBike app. Drop Mobility’s GBFS feed is key-gated, so live dock counts are not shown. Marker sits at the town center, not at a dock; the operator app shows exact stations and availability.", "provider": "ValleyBike Share (Drop Mobility)", "sourceUrl": "https://valleybike.org/", "operator": "Drop Mobility", "system": "valleybike"}},
    {"type": "Feature", "geometry": {"type": "Point", "coordinates": [-72.7489, 42.1205]}, "properties": {"group": "bikeshare", "dataStatus": "reference", "color": "#c084fc", "title": "ValleyBike Share · Westfield", "status": "Public e-bike share · member municipality (joined fall 2025)", "details": "Pedal-assist e-bike share jointly owned by nine Pioneer Valley municipalities and UMass Amherst, operated by Drop Mobility since the August 2024 relaunch. Rentals through the ValleyBike app. Drop Mobility’s GBFS feed is key-gated, so live dock counts are not shown. Westfield joined in fall 2025 with three stations: two downtown near the Columbia Greenway Rail Trail and one at Westfield State University. Marker sits at the town center, not at a dock; the operator app shows exact stations and availability.", "provider": "ValleyBike Share (Drop Mobility)", "sourceUrl": "https://mass.streetsblog.org/2026/03/31/fair-share-funds-will-keep-valleybike-growing-in-western-mass", "operator": "Drop Mobility", "system": "valleybike"}},
    {"type": "Feature", "geometry": {"type": "Point", "coordinates": [-72.5284, 42.3893]}, "properties": {"group": "bikeshare", "dataStatus": "reference", "color": "#c084fc", "title": "ValleyBike Share · UMass Amherst", "status": "Public e-bike share · campus stations", "details": "Pedal-assist e-bike share jointly owned by nine Pioneer Valley municipalities and UMass Amherst, operated by Drop Mobility since the August 2024 relaunch. Rentals through the ValleyBike app. Drop Mobility’s GBFS feed is key-gated, so live dock counts are not shown. UMass Amherst is a system member with stations on campus. Marker sits at the campus, not at a dock.", "provider": "ValleyBike Share (Drop Mobility)", "sourceUrl": "https://www.umass.edu/news/article/valleybike-share-program-returns-campus-aug-12", "operator": "Drop Mobility", "system": "valleybike"}},
    {"type": "Feature", "geometry": {"type": "Point", "coordinates": [-71.4677, 42.7656]}, "properties": {"group": "bikeshare", "dataStatus": "reference", "color": "#c084fc", "title": "Rideable Nashua", "status": "Public e-bike share · launched June 2026", "details": "Community bike share designed and run by Drop Mobility for the City of Nashua: 50 e-bikes at more than 10 stations, $1.50 to unlock plus $0.25 per minute in the Drop app, with hardship discounts. Drop Mobility’s GBFS feed is key-gated, so live dock counts are not shown. Marker sits at the town center, not at a dock; the operator app shows exact stations and availability.", "provider": "City of Nashua · Drop Mobility", "sourceUrl": "https://www.nashuatelegraph.com/news/2026/06/25/city-launches-community-bike-share-program/", "operator": "Drop Mobility", "system": "rideable-nashua"}},
    {"type": "Feature", "geometry": {"type": "Point", "coordinates": [-70.2587, 43.6574]}, "properties": {"group": "bikeshare", "dataStatus": "reference", "color": "#c084fc", "title": "Portland Bike Share", "status": "Public bike share · 200 bikes at 40+ stations", "details": "City of Portland and Tandem Mobility system on the Portland peninsula: classic and e-assist bikes, $1 to unlock plus $0.30 per minute, $14.99 monthly or $99 annual membership, rentals through the Movatic app. No public GBFS feed is published, so live dock counts are not shown. Marker sits at the town center, not at a dock; the operator app shows exact stations and availability.", "provider": "City of Portland · Tandem Mobility", "sourceUrl": "https://www.tandem-mobility.com/portland", "operator": "Tandem Mobility", "system": "portland-bikeshare"}},
    {"type": "Feature", "geometry": {"type": "Point", "coordinates": [-70.8719, 42.8117]}, "properties": {"group": "bikeshare", "dataStatus": "reference", "color": "#c084fc", "title": "Port Bikeshare · Newburyport", "status": "Public bike share · 5 stations on the Clipper City Rail Trail", "details": "23 pedal bikes and 2 adaptive recumbent trikes at five stations along the Clipper City Rail Trail (Market Landing area, American Yacht Club, Custom House Way, Washington Street, March’s Hill, and Parker Street by the MBTA station). Launched November 2025 by the City, Tandem Mobility and Newburyport Livable Streets; $3 to unlock for 30 minutes, then $0.10 per minute, via the Movatic app. Marker sits at the town center, not at a dock; the operator app shows exact stations and availability.", "provider": "City of Newburyport · Tandem Mobility · Newburyport Livable Streets", "sourceUrl": "https://newburyportlivablestreets.org/bikeshare/", "operator": "Tandem Mobility", "system": "port-bikeshare"}},
    {"type": "Feature", "geometry": {"type": "Point", "coordinates": [-71.4328, 42.4851]}, "properties": {"group": "bikeshare", "dataStatus": "reference", "color": "#c084fc", "title": "Minuteman Bikeshare · Acton", "status": "Public bike share · member town", "details": "Regional bike share with 35 bikes at seven locations across Concord, Acton, Lincoln and Maynard, run by Tandem Mobility through the Movatic app ($2 per 30 minutes; $30 annual membership). Funded by a MassDOT Shared Streets and Spaces grant from spring 2025 through fall 2027. Marker sits at the town center, not at a dock; the operator app shows exact stations and availability.", "provider": "Towns of Acton, Concord, Lincoln & Maynard · Tandem Mobility", "sourceUrl": "https://www.tandem-mobility.com/minuteman-bikeshare", "operator": "Tandem Mobility", "system": "minuteman"}},
    {"type": "Feature", "geometry": {"type": "Point", "coordinates": [-71.3489, 42.4605]}, "properties": {"group": "bikeshare", "dataStatus": "reference", "color": "#c084fc", "title": "Minuteman Bikeshare · Concord", "status": "Public bike share · member town", "details": "Regional bike share with 35 bikes at seven locations across Concord, Acton, Lincoln and Maynard, run by Tandem Mobility through the Movatic app ($2 per 30 minutes; $30 annual membership). Funded by a MassDOT Shared Streets and Spaces grant from spring 2025 through fall 2027. Marker sits at the town center, not at a dock; the operator app shows exact stations and availability.", "provider": "Towns of Acton, Concord, Lincoln & Maynard · Tandem Mobility", "sourceUrl": "https://www.tandem-mobility.com/minuteman-bikeshare", "operator": "Tandem Mobility", "system": "minuteman"}},
    {"type": "Feature", "geometry": {"type": "Point", "coordinates": [-71.3039, 42.4259]}, "properties": {"group": "bikeshare", "dataStatus": "reference", "color": "#c084fc", "title": "Minuteman Bikeshare · Lincoln", "status": "Public bike share · member town", "details": "Regional bike share with 35 bikes at seven locations across Concord, Acton, Lincoln and Maynard, run by Tandem Mobility through the Movatic app ($2 per 30 minutes; $30 annual membership). Funded by a MassDOT Shared Streets and Spaces grant from spring 2025 through fall 2027. Marker sits at the town center, not at a dock; the operator app shows exact stations and availability.", "provider": "Towns of Acton, Concord, Lincoln & Maynard · Tandem Mobility", "sourceUrl": "https://www.tandem-mobility.com/minuteman-bikeshare", "operator": "Tandem Mobility", "system": "minuteman"}},
    {"type": "Feature", "geometry": {"type": "Point", "coordinates": [-71.454, 42.4321]}, "properties": {"group": "bikeshare", "dataStatus": "reference", "color": "#c084fc", "title": "Minuteman Bikeshare · Maynard", "status": "Public bike share · member town", "details": "Regional bike share with 35 bikes at seven locations across Concord, Acton, Lincoln and Maynard, run by Tandem Mobility through the Movatic app ($2 per 30 minutes; $30 annual membership). Funded by a MassDOT Shared Streets and Spaces grant from spring 2025 through fall 2027. Marker sits at the town center, not at a dock; the operator app shows exact stations and availability.", "provider": "Towns of Acton, Concord, Lincoln & Maynard · Tandem Mobility", "sourceUrl": "https://www.tandem-mobility.com/minuteman-bikeshare", "operator": "Tandem Mobility", "system": "minuteman"}},
    {"type": "Feature", "geometry": {"type": "Point", "coordinates": [-73.2129, 44.4762]}, "properties": {"group": "bikeshare", "dataStatus": "reference", "color": "#c084fc", "title": "Bird e-bikes (CATMA) · Burlington", "status": "Public dockless e-bike share · participating city", "details": "Dockless shared e-bikes relaunched in March 2024 with Bird after the Greenride dock-based system shut down in 2022. Partners are the three cities, UVM, Champlain College and the UVM Medical Center; $1 to unlock plus $0.49 per minute in the Bird app. No public GBFS feed was found for this service area. Marker sits at the town center, not at a dock; the operator app shows exact stations and availability.", "provider": "CATMA · Bird", "sourceUrl": "https://www.sbvt.gov/news_detail_T7_R1369.php", "operator": "Bird", "system": "catma-bird"}},
    {"type": "Feature", "geometry": {"type": "Point", "coordinates": [-73.1763, 44.4643]}, "properties": {"group": "bikeshare", "dataStatus": "reference", "color": "#c084fc", "title": "Bird e-bikes (CATMA) · South Burlington", "status": "Public dockless e-bike share · participating city", "details": "Dockless shared e-bikes relaunched in March 2024 with Bird after the Greenride dock-based system shut down in 2022. Partners are the three cities, UVM, Champlain College and the UVM Medical Center; $1 to unlock plus $0.49 per minute in the Bird app. No public GBFS feed was found for this service area. Marker sits at the town center, not at a dock; the operator app shows exact stations and availability.", "provider": "CATMA · Bird", "sourceUrl": "https://www.sbvt.gov/news_detail_T7_R1369.php", "operator": "Bird", "system": "catma-bird"}},
    {"type": "Feature", "geometry": {"type": "Point", "coordinates": [-73.1861, 44.491]}, "properties": {"group": "bikeshare", "dataStatus": "reference", "color": "#c084fc", "title": "Bird e-bikes (CATMA) · Winooski", "status": "Public dockless e-bike share · participating city", "details": "Dockless shared e-bikes relaunched in March 2024 with Bird after the Greenride dock-based system shut down in 2022. Partners are the three cities, UVM, Champlain College and the UVM Medical Center; $1 to unlock plus $0.49 per minute in the Bird app. No public GBFS feed was found for this service area. Marker sits at the town center, not at a dock; the operator app shows exact stations and availability.", "provider": "CATMA · Bird", "sourceUrl": "https://www.sbvt.gov/news_detail_T7_R1369.php", "operator": "Bird", "system": "catma-bird"}},
    {"type": "Feature", "geometry": {"type": "Point", "coordinates": [-71.0744, 42.3474]}, "properties": {"group": "bikeshare", "dataStatus": "reference", "color": "#c084fc", "title": "CargoB · Back Bay Station", "status": "E-cargo bike share · home station", "details": "Clarendon St. bus loop, Boston. On-demand electric cargo (“bakfiets”) bike share: unlock with the CargoB app for $2.50 plus $0.25 per minute and return the bike to this home station. Boston-area hubs since 2024; MBTA station hubs added from October 2025. Location from CargoB’s public station map.", "provider": "CargoB", "sourceUrl": "https://www.ridecargob.com/", "operator": "CargoB", "system": "cargob"}},
    {"type": "Feature", "geometry": {"type": "Point", "coordinates": [-71.077, 42.3719]}, "properties": {"group": "bikeshare", "dataStatus": "reference", "color": "#c084fc", "title": "CargoB · Lechmere Station", "status": "E-cargo bike share · home station", "details": "Scott Station Plaza, Cambridge. On-demand electric cargo (“bakfiets”) bike share: unlock with the CargoB app for $2.50 plus $0.25 per minute and return the bike to this home station. Boston-area hubs since 2024; MBTA station hubs added from October 2025. Location from CargoB’s public station map.", "provider": "CargoB", "sourceUrl": "https://www.ridecargob.com/", "operator": "CargoB", "system": "cargob"}},
    {"type": "Feature", "geometry": {"type": "Point", "coordinates": [-71.1189, 42.3879]}, "properties": {"group": "bikeshare", "dataStatus": "reference", "color": "#c084fc", "title": "CargoB · Porter Square Station", "status": "E-cargo bike share · home station", "details": "Cambridge. On-demand electric cargo (“bakfiets”) bike share: unlock with the CargoB app for $2.50 plus $0.25 per minute and return the bike to this home station. Boston-area hubs since 2024; MBTA station hubs added from October 2025. Location from CargoB’s public station map.", "provider": "CargoB", "sourceUrl": "https://www.ridecargob.com/", "operator": "CargoB", "system": "cargob"}},
    {"type": "Feature", "geometry": {"type": "Point", "coordinates": [-71.0464, 42.351]}, "properties": {"group": "bikeshare", "dataStatus": "reference", "color": "#c084fc", "title": "CargoB · Seaport", "status": "E-cargo bike share · home station", "details": "Boston Wharf Rd. at Autumn Ln., Boston. On-demand electric cargo (“bakfiets”) bike share: unlock with the CargoB app for $2.50 plus $0.25 per minute and return the bike to this home station. Boston-area hubs since 2024; MBTA station hubs added from October 2025. Location from CargoB’s public station map.", "provider": "CargoB", "sourceUrl": "https://www.ridecargob.com/", "operator": "CargoB", "system": "cargob"}},
    {"type": "Feature", "geometry": {"type": "Point", "coordinates": [-71.117, 42.3692]}, "properties": {"group": "bikeshare", "dataStatus": "reference", "color": "#c084fc", "title": "CargoB · Harvard – Cambridge", "status": "E-cargo bike share · home station", "details": "DeWolfe and Cowperthwaite streets, Cambridge. On-demand electric cargo (“bakfiets”) bike share: unlock with the CargoB app for $2.50 plus $0.25 per minute and return the bike to this home station. Boston-area hubs since 2024; MBTA station hubs added from October 2025. Location from CargoB’s public station map.", "provider": "CargoB", "sourceUrl": "https://www.ridecargob.com/", "operator": "CargoB", "system": "cargob"}},
    {"type": "Feature", "geometry": {"type": "Point", "coordinates": [-71.1471, 42.4045]}, "properties": {"group": "bikeshare", "dataStatus": "reference", "color": "#c084fc", "title": "CargoB · East Arlington", "status": "E-cargo bike share · home station", "details": "Minuteman Bikeway at Lake Street, Arlington. On-demand electric cargo (“bakfiets”) bike share: unlock with the CargoB app for $2.50 plus $0.25 per minute and return the bike to this home station. Boston-area hubs since 2024; MBTA station hubs added from October 2025. Location from CargoB’s public station map.", "provider": "CargoB", "sourceUrl": "https://www.ridecargob.com/", "operator": "CargoB", "system": "cargob"}},
    {"type": "Feature", "geometry": {"type": "Point", "coordinates": [-71.1045, 42.3173]}, "properties": {"group": "bikeshare", "dataStatus": "reference", "color": "#c084fc", "title": "CargoB · Stony Brook Station", "status": "E-cargo bike share · home station", "details": "Jamaica Plain, Boston. On-demand electric cargo (“bakfiets”) bike share: unlock with the CargoB app for $2.50 plus $0.25 per minute and return the bike to this home station. Boston-area hubs since 2024; MBTA station hubs added from October 2025. Location from CargoB’s public station map.", "provider": "CargoB", "sourceUrl": "https://www.ridecargob.com/", "operator": "CargoB", "system": "cargob"}},
    {"type": "Feature", "geometry": {"type": "Point", "coordinates": [-71.1072, 42.3065]}, "properties": {"group": "bikeshare", "dataStatus": "reference", "color": "#c084fc", "title": "CargoB · JP – CatLABS", "status": "E-cargo bike share · home station", "details": "3514 Washington St., Jamaica Plain. On-demand electric cargo (“bakfiets”) bike share: unlock with the CargoB app for $2.50 plus $0.25 per minute and return the bike to this home station. Boston-area hubs since 2024; MBTA station hubs added from October 2025. Location from CargoB’s public station map.", "provider": "CargoB", "sourceUrl": "https://www.ridecargob.com/", "operator": "CargoB", "system": "cargob"}},
    {"type": "Feature", "geometry": {"type": "Point", "coordinates": [-71.1155, 42.3104]}, "properties": {"group": "bikeshare", "dataStatus": "reference", "color": "#c084fc", "title": "CargoB · JP – The Village Works", "status": "E-cargo bike share · home station", "details": "5–7 Eliot St. rear lot, Jamaica Plain. On-demand electric cargo (“bakfiets”) bike share: unlock with the CargoB app for $2.50 plus $0.25 per minute and return the bike to this home station. Boston-area hubs since 2024; MBTA station hubs added from October 2025. Location from CargoB’s public station map.", "provider": "CargoB", "sourceUrl": "https://www.ridecargob.com/", "operator": "CargoB", "system": "cargob"}},
    {"type": "Feature", "geometry": {"type": "Point", "coordinates": [-71.1284, 42.286]}, "properties": {"group": "bikeshare", "dataStatus": "reference", "color": "#c084fc", "title": "CargoB · Roslindale – The Substation", "status": "E-cargo bike share · home station", "details": "4228 Washington St., Roslindale. On-demand electric cargo (“bakfiets”) bike share: unlock with the CargoB app for $2.50 plus $0.25 per minute and return the bike to this home station. Boston-area hubs since 2024; MBTA station hubs added from October 2025. Location from CargoB’s public station map.", "provider": "CargoB", "sourceUrl": "https://www.ridecargob.com/", "operator": "CargoB", "system": "cargob"}},
    {"type": "Feature", "geometry": {"type": "Point", "coordinates": [-71.0898, 42.3367]}, "properties": {"group": "bikeshare", "dataStatus": "reference", "color": "#c084fc", "title": "CargoB · Ruggles Station", "status": "E-cargo bike share · home station", "details": "Forsyth St. loop, Boston. On-demand electric cargo (“bakfiets”) bike share: unlock with the CargoB app for $2.50 plus $0.25 per minute and return the bike to this home station. Boston-area hubs since 2024; MBTA station hubs added from October 2025. Location from CargoB’s public station map.", "provider": "CargoB", "sourceUrl": "https://www.ridecargob.com/", "operator": "CargoB", "system": "cargob"}},
    {"type": "Feature", "geometry": {"type": "Point", "coordinates": [-71.1277, 42.3624]}, "properties": {"group": "bikeshare", "dataStatus": "reference", "color": "#c084fc", "title": "CargoB · Harvard – Allston", "status": "E-cargo bike share · home station", "details": "28 Travis St., Allston. On-demand electric cargo (“bakfiets”) bike share: unlock with the CargoB app for $2.50 plus $0.25 per minute and return the bike to this home station. Boston-area hubs since 2024; MBTA station hubs added from October 2025. Location from CargoB’s public station map.", "provider": "CargoB", "sourceUrl": "https://www.ridecargob.com/", "operator": "CargoB", "system": "cargob"}},
    {"type": "Feature", "geometry": {"type": "Point", "coordinates": [-71.147, 42.357]}, "properties": {"group": "bikeshare", "dataStatus": "reference", "color": "#c084fc", "title": "CargoB · Brighton – Guest Street", "status": "E-cargo bike share · home station", "details": "WGBH garage, Brighton. On-demand electric cargo (“bakfiets”) bike share: unlock with the CargoB app for $2.50 plus $0.25 per minute and return the bike to this home station. Boston-area hubs since 2024; MBTA station hubs added from October 2025. Location from CargoB’s public station map.", "provider": "CargoB", "sourceUrl": "https://www.ridecargob.com/", "operator": "CargoB", "system": "cargob"}},
    {"type": "Feature", "geometry": {"type": "Point", "coordinates": [-71.0957, 42.3905]}, "properties": {"group": "bikeshare", "dataStatus": "reference", "color": "#c084fc", "title": "CargoB · Winter Hill", "status": "E-cargo bike share · home station", "details": "24 Maple Ave., Somerville. On-demand electric cargo (“bakfiets”) bike share: unlock with the CargoB app for $2.50 plus $0.25 per minute and return the bike to this home station. Boston-area hubs since 2024; MBTA station hubs added from October 2025. Location from CargoB’s public station map.", "provider": "CargoB", "sourceUrl": "https://www.ridecargob.com/", "operator": "CargoB", "system": "cargob"}},
    {"type": "Feature", "geometry": {"type": "Point", "coordinates": [-71.1278, 42.3883]}, "properties": {"group": "bikeshare", "dataStatus": "reference", "color": "#c084fc", "title": "CargoB · Raymond St.", "status": "E-cargo bike share · home station", "details": "161 Raymond St., Cambridge. On-demand electric cargo (“bakfiets”) bike share: unlock with the CargoB app for $2.50 plus $0.25 per minute and return the bike to this home station. Boston-area hubs since 2024; MBTA station hubs added from October 2025. Location from CargoB’s public station map.", "provider": "CargoB", "sourceUrl": "https://www.ridecargob.com/", "operator": "CargoB", "system": "cargob"}},
    {"type": "Feature", "geometry": {"type": "Point", "coordinates": [-71.0578, 42.3588]}, "properties": {"group": "bikeshare", "dataStatus": "reference", "color": "#c084fc", "title": "Metro Mobility · Boston", "status": "Day-rental e-bikes · public ChargeLock stations", "details": "Cambridge-based Metro Mobility rents e-bikes by the day from self-charging ChargeLock stations, normally returned to the same station, and runs private fleets for housing developments and employers. Public rental locations listed in its app include Boston, Somerville, Newton, Medford, Quincy, Lowell, Lawrence, Newburyport and Worcester. Marker sits at the city center; the app shows exact stations.", "provider": "Metro Mobility", "sourceUrl": "https://www.metromobility.io/get-the-app", "operator": "Metro Mobility", "system": "metro-mobility"}},
    {"type": "Feature", "geometry": {"type": "Point", "coordinates": [-71.0995, 42.3876]}, "properties": {"group": "bikeshare", "dataStatus": "reference", "color": "#c084fc", "title": "Metro Mobility · Somerville", "status": "Day-rental e-bikes · public ChargeLock stations", "details": "Cambridge-based Metro Mobility rents e-bikes by the day from self-charging ChargeLock stations, normally returned to the same station, and runs private fleets for housing developments and employers. Public rental locations listed in its app include Boston, Somerville, Newton, Medford, Quincy, Lowell, Lawrence, Newburyport and Worcester. Marker sits at the city center; the app shows exact stations.", "provider": "Metro Mobility", "sourceUrl": "https://www.metromobility.io/get-the-app", "operator": "Metro Mobility", "system": "metro-mobility"}},
    {"type": "Feature", "geometry": {"type": "Point", "coordinates": [-71.1949, 42.33]}, "properties": {"group": "bikeshare", "dataStatus": "reference", "color": "#c084fc", "title": "Metro Mobility · Newton", "status": "Day-rental e-bikes · public ChargeLock stations", "details": "Cambridge-based Metro Mobility rents e-bikes by the day from self-charging ChargeLock stations, normally returned to the same station, and runs private fleets for housing developments and employers. Public rental locations listed in its app include Boston, Somerville, Newton, Medford, Quincy, Lowell, Lawrence, Newburyport and Worcester. Marker sits at the city center; the app shows exact stations.", "provider": "Metro Mobility", "sourceUrl": "https://www.metromobility.io/get-the-app", "operator": "Metro Mobility", "system": "metro-mobility"}},
    {"type": "Feature", "geometry": {"type": "Point", "coordinates": [-71.1062, 42.4184]}, "properties": {"group": "bikeshare", "dataStatus": "reference", "color": "#c084fc", "title": "Metro Mobility · Medford", "status": "Day-rental e-bikes · public ChargeLock stations", "details": "Cambridge-based Metro Mobility rents e-bikes by the day from self-charging ChargeLock stations, normally returned to the same station, and runs private fleets for housing developments and employers. Public rental locations listed in its app include Boston, Somerville, Newton, Medford, Quincy, Lowell, Lawrence, Newburyport and Worcester. Marker sits at the city center; the app shows exact stations.", "provider": "Metro Mobility", "sourceUrl": "https://www.metromobility.io/get-the-app", "operator": "Metro Mobility", "system": "metro-mobility"}},
    {"type": "Feature", "geometry": {"type": "Point", "coordinates": [-71.0037, 42.251]}, "properties": {"group": "bikeshare", "dataStatus": "reference", "color": "#c084fc", "title": "Metro Mobility · Quincy", "status": "Day-rental e-bikes · public ChargeLock stations", "details": "Cambridge-based Metro Mobility rents e-bikes by the day from self-charging ChargeLock stations, normally returned to the same station, and runs private fleets for housing developments and employers. Public rental locations listed in its app include Boston, Somerville, Newton, Medford, Quincy, Lowell, Lawrence, Newburyport and Worcester. Marker sits at the city center; the app shows exact stations.", "provider": "Metro Mobility", "sourceUrl": "https://www.metromobility.io/get-the-app", "operator": "Metro Mobility", "system": "metro-mobility"}},
    {"type": "Feature", "geometry": {"type": "Point", "coordinates": [-71.3085, 42.6414]}, "properties": {"group": "bikeshare", "dataStatus": "reference", "color": "#c084fc", "title": "Metro Mobility · Lowell", "status": "Day-rental e-bikes · public ChargeLock stations", "details": "Cambridge-based Metro Mobility rents e-bikes by the day from self-charging ChargeLock stations, normally returned to the same station, and runs private fleets for housing developments and employers. Public rental locations listed in its app include Boston, Somerville, Newton, Medford, Quincy, Lowell, Lawrence, Newburyport and Worcester. Marker sits at the city center; the app shows exact stations.", "provider": "Metro Mobility", "sourceUrl": "https://www.metromobility.io/get-the-app", "operator": "Metro Mobility", "system": "metro-mobility"}},
    {"type": "Feature", "geometry": {"type": "Point", "coordinates": [-71.1631, 42.707]}, "properties": {"group": "bikeshare", "dataStatus": "reference", "color": "#c084fc", "title": "Metro Mobility · Lawrence", "status": "Day-rental e-bikes · public ChargeLock stations", "details": "Cambridge-based Metro Mobility rents e-bikes by the day from self-charging ChargeLock stations, normally returned to the same station, and runs private fleets for housing developments and employers. Public rental locations listed in its app include Boston, Somerville, Newton, Medford, Quincy, Lowell, Lawrence, Newburyport and Worcester. Marker sits at the city center; the app shows exact stations.", "provider": "Metro Mobility", "sourceUrl": "https://www.metromobility.io/get-the-app", "operator": "Metro Mobility", "system": "metro-mobility"}},
    {"type": "Feature", "geometry": {"type": "Point", "coordinates": [-70.8679, 42.8117]}, "properties": {"group": "bikeshare", "dataStatus": "reference", "color": "#c084fc", "title": "Metro Mobility · Newburyport", "status": "Day-rental e-bikes · public ChargeLock stations", "details": "Cambridge-based Metro Mobility rents e-bikes by the day from self-charging ChargeLock stations, normally returned to the same station, and runs private fleets for housing developments and employers. Public rental locations listed in its app include Boston, Somerville, Newton, Medford, Quincy, Lowell, Lawrence, Newburyport and Worcester. Marker sits at the city center; the app shows exact stations.", "provider": "Metro Mobility", "sourceUrl": "https://www.metromobility.io/get-the-app", "operator": "Metro Mobility", "system": "metro-mobility"}},
    {"type": "Feature", "geometry": {"type": "Point", "coordinates": [-71.8019, 42.2626]}, "properties": {"group": "bikeshare", "dataStatus": "reference", "color": "#c084fc", "title": "Metro Mobility · Worcester", "status": "Day-rental e-bikes · public ChargeLock stations", "details": "Cambridge-based Metro Mobility rents e-bikes by the day from self-charging ChargeLock stations, normally returned to the same station, and runs private fleets for housing developments and employers. Public rental locations listed in its app include Boston, Somerville, Newton, Medford, Quincy, Lowell, Lawrence, Newburyport and Worcester. Marker sits at the city center; the app shows exact stations.", "provider": "Metro Mobility", "sourceUrl": "https://www.metromobility.io/get-the-app", "operator": "Metro Mobility", "system": "metro-mobility"}},
    {"type": "Feature", "geometry": {"type": "Point", "coordinates": [-71.1161, 42.3902]}, "properties": {"group": "bikeshare", "dataStatus": "reference", "color": "#c084fc", "title": "Community Pedal Power e-bike library · Somerville near Porter Square", "status": "E-bike lending library · pickup location", "details": "Free e-bike lending library for extended test rides: contact the library to choose a bike and arrange pickup at this location.", "provider": "Community Pedal Power", "sourceUrl": "https://cpp.ebikelibrary.org/", "operator": "Community Pedal Power", "system": "cpp-library"}},
    {"type": "Feature", "geometry": {"type": "Point", "coordinates": [-71.1303, 42.2875]}, "properties": {"group": "bikeshare", "dataStatus": "reference", "color": "#c084fc", "title": "Community Pedal Power e-bike library · Roslindale Village", "status": "E-bike lending library · pickup location", "details": "Free e-bike lending library for extended test rides: contact the library to choose a bike and arrange pickup at this location.", "provider": "Community Pedal Power", "sourceUrl": "https://cpp.ebikelibrary.org/", "operator": "Community Pedal Power", "system": "cpp-library"}},
    {"type": "Feature", "geometry": {"type": "Point", "coordinates": [-71.0735, 42.3397]}, "properties": {"group": "bikeshare", "dataStatus": "reference", "color": "#c084fc", "title": "Community Pedal Power e-bike library · South End near Blackstone Square", "status": "E-bike lending library · pickup location", "details": "Free e-bike lending library for extended test rides: contact the library to choose a bike and arrange pickup at this location.", "provider": "Community Pedal Power", "sourceUrl": "https://cpp.ebikelibrary.org/", "operator": "Community Pedal Power", "system": "cpp-library"}},
    {"type": "Feature", "geometry": {"type": "Point", "coordinates": [-70.1859, 42.0526]}, "properties": {"group": "bikeshare", "dataStatus": "reference", "color": "#c084fc", "title": "Coast Provincetown · Provincetown", "status": "E-bike & scooter share · service town", "details": "Electric bikes and scooters at more than 20 pickup locations across Provincetown and Truro (new fleet for 2026); riders must be 18 with valid ID. Availability and pricing in the Coast app. Marker sits at the town center, not at a dock; the operator app shows exact stations and availability.", "provider": "Coast Provincetown", "sourceUrl": "https://www.coastprovincetown.com/", "operator": "Coast Provincetown", "system": "coast-provincetown"}},
    {"type": "Feature", "geometry": {"type": "Point", "coordinates": [-70.0497, 41.9934]}, "properties": {"group": "bikeshare", "dataStatus": "reference", "color": "#c084fc", "title": "Coast Provincetown · Truro", "status": "E-bike & scooter share · service town", "details": "Electric bikes and scooters at more than 20 pickup locations across Provincetown and Truro (new fleet for 2026); riders must be 18 with valid ID. Availability and pricing in the Coast app. Marker sits at the town center, not at a dock; the operator app shows exact stations and availability.", "provider": "Coast Provincetown", "sourceUrl": "https://www.coastprovincetown.com/", "operator": "Coast Provincetown", "system": "coast-provincetown"}},
    {"type": "Feature", "geometry": {"type": "Point", "coordinates": [-70.0984, 41.2844]}, "properties": {"group": "bikeshare", "dataStatus": "reference", "color": "#c084fc", "title": "Sandy Pedals · Nantucket", "status": "E-bike share · island bike hubs", "details": "Shared e-bikes at bike hubs around Nantucket, rented through the Sandy Pedals Bikes app. Marker sits at the town center, not at a dock; the operator app shows exact stations and availability.", "provider": "Sandy Pedals", "sourceUrl": "https://www.instagram.com/sandypedalsbikes/", "operator": "Sandy Pedals", "system": "sandy-pedals"}}
  ]
}
