{"type":"FeatureCollection","metadata":{"source":"Canada Border Services Agency Directory of Offices","sourceUrl":"https://www.cbsa-asfc.gc.ca/do-rb/menu-eng.html","geocoder":"Natural Resources Canada Geolocation Service","count":38,"note":"Canadian-side control points for physical New England road, rail, ferry, and remote border crossings."},"features":[{"type":"Feature","geometry":{"type":"Point","coordinates":[-67.788305,46.765413]},"properties":{"group":"border","dataStatus":"reference","color":"#f0d27a","title":"Andover","status":"Canada\u2013U.S. road crossing \u00b7 Fort Fairfield ME","details":"Daily 00:00\u201323:59","provider":"Canada Border Services Agency directory","sourceUrl":"https://www.cbsa-asfc.gc.ca/do-rb/menu-eng.html","crossingType":"road","usPort":"Fort Fairfield ME","province":"NB","regions":["me"]}},{"type":"Feature","geometry":{"type":"Point","coordinates":[-67.777397,46.316785]},"properties":{"group":"border","dataStatus":"reference","color":"#f0d27a","title":"Bloomfield","status":"Canada\u2013U.S. road crossing \u00b7 Monticello ME","details":"Daily 09:00\u201317:00 \u00b7 Except Canadian and US holidays","provider":"Canada Border Services Agency directory","sourceUrl":"https://www.cbsa-asfc.gc.ca/do-rb/menu-eng.html","crossingType":"road","usPort":"Monticello ME","province":"NB","regions":["me"]}},{"type":"Feature","geometry":{"type":"Point","coordinates":[-66.978641,44.859818]},"properties":{"group":"border","dataStatus":"reference","color":"#f0d27a","title":"Campobello","status":"Canada\u2013U.S. road crossing \u00b7 Lubec ME","details":"Daily 00:00\u201323:59","provider":"Canada Border Services Agency directory","sourceUrl":"https://www.cbsa-asfc.gc.ca/do-rb/menu-eng.html","crossingType":"road","usPort":"Lubec ME","province":"NB","regions":["me"]}},{"type":"Feature","geometry":{"type":"Point","coordinates":[-67.782588,46.450437]},"properties":{"group":"border","dataStatus":"reference","color":"#f0d27a","title":"Centreville","status":"Canada\u2013U.S. road crossing \u00b7 Bridgewater ME","details":"Daily 06:00\u201322:00","provider":"Canada Border Services Agency directory","sourceUrl":"https://www.cbsa-asfc.gc.ca/do-rb/menu-eng.html","crossingType":"road","usPort":"Bridgewater ME","province":"NB","regions":["me"]}},{"type":"Feature","geometry":{"type":"Point","coordinates":[-68.605771,47.250751]},"properties":{"group":"border","dataStatus":"reference","color":"#f0d27a","title":"Clair","status":"Canada\u2013U.S. road crossing \u00b7 Fort Kent ME","details":"Daily 00:00\u201323:59","provider":"Canada Border Services Agency directory","sourceUrl":"https://www.cbsa-asfc.gc.ca/do-rb/menu-eng.html","crossingType":"road","usPort":"Fort Kent ME","province":"NB","regions":["me"]}},{"type":"Feature","geometry":{"type":"Point","coordinates":[-68.328905,47.36218]},"properties":{"group":"border","dataStatus":"reference","color":"#f0d27a","title":"Edmundston","status":"Canada\u2013U.S. road crossing \u00b7 Madawaska ME","details":"Daily 00:00\u201323:59","provider":"Canada Border Services Agency directory","sourceUrl":"https://www.cbsa-asfc.gc.ca/do-rb/menu-eng.html","crossingType":"road","usPort":"Madawaska ME","province":"NB","regions":["me"]}},{"type":"Feature","geometry":{"type":"Point","coordinates":[-67.728291,45.663328]},"properties":{"group":"border","dataStatus":"reference","color":"#f0d27a","title":"Forest City","status":"Canada\u2013U.S. road crossing \u00b7 Forest City ME","details":"Hours vary; verify before travel \u00b7 seasonal hours \u00b7 Summer: Last Monday of May to 1st Monday of September. 09:00 to 17:00 7 days a week (including holidays) Winter: 1st Monday of September to last Monday of May. 09:00 to 17:00 6 days a week (Monday to Saturday) including holidays","provider":"Canada Border Services Agency directory","sourceUrl":"https://www.cbsa-asfc.gc.ca/do-rb/menu-eng.html","crossingType":"road","usPort":"Forest City ME","province":"NB","regions":["me"]}},{"type":"Feature","geometry":{"type":"Point","coordinates":[-67.780357,45.816755]},"properties":{"group":"border","dataStatus":"reference","color":"#f0d27a","title":"Fosterville","status":"Canada\u2013U.S. road crossing \u00b7 Orient ME","details":"Hours vary; verify before travel \u00b7 seasonal hours \u00b7 08:00 to 20:00 last Monday of May to 1st Monday of September 8:00 to 18:00 remainder of the year 7 days a week","provider":"Canada Border Services Agency directory","sourceUrl":"https://www.cbsa-asfc.gc.ca/do-rb/menu-eng.html","crossingType":"road","usPort":"Orient ME","province":"NB","regions":["me"]}},{"type":"Feature","geometry":{"type":"Point","coordinates":[-67.78956,46.924638]},"properties":{"group":"border","dataStatus":"reference","color":"#f0d27a","title":"Gillespie Portage","status":"Canada\u2013U.S. road crossing \u00b7 Limestone ME","details":"Daily 07:00\u201319:00","provider":"Canada Border Services Agency directory","sourceUrl":"https://www.cbsa-asfc.gc.ca/do-rb/menu-eng.html","crossingType":"road","usPort":"Limestone ME","province":"NB","regions":["me"]}},{"type":"Feature","geometry":{"type":"Point","coordinates":[-67.789364,47.059737]},"properties":{"group":"border","dataStatus":"reference","color":"#f0d27a","title":"Grand Falls","status":"Canada\u2013U.S. road crossing \u00b7 Hamlin ME","details":"Daily 07:00\u201319:00","provider":"Canada Border Services Agency directory","sourceUrl":"https://www.cbsa-asfc.gc.ca/do-rb/menu-eng.html","crossingType":"road","usPort":"Hamlin ME","province":"NB","regions":["me"]}},{"type":"Feature","geometry":{"type":"Point","coordinates":[-67.297105,45.170864]},"properties":{"group":"border","dataStatus":"reference","color":"#f0d27a","title":"Milltown","status":"Canada\u2013U.S. road crossing \u00b7 Milltown ME","details":"Daily 09:00\u201317:00","provider":"Canada Border Services Agency directory","sourceUrl":"https://www.cbsa-asfc.gc.ca/do-rb/menu-eng.html","crossingType":"road","usPort":"Milltown ME","province":"NB","regions":["me"]}},{"type":"Feature","geometry":{"type":"Point","coordinates":[-67.785038,46.600055]},"properties":{"group":"border","dataStatus":"reference","color":"#f0d27a","title":"River de Chute","status":"Canada\u2013U.S. road crossing \u00b7 Easton ME","details":"Daily 09:00\u201317:00","provider":"Canada Border Services Agency directory","sourceUrl":"https://www.cbsa-asfc.gc.ca/do-rb/menu-eng.html","crossingType":"road","usPort":"Easton ME","province":"NB","regions":["me"]}},{"type":"Feature","geometry":{"type":"Point","coordinates":[-67.428155,45.568658]},"properties":{"group":"border","dataStatus":"reference","color":"#f0d27a","title":"St. Croix","status":"Canada\u2013U.S. road + rail crossing \u00b7 Vanceboro ME","details":"Daily 09:00\u201321:00","provider":"Canada Border Services Agency directory","sourceUrl":"https://www.cbsa-asfc.gc.ca/do-rb/menu-eng.html","crossingType":"road + rail","usPort":"Vanceboro ME","province":"NB","regions":["me"]}},{"type":"Feature","geometry":{"type":"Point","coordinates":[-67.929159,47.160268]},"properties":{"group":"border","dataStatus":"reference","color":"#f0d27a","title":"St. Leonard","status":"Canada\u2013U.S. road + rail crossing \u00b7 Van Buren ME","details":"Daily 00:00\u201323:59","provider":"Canada Border Services Agency directory","sourceUrl":"https://www.cbsa-asfc.gc.ca/do-rb/menu-eng.html","crossingType":"road + rail","usPort":"Van Buren ME","province":"NB","regions":["me"]}},{"type":"Feature","geometry":{"type":"Point","coordinates":[-67.283835,45.192625]},"properties":{"group":"border","dataStatus":"reference","color":"#f0d27a","title":"St. Stephen (Ferry Point Bridge)","status":"Canada\u2013U.S. road crossing \u00b7 Calais, ME (Ferry Point)","details":"Daily 00:00\u201323:59","provider":"Canada Border Services Agency directory","sourceUrl":"https://www.cbsa-asfc.gc.ca/do-rb/menu-eng.html","crossingType":"road","usPort":"Calais, ME (Ferry Point)","province":"NB","regions":["me"]}},{"type":"Feature","geometry":{"type":"Point","coordinates":[-67.305121,45.161135]},"properties":{"group":"border","dataStatus":"reference","color":"#f0d27a","title":"St. Stephen 3rd Bridge","status":"Canada\u2013U.S. road + rail crossing \u00b7 Calais, ME (International Avenue)","details":"Daily 00:00\u201323:59","provider":"Canada Border Services Agency directory","sourceUrl":"https://www.cbsa-asfc.gc.ca/do-rb/menu-eng.html","crossingType":"road + rail","usPort":"Calais, ME (International Avenue)","province":"NB","regions":["me"]}},{"type":"Feature","geometry":{"type":"Point","coordinates":[-67.77451,46.140455]},"properties":{"group":"border","dataStatus":"reference","color":"#f0d27a","title":"Woodstock Road","status":"Canada\u2013U.S. road crossing \u00b7 Houlton ME","details":"Daily 00:00\u201323:59 \u00b7 NEXUS lanes towards Canada open: Monday to Friday (except holidays) 15:00 to 18:00 NEXUS lanes towards United States open: Monday to Friday 07:00 to 10:00 (EST)","provider":"Canada Border Services Agency directory","sourceUrl":"https://www.cbsa-asfc.gc.ca/do-rb/menu-eng.html","crossingType":"road","usPort":"Houlton ME","province":"NB","regions":["me"]}},{"type":"Feature","geometry":{"type":"Point","coordinates":[-72.662517,45.015075]},"properties":{"group":"border","dataStatus":"reference","color":"#f0d27a","title":"Abercorn","status":"Canada\u2013U.S. road + rail crossing \u00b7 Richford VT","details":"Daily 00:00\u201323:59","provider":"Canada Border Services Agency directory","sourceUrl":"https://www.cbsa-asfc.gc.ca/do-rb/menu-eng.html","crossingType":"road + rail","usPort":"Richford VT","province":"QC","regions":["vt"]}},{"type":"Feature","geometry":{"type":"Point","coordinates":[-70.403009,45.823592]},"properties":{"group":"border","dataStatus":"reference","color":"#f0d27a","title":"Armstrong","status":"Canada\u2013U.S. road crossing \u00b7 Jackman, ME","details":"Daily 00:00\u201323:59 \u00b7 Hours for processing confirmation of permanent residence, work and study permit applications for individuals that reside in Canada and travel to the United States for the sole purpose of returning to Canada to present one of these applications, please click <a href=https://www.cb","provider":"Canada Border Services Agency directory","sourceUrl":"https://www.cbsa-asfc.gc.ca/do-rb/menu-eng.html","crossingType":"road","usPort":"Jackman, ME","province":"QC","regions":["me"]}},{"type":"Feature","geometry":{"type":"Point","coordinates":[-71.205751,45.258795]},"properties":{"group":"border","dataStatus":"reference","color":"#f0d27a","title":"Chartierville","status":"Canada\u2013U.S. road crossing \u00b7 Pittsburg, NH","details":"Daily 08:00\u201320:00","provider":"Canada Border Services Agency directory","sourceUrl":"https://www.cbsa-asfc.gc.ca/do-rb/menu-eng.html","crossingType":"road","usPort":"Pittsburg, NH","province":"QC","regions":["nh"]}},{"type":"Feature","geometry":{"type":"Point","coordinates":[-73.212214,45.013029]},"properties":{"group":"border","dataStatus":"reference","color":"#f0d27a","title":"Clarenceville","status":"Canada\u2013U.S. road crossing \u00b7 Alburg Springs, VT","details":"Daily 08:00\u201316:00","provider":"Canada Border Services Agency directory","sourceUrl":"https://www.cbsa-asfc.gc.ca/do-rb/menu-eng.html","crossingType":"road","usPort":"Alburg Springs, VT","province":"QC","regions":["vt"]}},{"type":"Feature","geometry":{"type":"Point","coordinates":[-71.504594,45.015931]},"properties":{"group":"border","dataStatus":"reference","color":"#f0d27a","title":"East Hereford","status":"Canada\u2013U.S. road crossing \u00b7 Beecher Falls VT","details":"Daily 00:00\u201323:59","provider":"Canada Border Services Agency directory","sourceUrl":"https://www.cbsa-asfc.gc.ca/do-rb/menu-eng.html","crossingType":"road","usPort":"Beecher Falls VT","province":"QC","regions":["vt"]}},{"type":"Feature","geometry":{"type":"Point","coordinates":[-72.700131,45.015848]},"properties":{"group":"border","dataStatus":"reference","color":"#f0d27a","title":"East Pinnacle","status":"Canada\u2013U.S. road crossing \u00b7 Pinnacle Road, VT","details":"Daily 08:00\u201316:00","provider":"Canada Border Services Agency directory","sourceUrl":"https://www.cbsa-asfc.gc.ca/do-rb/menu-eng.html","crossingType":"road","usPort":"Pinnacle Road, VT","province":"QC","regions":["vt"]}},{"type":"Feature","geometry":{"type":"Point","coordinates":[-72.823758,45.022723]},"properties":{"group":"border","dataStatus":"reference","color":"#f0d27a","title":"Frelighsburg","status":"Canada\u2013U.S. road crossing \u00b7 West Berkshire, VT","details":"Daily 08:00\u201320:00","provider":"Canada Border Services Agency directory","sourceUrl":"https://www.cbsa-asfc.gc.ca/do-rb/menu-eng.html","crossingType":"road","usPort":"West Berkshire, VT","province":"QC","regions":["vt"]}},{"type":"Feature","geometry":{"type":"Point","coordinates":[-72.58829,45.085045]},"properties":{"group":"border","dataStatus":"reference","color":"#f0d27a","title":"Glen Sutton","status":"Canada\u2013U.S. road crossing \u00b7 East Richford, VT","details":"Daily 08:00\u201316:00","provider":"Canada Border Services Agency directory","sourceUrl":"https://www.cbsa-asfc.gc.ca/do-rb/menu-eng.html","crossingType":"road","usPort":"East Richford, VT","province":"QC","regions":["vt"]}},{"type":"Feature","geometry":{"type":"Point","coordinates":[-71.56063,45.013073]},"properties":{"group":"border","dataStatus":"reference","color":"#f0d27a","title":"Hereford Road","status":"Canada\u2013U.S. road crossing \u00b7 Canaan, VT","details":"Daily 08:00\u201320:00","provider":"Canada Border Services Agency directory","sourceUrl":"https://www.cbsa-asfc.gc.ca/do-rb/menu-eng.html","crossingType":"road","usPort":"Canaan, VT","province":"QC","regions":["vt"]}},{"type":"Feature","geometry":{"type":"Point","coordinates":[-72.416002,45.007281]},"properties":{"group":"border","dataStatus":"reference","color":"#f0d27a","title":"Highwater","status":"Canada\u2013U.S. road crossing \u00b7 North Troy, VT","details":"Daily 08:00\u201320:00","provider":"Canada Border Services Agency directory","sourceUrl":"https://www.cbsa-asfc.gc.ca/do-rb/menu-eng.html","crossingType":"road","usPort":"North Troy, VT","province":"QC","regions":["vt"]}},{"type":"Feature","geometry":{"type":"Point","coordinates":[-72.978005,45.014385]},"properties":{"group":"border","dataStatus":"reference","color":"#f0d27a","title":"Morses Line","status":"Canada\u2013U.S. road crossing \u00b7 Morses Line VT","details":"Daily 08:00\u201316:00","provider":"Canada Border Services Agency directory","sourceUrl":"https://www.cbsa-asfc.gc.ca/do-rb/menu-eng.html","crossingType":"road","usPort":"Morses Line VT","province":"QC","regions":["vt"]}},{"type":"Feature","geometry":{"type":"Point","coordinates":[-73.298635,45.089036]},"properties":{"group":"border","dataStatus":"reference","color":"#f0d27a","title":"Noyan","status":"Canada\u2013U.S. road crossing \u00b7 Alburg, VT (joint facilities with U.S.)","details":"Daily 08:00\u201320:00","provider":"Canada Border Services Agency directory","sourceUrl":"https://www.cbsa-asfc.gc.ca/do-rb/menu-eng.html","crossingType":"road","usPort":"Alburg, VT (joint facilities with U.S.)","province":"QC","regions":["vt"]}},{"type":"Feature","geometry":{"type":"Point","coordinates":[-73.08431,45.017087]},"properties":{"group":"border","dataStatus":"reference","color":"#f0d27a","title":"St-Armand/Philipsburg","status":"Canada\u2013U.S. road crossing \u00b7 Highgate Springs, VT","details":"Daily 00:00\u201323:59 \u00b7 Hours for processing confirmation of permanent residence, work and study permit applications for individuals that reside in Canada and travel to the United States for the sole purpose of returning to Canada to present one of these applications, please click <a href=https://www.cb","provider":"Canada Border Services Agency directory","sourceUrl":"https://www.cbsa-asfc.gc.ca/do-rb/menu-eng.html","crossingType":"road","usPort":"Highgate Springs, VT","province":"QC","regions":["vt"]}},{"type":"Feature","geometry":{"type":"Point","coordinates":[-70.031084,46.546177]},"properties":{"group":"border","dataStatus":"reference","color":"#f0d27a","title":"St-Just-de-Bretenieres","status":"Canada\u2013U.S. road crossing \u00b7 St. Juste, ME","details":"Mon 09:00\u201317:00 \u00b7 remote-traveller pilot location","provider":"Canada Border Services Agency directory","sourceUrl":"https://www.cbsa-asfc.gc.ca/do-rb/menu-eng.html","crossingType":"road","usPort":"St. Juste, ME","province":"QC","regions":["me"]}},{"type":"Feature","geometry":{"type":"Point","coordinates":[-69.750624,46.942632]},"properties":{"group":"border","dataStatus":"reference","color":"#f0d27a","title":"St-Pamphile","status":"Canada\u2013U.S. road crossing \u00b7 St. Pamphile, ME","details":"Mon 09:00\u201317:00 \u00b7 remote-traveller pilot location","provider":"Canada Border Services Agency directory","sourceUrl":"https://www.cbsa-asfc.gc.ca/do-rb/menu-eng.html","crossingType":"road","usPort":"St. Pamphile, ME","province":"QC","regions":["me"]}},{"type":"Feature","geometry":{"type":"Point","coordinates":[-71.78416,45.021949]},"properties":{"group":"border","dataStatus":"reference","color":"#f0d27a","title":"Stanhope","status":"Canada\u2013U.S. road + rail crossing \u00b7 Norton, VT","details":"Daily 00:00\u201323:59","provider":"Canada Border Services Agency directory","sourceUrl":"https://www.cbsa-asfc.gc.ca/do-rb/menu-eng.html","crossingType":"road + rail","usPort":"Norton, VT","province":"QC","regions":["vt"]}},{"type":"Feature","geometry":{"type":"Point","coordinates":[-72.10661,45.019483]},"properties":{"group":"border","dataStatus":"reference","color":"#f0d27a","title":"Stanstead (55)","status":"Canada\u2013U.S. road crossing \u00b7 Derby Line, VT","details":"Daily 00:00\u201323:59 \u00b7 Hours for processing confirmation of permanent residence, work and study permit applications for individuals that reside in Canada and travel to the United States for the sole purpose of returning to Canada to present one of these applications, please click <a href=https://www.cb","provider":"Canada Border Services Agency directory","sourceUrl":"https://www.cbsa-asfc.gc.ca/do-rb/menu-eng.html","crossingType":"road","usPort":"Derby Line, VT","province":"QC","regions":["vt"]}},{"type":"Feature","geometry":{"type":"Point","coordinates":[-72.987369,45.121093]},"properties":{"group":"border","dataStatus":"reference","color":"#f0d27a","title":"Stanstead (Beebe)","status":"Canada\u2013U.S. road crossing \u00b7 Beebe Plain, VT","details":"Daily 00:00\u201323:59","provider":"Canada Border Services Agency directory","sourceUrl":"https://www.cbsa-asfc.gc.ca/do-rb/menu-eng.html","crossingType":"road","usPort":"Beebe Plain, VT","province":"QC","regions":["vt"]}},{"type":"Feature","geometry":{"type":"Point","coordinates":[-72.09886,45.006553]},"properties":{"group":"border","dataStatus":"reference","color":"#f0d27a","title":"Stanstead (Rte 143)","status":"Canada\u2013U.S. road crossing \u00b7 Derby Line, VT (Route 5)","details":"Daily 08:00\u201320:00","provider":"Canada Border Services Agency directory","sourceUrl":"https://www.cbsa-asfc.gc.ca/do-rb/menu-eng.html","crossingType":"road","usPort":"Derby Line, VT (Route 5)","province":"QC","regions":["vt"]}},{"type":"Feature","geometry":{"type":"Point","coordinates":[-70.276357,46.207698]},"properties":{"group":"border","dataStatus":"reference","color":"#f0d27a","title":"Ste-Aur\u00e9lie","status":"Canada\u2013U.S. road crossing \u00b7 Ste. Aurelie, ME","details":"Mon 09:00\u201317:00 \u00b7 remote-traveller pilot location","provider":"Canada Border Services Agency directory","sourceUrl":"https://www.cbsa-asfc.gc.ca/do-rb/menu-eng.html","crossingType":"road","usPort":"Ste. Aurelie, ME","province":"QC","regions":["me"]}},{"type":"Feature","geometry":{"type":"Point","coordinates":[-70.80787,45.378696]},"properties":{"group":"border","dataStatus":"reference","color":"#f0d27a","title":"Woburn","status":"Canada\u2013U.S. road + rail crossing \u00b7 Coburn Gore, ME","details":"Daily 00:00\u201323:59","provider":"Canada Border Services Agency directory","sourceUrl":"https://www.cbsa-asfc.gc.ca/do-rb/menu-eng.html","crossingType":"road + rail","usPort":"Coburn Gore, ME","province":"QC","regions":["me"]}}]}