{"type":"FeatureCollection","metadata":{"source":"data/regions.geojson grown by a coastal buffer for the vessel layer","clip":[[40.8,-74.0],[47.7,-66.0]]},"features":[{"type":"Feature","properties":{"key":"greater-boston","bufferDeg":0.1},"geometry":{"type":"Polygon","coordinates":[[[-71.5556,42.0712],[-71.5652,42.0845],[-71.583,42.0863],[-71.6282,42.1064],[-71.6589,42.1305],[-71.696,42.1835],[-71.7022,42.2183],[-71.6888,42.272],[-71.7142,42.3028],[-71.7251,42.3379],[-71.7227,42.3746],[-71.6785,42.4647],[-71.6586,42.4797],[-71.6402,42.5349],[-71.6391,42.5757],[-71.6243,42.6076],[-71.5993,42.6325],[-71.5662,42.6535],[-71.5146,42.6735],[-71.5038,42.7024],[-71.2946,42.697],[-71.2454,42.7426],[-71.2238,42.7465],[-71.1818,42.7373],[-71.1861,42.7909],[-71.1667,42.8089],[-71.1328,42.8215],[-71.0644,42.8063],[-71.0449,42.8487],[-71.0312,42.8591],[-70.967,42.8688],[-70.9296,42.885],[-70.8856,42.8828],[-70.8477,42.8609],[-70.8202,42.8718],[-70.735,42.8747],[-70.7264,42.9178],[-70.6989,42.7917],[-70.5961,42.7916],[-70.5324,42.7729],[-70.504,42.7515],[-70.4739,42.704],[-70.4663,42.6272],[-70.4839,42.5641],[-70.5123,42.5353],[-70.567,42.5172],[-70.6011,42.491],[-70.6386,42.4798],[-70.6425,42.4689],[-70.607,42.4478],[-70.5845,42.4162],[-70.5757,42.3785],[-70.582,42.3402],[-70.6313,42.2758],[-70.5973,42.1996],[-70.5519,42.1488],[-70.512,42.0674],[-70.4826,42.0398],[-70.4502,41.9952],[-70.4312,41.9624],[-70.4199,41.9264],[-70.4164,41.8582],[-70.4292,41.7932],[-70.4591,41.7464],[-70.4999,41.711],[-70.5349,41.6914],[-70.5956,41.67],[-70.6356,41.6629],[-70.6751,41.6724],[-70.7104,41.7017],[-70.7767,41.7076],[-70.885,41.695],[-70.924,41.6982],[-70.9588,41.7162],[-70.984,41.7461],[-71.0019,41.8046],[-71.0637,41.8355],[-71.0846,41.8681],[-71.1204,41.895],[-71.1684,41.9017],[-71.2238,41.8807],[-71.2666,41.8745],[-71.3081,41.8869],[-71.3469,41.9248],[-71.3814,41.9188],[-71.3814,42.0188],[-71.5559,42.0143],[-71.5556,42.0712]]]}},{"type":"Feature","properties":{"key":"boston","bufferDeg":0.06},"geometry":{"type":"Polygon","coordinates":[[[-71.3301,42.3349],[-71.3147,42.3791],[-71.3,42.3987],[-71.2696,42.4136],[-71.254,42.4482],[-71.2285,42.4745],[-71.2074,42.4908],[-71.1613,42.4959],[-71.1234,42.5133],[-71.0656,42.5009],[-71.0125,42.5098],[-70.9868,42.5],[-70.9729,42.5042],[-70.9288,42.5001],[-70.9077,42.4861],[-70.8943,42.4645],[-70.892,42.4468],[-70.754,42.4607],[-70.7303,42.4577],[-70.7091,42.4452],[-70.6941,42.4248],[-70.6888,42.4001],[-70.6922,42.354],[-70.7171,42.3228],[-70.749,42.3133],[-70.8453,42.3125],[-70.8555,42.2842],[-70.8781,42.2648],[-70.884,42.2405],[-70.9015,42.2187],[-70.924,42.1393],[-70.9373,42.1228],[-70.9765,42.1083],[-71.0471,42.1145],[-71.0795,42.1441],[-71.1049,42.1407],[-71.1269,42.1457],[-71.2536,42.2561],[-71.3067,42.2807],[-71.3281,42.3125],[-71.3301,42.3349]]]}},{"type":"Feature","properties":{"key":"ma","bufferDeg":0.2},"geometry":{"type":"MultiPolygon","coordinates":[[[[-73.5817,41.8684],[-73.648,41.9184],[-73.6882,41.991],[-73.7081,42.0917],[-73.6958,42.1554],[-73.4525,42.8151],[-73.4088,42.8847],[-73.3407,42.9309],[-73.2736,42.9433],[-73.2787,42.8334],[-73.2854,42.8341],[-73.2837,42.8139],[-73.2909,42.8019],[-73.2764,42.746],[-71.2946,42.697],[-71.2454,42.7426],[-71.2238,42.7465],[-71.1818,42.7373],[-71.1861,42.7909],[-71.1667,42.8089],[-71.1328,42.8215],[-71.0644,42.8063],[-71.0449,42.8487],[-71.0312,42.8591],[-70.967,42.8688],[-70.9146,42.8867],[-70.8856,42.8828],[-70.8477,42.8609],[-70.8202,42.8718],[-70.735,42.8747],[-70.7273,42.8936],[-70.726,42.9285],[-70.709,42.9382],[-70.6944,42.9567],[-70.6809,42.9369],[-70.6551,42.9221],[-70.6107,42.9125],[-70.5751,42.9171],[-70.5479,42.9352],[-70.5459,42.9276],[-70.5095,42.9202],[-70.418,42.875],[-70.3983,42.8579],[-70.342,42.7828],[-70.3182,42.7218],[-70.3064,42.6658],[-70.3053,42.5892],[-70.333,42.5178],[-70.3811,42.4513],[-70.4374,42.4053],[-70.4631,42.3284],[-70.3042,42.3168],[-70.2409,42.3308],[-70.1843,42.3342],[-70.1368,42.3313],[-70.0438,42.3097],[-69.9634,42.2763],[-69.8788,42.2216],[-69.8388,42.1829],[-69.7602,42.0825],[-69.7338,42.0378],[-69.6761,41.8781],[-69.66,41.7548],[-69.6606,41.6859],[-69.6725,41.615],[-69.6967,41.5539],[-69.7577,41.4456],[-69.728,41.4006],[-69.6949,41.2931],[-69.6945,41.2619],[-69.7198,41.1618],[-69.7412,41.1235],[-69.8177,41.0467],[-69.9055,41.0055],[-69.9513,40.9942],[-70.0022,40.9883],[-70.1513,40.9942],[-70.2456,41.016],[-70.3932,41.0735],[-70.4379,41.0665],[-70.5404,41.0822],[-70.5778,41.0996],[-70.5957,41.0987],[-70.6484,41.0461],[-70.7201,41.0116],[-70.8208,41.0007],[-70.8889,41.0116],[-70.9316,41.0264],[-71.0068,41.073],[-71.0254,41.0914],[-71.0748,41.1698],[-71.1576,41.222],[-71.1907,41.2636],[-71.2136,41.2752],[-71.2653,41.3377],[-71.2812,41.3676],[-71.1193,41.4133],[-71.0886,41.4313],[-71.1211,41.4928],[-71.1316,41.5937],[-71.142,41.6125],[-71.1326,41.6604],[-71.1955,41.6751],[-71.2611,41.7521],[-71.3285,41.7807],[-71.3405,41.797],[-71.3393,41.8085],[-71.3475,41.8233],[-71.3354,41.8356],[-71.3426,41.8447],[-71.334,41.8626],[-71.3409,41.8818],[-71.3388,41.8986],[-71.3815,41.8935],[-71.3814,42.0188],[-71.7992,42.008],[-71.7924,41.8082],[-71.8007,42.0235],[-72.5315,42.0346],[-72.5822,42.0247],[-72.6072,42.0251],[-72.608,42.0311],[-72.7559,42.0363],[-72.7521,42.029],[-72.7573,42.021],[-72.7652,42.0224],[-72.7589,42.0155],[-72.7667,42.0033],[-72.817,41.9977],[-72.8138,42.0367],[-73.4873,42.0495],[-73.5041,41.8504],[-73.5817,41.8684]]],[[[-72.5571,42.8532],[-72.5526,42.885],[-72.557,42.8531],[-72.5571,42.8532]]]]}},{"type":"Feature","properties":{"key":"merrimack-valley","bufferDeg":0.1},"geometry":{"type":"Polygon","coordinates":[[[-71.9809,42.6492],[-71.9948,42.6822],[-71.9973,42.7151],[-71.2946,42.697],[-71.2454,42.7426],[-71.2238,42.7465],[-71.1818,42.7373],[-71.1861,42.7909],[-71.1667,42.8089],[-71.1328,42.8215],[-71.0644,42.8063],[-71.0449,42.8487],[-71.0312,42.8591],[-70.967,42.8688],[-70.9296,42.885],[-70.8856,42.8828],[-70.8477,42.8609],[-70.8202,42.8718],[-70.735,42.8747],[-70.7264,42.9178],[-70.7045,42.8072],[-70.686,42.7463],[-70.6909,42.7085],[-70.7096,42.6754],[-70.7443,42.6443],[-70.8722,42.6026],[-70.8887,42.5656],[-70.9153,42.5408],[-70.9407,42.5298],[-70.9515,42.5101],[-70.9812,42.4859],[-71.0377,42.4616],[-71.1477,42.4546],[-71.1707,42.4272],[-71.2087,42.4091],[-71.2508,42.4082],[-71.27,42.4163],[-71.2786,42.4103],[-71.3329,42.4026],[-71.368,42.3404],[-71.3945,42.3193],[-71.4534,42.3039],[-71.4901,42.3048],[-71.5241,42.3188],[-71.5506,42.3442],[-71.5929,42.4359],[-71.6116,42.427],[-71.6506,42.4251],[-71.6937,42.4315],[-71.7303,42.4446],[-71.7591,42.4707],[-71.7759,42.5058],[-71.7775,42.5367],[-71.8673,42.5342],[-71.9042,42.5449],[-71.9343,42.5686],[-71.9533,42.6019],[-71.956,42.6229],[-71.9809,42.6492]]]}},{"type":"Feature","properties":{"key":"north-shore","bufferDeg":0.1},"geometry":{"type":"Polygon","coordinates":[[[-71.1521,42.6496],[-71.1284,42.6938],[-71.1331,42.7497],[-71.1149,42.8175],[-71.0644,42.8063],[-71.0449,42.8487],[-71.0312,42.8591],[-70.967,42.8688],[-70.9296,42.885],[-70.8856,42.8828],[-70.8477,42.8609],[-70.8202,42.8718],[-70.735,42.8747],[-70.7264,42.9178],[-70.6989,42.7917],[-70.5961,42.7916],[-70.5324,42.7729],[-70.504,42.7515],[-70.4739,42.704],[-70.4656,42.6553],[-70.4692,42.6018],[-70.4839,42.5641],[-70.5123,42.5353],[-70.567,42.5172],[-70.6011,42.491],[-70.6386,42.4798],[-70.6527,42.4449],[-70.6877,42.4126],[-70.754,42.3801],[-70.7719,42.3326],[-70.7992,42.308],[-70.8335,42.2948],[-70.9128,42.2848],[-70.9572,42.2946],[-70.9872,42.2881],[-71.0447,42.3018],[-71.0879,42.3272],[-71.1116,42.3534],[-71.1251,42.3748],[-71.1327,42.4172],[-71.1735,42.5131],[-71.1738,42.5476],[-71.1521,42.6496]]]}},{"type":"Feature","properties":{"key":"worcester","bufferDeg":0.1},"geometry":{"type":"Polygon","coordinates":[[[-72.4084,42.3101],[-72.4122,42.4238],[-72.3894,42.4726],[-72.3898,42.497],[-72.3712,42.5378],[-72.3738,42.6001],[-72.3605,42.6312],[-72.3804,42.6986],[-72.3817,42.725],[-71.6328,42.7057],[-71.604,42.6912],[-71.5796,42.6643],[-71.5737,42.6491],[-71.5211,42.6415],[-71.4892,42.6299],[-71.4629,42.6082],[-71.4365,42.5558],[-71.4305,42.5087],[-71.4438,42.4723],[-71.4517,42.4234],[-71.4199,42.4045],[-71.3964,42.3729],[-71.3869,42.3347],[-71.3972,42.2651],[-71.411,42.2386],[-71.3849,42.2022],[-71.378,42.1644],[-71.3843,42.0978],[-71.3982,42.0727],[-71.3983,42.0184],[-71.7992,42.008],[-71.7961,41.9081],[-71.8007,42.0235],[-72.2356,42.0301],[-72.2355,42.0622],[-72.3307,42.1094],[-72.354,42.1404],[-72.3645,42.1908],[-72.3538,42.2426],[-72.3896,42.278],[-72.4084,42.3101]]]}},{"type":"Feature","properties":{"key":"pioneer-valley","bufferDeg":0.1},"geometry":{"type":"Polygon","coordinates":[[[-73.1595,42.0439],[-73.1735,42.0876],[-73.1688,42.1696],[-73.1544,42.2035],[-73.1111,42.2414],[-73.146,42.2734],[-73.1623,42.3182],[-73.1679,42.3699],[-73.1636,42.4118],[-73.144,42.4514],[-73.1173,42.4748],[-73.0865,42.4865],[-73.0652,42.6046],[-73.0943,42.6319],[-73.1164,42.6652],[-73.123,42.7424],[-72.1445,42.7154],[-72.1267,42.6578],[-72.1272,42.6176],[-72.1323,42.5899],[-72.1536,42.5505],[-72.146,42.5287],[-72.1471,42.4925],[-72.161,42.459],[-72.1857,42.4328],[-72.1907,42.4083],[-72.1485,42.3896],[-72.1225,42.3583],[-72.1035,42.2977],[-72.1096,42.2577],[-72.0686,42.2366],[-72.0437,42.2025],[-72.035,42.1612],[-72.0363,42.0271],[-72.5315,42.0346],[-72.5822,42.0247],[-72.6072,42.0251],[-72.608,42.0311],[-72.7559,42.0363],[-72.7521,42.029],[-72.7573,42.021],[-72.7652,42.0224],[-72.7589,42.0155],[-72.7667,42.0033],[-72.817,41.9977],[-72.8138,42.0367],[-73.1595,42.0439]]]}},{"type":"Feature","properties":{"key":"berkshires","bufferDeg":0.1},"geometry":{"type":"Polygon","coordinates":[[[-72.9003,42.3101],[-72.9019,42.2485],[-72.9116,42.2079],[-72.9387,42.1163],[-72.9583,42.0807],[-72.9535,42.0394],[-73.4873,42.0495],[-73.4958,41.9496],[-73.5375,41.9582],[-73.5718,41.9833],[-73.5926,42.0203],[-73.6082,42.0889],[-73.602,42.1207],[-73.3586,42.7805],[-73.3369,42.8152],[-73.3031,42.8382],[-73.2781,42.843],[-73.2787,42.8334],[-73.2854,42.8341],[-73.2837,42.8139],[-73.2909,42.8019],[-73.2764,42.746],[-72.8554,42.7362],[-72.8487,42.706],[-72.8554,42.668],[-72.8511,42.6434],[-72.8548,42.6139],[-72.8706,42.5577],[-72.872,42.514],[-72.9137,42.3591],[-72.9003,42.3101]]]}},{"type":"Feature","properties":{"key":"south-coast","bufferDeg":0.1},"geometry":{"type":"Polygon","coordinates":[[[-71.5975,42.0132],[-71.599,42.1386],[-71.5808,42.1774],[-71.5406,42.2109],[-71.4916,42.2305],[-71.4507,42.2355],[-71.3989,42.2257],[-71.3829,42.216],[-71.3496,42.1744],[-71.3422,42.1339],[-71.2803,42.1447],[-71.2508,42.1365],[-71.117,42.1886],[-71.0751,42.1954],[-71.0341,42.1842],[-71.0015,42.1569],[-70.9832,42.1186],[-70.9619,42.0276],[-70.9163,41.9861],[-70.8564,41.9569],[-70.8305,41.928],[-70.8221,41.9095],[-70.7761,41.9256],[-70.7381,41.9205],[-70.7064,41.9023],[-70.6106,41.9052],[-70.5712,41.8945],[-70.5394,41.8689],[-70.5204,41.8327],[-70.5226,41.7285],[-70.5425,41.6853],[-70.5968,41.625],[-70.6346,41.5677],[-70.6684,41.5487],[-70.7272,41.5457],[-70.7668,41.5003],[-70.7678,41.4811],[-70.7873,41.4437],[-70.8204,41.4176],[-70.9319,41.3637],[-70.9715,41.3542],[-71.0116,41.3613],[-71.0404,41.3803],[-71.151,41.3907],[-71.1668,41.3999],[-71.1193,41.4133],[-71.0886,41.4313],[-71.1211,41.4928],[-71.1316,41.5937],[-71.142,41.6125],[-71.1326,41.6604],[-71.1955,41.6751],[-71.2611,41.7521],[-71.3285,41.7807],[-71.3405,41.797],[-71.3393,41.8085],[-71.3475,41.8233],[-71.3354,41.8356],[-71.3426,41.8447],[-71.334,41.8626],[-71.3409,41.8818],[-71.3388,41.8986],[-71.3815,41.8935],[-71.3814,42.0188],[-71.5975,42.0132]]]}},{"type":"Feature","properties":{"key":"cape-islands","bufferDeg":0.1},"geometry":{"type":"Polygon","coordinates":[[[-71.1507,41.4014],[-71.0886,41.4313],[-71.1188,41.4885],[-71.0955,41.5067],[-70.8191,41.6409],[-70.7663,41.7353],[-70.732,41.7726],[-70.7214,41.8088],[-70.6983,41.8383],[-70.6659,41.8572],[-70.6166,41.8746],[-70.5692,41.916],[-70.4413,42.054],[-70.4069,42.1716],[-70.3825,42.1979],[-70.3504,42.214],[-70.2951,42.2161],[-70.2497,42.2291],[-70.1784,42.2343],[-70.1028,42.2235],[-70.0325,42.1991],[-69.9392,42.1424],[-69.8508,42.0407],[-69.8161,41.9786],[-69.7671,41.828],[-69.7596,41.6954],[-69.7677,41.6426],[-69.7824,41.6053],[-69.8245,41.5396],[-69.8476,41.4759],[-69.8754,41.4427],[-69.8102,41.3425],[-69.7997,41.3164],[-69.7943,41.2599],[-69.8009,41.2263],[-69.8248,41.1751],[-69.8571,41.1406],[-69.9088,41.1102],[-69.9962,41.0884],[-70.1305,41.092],[-70.2153,41.1114],[-70.3148,41.1467],[-70.3635,41.1718],[-70.4026,41.1733],[-70.4489,41.1659],[-70.5001,41.1737],[-70.5489,41.1987],[-70.6033,41.1994],[-70.6482,41.1958],[-70.6742,41.156],[-70.6967,41.1343],[-70.7361,41.1117],[-70.7949,41.0993],[-70.8687,41.108],[-70.9286,41.1371],[-70.9594,41.167],[-70.9881,41.2212],[-70.9918,41.2513],[-71.0555,41.2707],[-71.0911,41.2957],[-71.1356,41.3621],[-71.1507,41.4014]]]}},{"type":"Feature","properties":{"key":"ri","bufferDeg":0.2},"geometry":{"type":"Polygon","coordinates":[[[-70.9305,41.3088],[-70.9876,41.2587],[-71.065,41.2208],[-71.2797,41.1603],[-71.2961,41.0704],[-71.3105,41.0398],[-71.3656,40.9696],[-71.4405,40.9234],[-71.4683,40.9134],[-71.5734,40.8968],[-71.6709,40.9076],[-71.7395,40.9359],[-71.7776,40.9607],[-71.7993,40.9855],[-71.87,41.0004],[-71.9348,41.0451],[-72.0511,41.1655],[-72.0962,41.239],[-72.0986,41.259],[-71.9995,41.2958],[-71.9295,41.3104],[-71.9073,41.3045],[-71.8921,41.3301],[-71.8575,41.3208],[-71.8294,41.3424],[-71.8379,41.3601],[-71.8306,41.3788],[-71.8422,41.3954],[-71.8397,41.4122],[-71.8203,41.4194],[-71.7977,41.4167],[-71.7882,41.621],[-71.8007,42.0235],[-71.7992,42.008],[-71.3814,42.0188],[-71.3815,41.8935],[-71.3388,41.8986],[-71.3409,41.8818],[-71.334,41.8626],[-71.3426,41.8447],[-71.3354,41.8356],[-71.3475,41.8233],[-71.3393,41.8085],[-71.3405,41.797],[-71.3285,41.7807],[-71.2611,41.7521],[-71.1955,41.6751],[-71.1326,41.6604],[-71.142,41.6125],[-71.1316,41.5937],[-71.1211,41.4928],[-71.0886,41.4313],[-71.0336,41.4141],[-71.0399,41.3983],[-71.0327,41.3803],[-71.0148,41.362],[-70.9908,41.3513],[-70.9557,41.3502],[-70.9002,41.3688],[-70.9305,41.3088]]]}},{"type":"Feature","properties":{"key":"providence-metro","bufferDeg":0.1},"geometry":{"type":"Polygon","coordinates":[[[-71.3906,41.5508],[-71.4473,41.5097],[-71.4825,41.5026],[-71.794,41.4981],[-71.7882,41.621],[-71.8007,42.0235],[-71.7992,42.008],[-71.3814,42.0188],[-71.3815,41.8935],[-71.3388,41.8986],[-71.3409,41.8818],[-71.334,41.8626],[-71.3426,41.8447],[-71.3354,41.8356],[-71.3475,41.8233],[-71.3393,41.8085],[-71.3405,41.797],[-71.3285,41.7807],[-71.2611,41.7521],[-71.1955,41.6751],[-71.1326,41.6604],[-71.1412,41.6109],[-71.1911,41.5627],[-71.2255,41.5431],[-71.2753,41.5393],[-71.354,41.5547],[-71.3906,41.5508]]]}},{"type":"Feature","properties":{"key":"newport-south-county","bufferDeg":0.1},"geometry":{"type":"Polygon","coordinates":[[[-71.5426,41.7015],[-71.5008,41.7296],[-71.4592,41.747],[-71.4179,41.753],[-71.3674,41.7801],[-71.3292,41.7865],[-71.3285,41.7807],[-71.2611,41.7521],[-71.1955,41.6751],[-71.1326,41.6604],[-71.142,41.6125],[-71.1316,41.5937],[-71.1211,41.4928],[-71.0886,41.4313],[-71.0336,41.4141],[-71.0399,41.3983],[-71.0327,41.3803],[-71.0165,41.3637],[-71.0403,41.3437],[-71.0986,41.3149],[-71.3888,41.2319],[-71.3773,41.1635],[-71.3866,41.113],[-71.401,41.0825],[-71.4285,41.0474],[-71.4743,41.0175],[-71.5021,41.0075],[-71.5835,40.9963],[-71.6203,40.9978],[-71.6611,41.0083],[-71.723,41.0445],[-71.7609,41.09],[-71.7919,41.0841],[-71.8305,41.0922],[-71.8629,41.1146],[-71.9792,41.235],[-72.0017,41.2717],[-72.0043,41.2938],[-71.9295,41.3104],[-71.9073,41.3045],[-71.8921,41.3301],[-71.8575,41.3208],[-71.8294,41.3424],[-71.8379,41.3601],[-71.8306,41.3788],[-71.8436,41.4053],[-71.8203,41.4194],[-71.7977,41.4167],[-71.7882,41.621],[-71.7906,41.6968],[-71.5426,41.7015]]]}},{"type":"Feature","properties":{"key":"ct","bufferDeg":0.2},"geometry":{"type":"Polygon","coordinates":[[[-73.9176,41.0376],[-73.9276,41.1096],[-73.9112,41.1805],[-73.8705,41.2408],[-73.8109,41.2826],[-73.7501,41.3104],[-73.6866,42.0663],[-73.6665,42.1384],[-73.6213,42.1981],[-73.5573,42.2369],[-73.4835,42.2495],[-73.4482,42.2488],[-73.5082,42.0861],[-73.497,42.0496],[-72.8138,42.0367],[-72.817,41.9977],[-72.7667,42.0033],[-72.7589,42.0155],[-72.7652,42.0224],[-72.7573,42.021],[-72.7521,42.029],[-72.7559,42.0363],[-72.608,42.0311],[-72.6072,42.0251],[-72.5822,42.0247],[-72.5315,42.0346],[-71.8007,42.0235],[-71.7872,41.6561],[-71.7977,41.4167],[-71.8181,41.4198],[-71.8424,41.4103],[-71.8422,41.3954],[-71.8306,41.3788],[-71.8379,41.3601],[-71.8294,41.3424],[-71.8575,41.3208],[-71.8921,41.3301],[-71.9073,41.3045],[-71.791,41.1841],[-71.7915,41.2722],[-71.695,41.2826],[-71.639,41.3006],[-71.6502,41.2536],[-71.7073,41.184],[-71.7354,41.1623],[-71.8731,41.1074],[-71.9143,41.1092],[-71.9408,41.1037],[-72.0443,41.0658],[-72.957,40.8916],[-73.3546,40.8],[-73.7447,40.8],[-73.7783,40.8257],[-73.8255,40.8771],[-73.8482,40.9321],[-73.8824,40.9739],[-73.9176,41.0376]]]}},{"type":"Feature","properties":{"key":"hartford","bufferDeg":0.1},"geometry":{"type":"Polygon","coordinates":[[[-73.0522,41.8371],[-73.049,41.8839],[-73.036,41.9252],[-73.0168,41.9601],[-72.9913,41.98],[-72.9694,42.0397],[-72.8138,42.0367],[-72.817,41.9977],[-72.7667,42.0033],[-72.7589,42.0155],[-72.7652,42.0224],[-72.7573,42.021],[-72.7521,42.029],[-72.7559,42.0363],[-72.608,42.0311],[-72.6072,42.0251],[-72.5822,42.0247],[-72.5315,42.0346],[-72.1065,42.0281],[-72.1195,41.9702],[-72.1172,41.9213],[-72.0972,41.9089],[-72.0752,41.8799],[-72.065,41.8449],[-72.0568,41.7635],[-72.0606,41.7244],[-72.0792,41.6898],[-72.1538,41.6385],[-72.1767,41.6327],[-72.1979,41.6002],[-72.2318,41.5786],[-72.2462,41.5482],[-72.2702,41.5239],[-72.301,41.5092],[-72.3608,41.4914],[-72.4915,41.487],[-72.5261,41.5034],[-72.5575,41.5407],[-72.6437,41.5362],[-72.7046,41.4909],[-72.7572,41.4776],[-72.7743,41.4649],[-72.8238,41.4468],[-72.8623,41.4464],[-72.9093,41.4603],[-72.9734,41.4605],[-73.0076,41.4777],[-73.0328,41.5066],[-73.0454,41.5427],[-73.0353,41.6135],[-73.035,41.6705],[-73.0174,41.7058],[-72.9996,41.721],[-73.0387,41.7622],[-73.0522,41.8371]]]}},{"type":"Feature","properties":{"key":"new-haven-shoreline","bufferDeg":0.1},"geometry":{"type":"Polygon","coordinates":[[[-73.2025,41.2674],[-73.1802,41.3005],[-73.1714,41.3301],[-73.1471,41.3624],[-73.1458,41.4132],[-73.12,41.4932],[-73.1019,41.5245],[-73.0738,41.5473],[-73.0243,41.5684],[-72.9526,41.5654],[-72.9308,41.6242],[-72.9025,41.6515],[-72.8658,41.6658],[-72.8104,41.6727],[-72.7732,41.7082],[-72.7283,41.7267],[-72.6422,41.7392],[-72.6045,41.7367],[-72.5163,41.7464],[-72.4789,41.7434],[-72.4453,41.7269],[-72.4201,41.6991],[-72.3778,41.6298],[-72.3324,41.6338],[-72.2925,41.6293],[-72.2575,41.6095],[-72.2332,41.5775],[-72.2221,41.5232],[-72.1964,41.5002],[-72.1795,41.4643],[-72.1809,41.4056],[-72.1586,41.347],[-72.1487,41.2998],[-72.1485,41.2309],[-72.1544,41.197],[-72.1714,41.1671],[-72.1976,41.1447],[-72.2297,41.1325],[-72.9808,40.9889],[-73.0217,40.9896],[-73.0588,41.0066],[-73.2,41.1159],[-73.2165,41.1489],[-73.2217,41.1951],[-73.2025,41.2674]]]}},{"type":"Feature","properties":{"key":"fairfield","bufferDeg":0.1},"geometry":{"type":"Polygon","coordinates":[[[-73.8227,41.0691],[-73.8277,41.1052],[-73.8195,41.1406],[-73.7991,41.1708],[-73.7694,41.1916],[-73.6387,41.2514],[-73.6465,41.2658],[-73.6506,41.3042],[-73.6177,41.6755],[-73.6068,41.7129],[-73.5825,41.7432],[-73.5485,41.762],[-73.3936,41.7827],[-73.3561,41.7799],[-73.3223,41.7635],[-73.2969,41.7357],[-73.2611,41.6664],[-73.2405,41.5649],[-73.2259,41.5375],[-73.1275,41.4893],[-73.0807,41.446],[-73.0598,41.4001],[-73.0601,41.3546],[-73.0263,41.3343],[-73.0024,41.3083],[-72.989,41.2755],[-72.9878,41.2402],[-72.9978,41.2103],[-72.9399,41.1674],[-72.9146,41.1398],[-72.9011,41.1048],[-72.9015,41.0673],[-72.9157,41.0326],[-72.9417,41.0056],[-72.9758,40.99],[-73.2294,40.9279],[-73.5927,40.853],[-73.636,40.8536],[-73.6749,40.8725],[-73.7217,40.9095],[-73.7471,40.9395],[-73.7587,40.9807],[-73.8051,41.0373],[-73.8227,41.0691]]]}},{"type":"Feature","properties":{"key":"eastern-ct","bufferDeg":0.1},"geometry":{"type":"MultiPolygon","coordinates":[[[[-72.4138,41.7008],[-72.401,41.7181],[-72.3601,41.7404],[-72.3417,41.7737],[-72.3122,41.807],[-72.3177,41.8358],[-72.3173,41.9047],[-72.3279,41.9207],[-72.3349,41.9607],[-72.3108,42.0312],[-71.8007,42.0235],[-71.7872,41.6561],[-71.7977,41.4167],[-71.8181,41.4198],[-71.8424,41.4103],[-71.8422,41.3954],[-71.8306,41.3788],[-71.8379,41.3601],[-71.8294,41.3424],[-71.8575,41.3208],[-71.8921,41.3301],[-71.9073,41.3045],[-71.8315,41.2261],[-71.8902,41.2059],[-71.9316,41.2078],[-71.9856,41.196],[-72.0632,41.164],[-72.23,41.1325],[-72.2735,41.1339],[-72.3123,41.1536],[-72.339,41.188],[-72.3485,41.2305],[-72.3517,41.2905],[-72.3733,41.3409],[-72.3773,41.3668],[-72.3883,41.3776],[-72.4052,41.4265],[-72.4586,41.4285],[-72.4916,41.4452],[-72.5163,41.4727],[-72.5522,41.5321],[-72.5656,41.5691],[-72.5637,41.6084],[-72.5467,41.6439],[-72.5173,41.6701],[-72.4381,41.6987],[-72.4138,41.7008]]],[[[-71.7571,41.2759],[-71.7913,41.2455],[-71.7915,41.2722],[-71.7571,41.2759]]]]}},{"type":"Feature","properties":{"key":"waterbury-northwest-hills","bufferDeg":0.1},"geometry":{"type":"Polygon","coordinates":[[[-73.5151,41.5661],[-73.5638,41.5778],[-73.5943,41.602],[-73.6133,41.636],[-73.6178,41.6747],[-73.587,42.0575],[-73.5774,42.0929],[-73.5557,42.1225],[-73.5249,42.1422],[-73.4848,42.1496],[-73.5082,42.0861],[-73.497,42.0496],[-72.8138,42.0367],[-72.817,41.9977],[-72.7698,42.0029],[-72.8312,41.8463],[-72.8104,41.7955],[-72.7853,41.6689],[-72.7889,41.6209],[-72.7753,41.6092],[-72.7583,41.578],[-72.7478,41.4859],[-72.7658,41.4435],[-72.8061,41.3887],[-72.8386,41.3603],[-72.8801,41.3482],[-72.946,41.3627],[-72.9397,41.3155],[-72.9566,41.2598],[-72.9918,41.2275],[-73.0131,41.1869],[-73.0429,41.1647],[-73.0788,41.1549],[-73.12,41.1602],[-73.1589,41.1561],[-73.2109,41.1757],[-73.2444,41.1977],[-73.2956,41.2574],[-73.3045,41.2916],[-73.2938,41.3415],[-73.3658,41.375],[-73.4202,41.448],[-73.4467,41.5752],[-73.5151,41.5661]]]}},{"type":"Feature","properties":{"key":"nh","bufferDeg":0.2},"geometry":{"type":"MultiPolygon","coordinates":[[[[-71.733,45.0424],[-71.6869,45.1361],[-71.6498,45.2005],[-71.6391,45.209],[-71.639,45.2771],[-71.6071,45.3524],[-71.5476,45.4086],[-71.4675,45.4361],[-71.455,45.4465],[-71.4165,45.4583],[-71.3503,45.4911],[-71.2784,45.5023],[-71.2073,45.487],[-71.19,45.4761],[-71.0982,45.505],[-71.0213,45.4954],[-70.9538,45.4574],[-70.9059,45.3965],[-70.8846,45.322],[-70.8774,45.2356],[-70.8969,45.2419],[-70.8985,45.2583],[-70.9213,45.2792],[-70.912,45.2963],[-70.9178,45.3117],[-70.9389,45.32],[-70.9524,45.3391],[-70.985,45.3319],[-71.0106,45.3477],[-71.0121,45.3339],[-71.0019,45.3284],[-71.0085,45.3192],[-71.0327,45.3102],[-71.0591,45.3138],[-71.0839,45.3055],[-71.0335,44.6976],[-70.989,43.7901],[-70.9728,43.5705],[-70.9506,43.5513],[-70.9535,43.5406],[-70.9638,43.5394],[-70.9539,43.5223],[-70.9547,43.5093],[-70.9683,43.4894],[-70.9675,43.4809],[-70.976,43.4784],[-70.9611,43.4692],[-70.9666,43.4513],[-70.961,43.4384],[-70.9868,43.4138],[-70.9823,43.3983],[-70.9879,43.3899],[-70.9726,43.3484],[-70.9674,43.3492],[-70.9558,43.334],[-70.9312,43.3366],[-70.9244,43.3239],[-70.9114,43.3197],[-70.9126,43.3076],[-70.8963,43.2985],[-70.9066,43.292],[-70.8964,43.2923],[-70.897,43.2855],[-70.8835,43.2834],[-70.8831,43.273],[-70.8629,43.2648],[-70.8575,43.2558],[-70.8428,43.2542],[-70.8379,43.2424],[-70.8178,43.2382],[-70.8172,43.2293],[-70.8098,43.2259],[-70.8193,43.193],[-70.8282,43.1878],[-70.8236,43.1742],[-70.8336,43.1461],[-70.8271,43.1274],[-70.7659,43.0925],[-70.7564,43.0802],[-70.738,43.0737],[-70.7063,43.0753],[-70.7012,43.0452],[-70.6307,42.9853],[-70.6111,42.979],[-70.5876,42.9492],[-70.5751,42.9171],[-70.5402,42.944],[-70.5289,43.0058],[-70.5325,43.02],[-70.5521,43.043],[-70.5997,43.0569],[-70.5822,43.0955],[-70.5401,43.1305],[-70.5374,43.1058],[-70.5251,43.0893],[-70.493,43.073],[-70.4591,43.0715],[-70.4365,43.0805],[-70.4307,43.0732],[-70.3888,42.9898],[-70.3751,42.9189],[-70.3875,42.8478],[-70.4243,42.7858],[-70.4807,42.7408],[-70.5448,42.7203],[-70.6259,42.7397],[-70.7026,42.7242],[-70.7143,42.7319],[-70.7372,42.788],[-70.7349,42.8245],[-70.7488,42.8588],[-70.735,42.8747],[-70.8202,42.8718],[-70.8477,42.8609],[-70.9035,42.8868],[-70.9296,42.885],[-70.967,42.8688],[-71.0312,42.8591],[-71.0449,42.8487],[-71.0644,42.8063],[-71.1328,42.8215],[-71.1667,42.8089],[-71.1861,42.7909],[-71.1818,42.7373],[-71.2238,42.7465],[-71.2552,42.7366],[-71.2946,42.697],[-72.724,42.7325],[-72.4584,42.7269],[-72.477,42.7608],[-72.4905,42.7728],[-72.5155,42.7656],[-72.5087,42.7795],[-72.5415,42.8071],[-72.5474,42.8396],[-72.5571,42.8532],[-72.5526,42.885],[-72.5334,42.8953],[-72.5245,42.9151],[-72.5338,42.9526],[-72.5184,42.9631],[-72.4737,42.9721],[-72.4617,42.9829],[-72.4625,42.9974],[-72.4433,43.0076],[-72.4626,43.0258],[-72.4604,43.0414],[-72.4678,43.0528],[-72.434,43.0844],[-72.4432,43.1028],[-72.4335,43.1106],[-72.4328,43.1202],[-72.4423,43.1293],[-72.4408,43.1366],[-72.4521,43.1386],[-72.4574,43.1475],[-72.4521,43.1532],[-72.4528,43.1728],[-72.4439,43.1798],[-72.4505,43.1926],[-72.4382,43.2029],[-72.4411,43.2182],[-72.4342,43.2319],[-72.4388,43.252],[-72.416,43.2702],[-72.3953,43.3127],[-72.4106,43.3311],[-72.3899,43.3566],[-72.4126,43.3623],[-72.416,43.3764],[-72.4035,43.3916],[-72.3904,43.4509],[-72.3926,43.4669],[-72.3825,43.4759],[-72.38,43.49],[-72.3982,43.5104],[-72.3961,43.5234],[-72.3807,43.5403],[-72.3798,43.5742],[-72.3283,43.6011],[-72.3348,43.618],[-72.3291,43.6355],[-72.3147,43.6419],[-72.3136,43.6569],[-72.3032,43.6686],[-72.3051,43.6953],[-72.2997,43.7061],[-72.2711,43.7339],[-72.2342,43.746],[-72.2185,43.7655],[-72.2052,43.7709],[-72.2055,43.7846],[-72.184,43.8064],[-72.189,43.8212],[-72.1825,43.8341],[-72.188,43.8552],[-72.1846,43.8641],[-72.1679,43.8691],[-72.1721,43.885],[-72.1597,43.8877],[-72.1505,43.9021],[-72.1205,43.9196],[-72.1184,43.9465],[-72.1057,43.9498],[-72.1007,43.963],[-72.0909,43.9658],[-72.1144,43.968],[-72.112,43.986],[-72.117,43.9942],[-72.1041,44.0024],[-72.1028,44.0146],[-72.0905,44.0099],[-72.0954,44.0218],[-72.0827,44.0218],[-72.0748,44.0324],[-72.0783,44.0434],[-72.0619,44.0496],[-72.0681,44.0574],[-72.0573,44.0583],[-72.0483,44.0697],[-72.0529,44.0763],[-72.0318,44.0785],[-72.0453,44.0873],[-72.0333,44.0905],[-72.0313,44.1004],[-72.0395,44.1035],[-72.0479,44.0966],[-72.0554,44.1108],[-72.0531,44.1195],[-72.0333,44.1314],[-72.042,44.137],[-72.0419,44.1566],[-72.0662,44.1901],[-72.0477,44.239],[-72.0615,44.2611],[-72.0583,44.2701],[-72.0685,44.2708],[-72.0586,44.2865],[-72.0329,44.3022],[-72.0328,44.3205],[-72.0091,44.3222],[-71.9814,44.3374],[-71.934,44.336],[-71.9124,44.3481],[-71.8716,44.3367],[-71.8158,44.354],[-71.8144,44.3819],[-71.8006,44.384],[-71.8035,44.3919],[-71.7945,44.399],[-71.762,44.407],[-71.7437,44.401],[-71.7354,44.41],[-71.7026,44.4135],[-71.677,44.4269],[-71.678,44.4353],[-71.6609,44.4399],[-71.6542,44.4588],[-71.639,44.4644],[-71.6468,44.4732],[-71.6328,44.4838],[-71.6247,44.4817],[-71.6345,44.4756],[-71.6262,44.4745],[-71.6178,44.4858],[-71.5986,44.4868],[-71.5939,44.501],[-71.5859,44.4994],[-71.5881,44.5066],[-71.577,44.5021],[-71.5941,44.5215],[-71.5807,44.5246],[-71.5719,44.5379],[-71.5986,44.5548],[-71.597,44.5595],[-71.5896,44.5657],[-71.5597,44.564],[-71.5577,44.5704],[-71.5477,44.5714],[-71.5524,44.5844],[-71.5458,44.5779],[-71.5349,44.5879],[-71.54,44.5885],[-71.5385,44.5942],[-71.5469,44.5908],[-71.546,44.5971],[-71.5552,44.5934],[-71.551,44.601],[-71.5621,44.6012],[-71.5536,44.6061],[-71.5551,44.6252],[-71.5463,44.623],[-71.557,44.6295],[-71.5468,44.6298],[-71.5637,44.6373],[-71.5578,44.642],[-71.5628,44.6524],[-71.5771,44.6507],[-71.5752,44.6558],[-71.5874,44.6597],[-71.5879,44.6699],[-71.5815,44.6732],[-71.5966,44.6781],[-71.5939,44.6964],[-71.6186,44.7222],[-71.6171,44.7287],[-71.6261,44.7285],[-71.6251,44.7434],[-71.632,44.7521],[-71.6167,44.7563],[-71.5925,44.7827],[-71.5728,44.7909],[-71.5684,44.807],[-71.5769,44.8152],[-71.5511,44.837],[-71.5558,44.8486],[-71.5474,44.8554],[-71.5494,44.8621],[-71.4949,44.9043],[-71.4932,44.9114],[-71.4999,44.9112],[-71.5228,44.9399],[-71.5148,44.9437],[-71.5192,44.9496],[-71.5163,44.9644],[-71.5236,44.9641],[-71.518,44.9677],[-71.5229,44.9662],[-71.5413,44.9839],[-71.5331,44.9909],[-71.537,44.9935],[-71.5085,45.0079],[-71.4808,45.0023],[-71.4651,45.0136],[-71.7367,45.0105],[-71.733,45.0424]]],[[[-70.5211,43.1551],[-70.5217,43.1549],[-70.5217,43.1555],[-70.5211,43.1551]]]]}},{"type":"Feature","properties":{"key":"nh-seacoast","bufferDeg":0.1},"geometry":{"type":"Polygon","coordinates":[[[-71.4908,43.0889],[-71.4599,43.1222],[-71.3392,43.3148],[-71.3098,43.354],[-71.2679,43.3889],[-71.2889,43.4957],[-71.2897,43.5297],[-71.2791,43.5619],[-71.2584,43.5887],[-71.1954,43.6465],[-71.16,43.6675],[-71.1192,43.6724],[-71.0798,43.6605],[-71.0461,43.6287],[-71.0139,43.6252],[-70.9778,43.6385],[-70.9728,43.5705],[-70.9506,43.5513],[-70.9535,43.5406],[-70.9638,43.5394],[-70.9539,43.5223],[-70.9547,43.5093],[-70.9683,43.4894],[-70.9675,43.4809],[-70.976,43.4784],[-70.9611,43.4692],[-70.9666,43.4513],[-70.961,43.4384],[-70.9868,43.4138],[-70.9823,43.3983],[-70.9879,43.3899],[-70.9726,43.3484],[-70.9674,43.3492],[-70.9558,43.334],[-70.9312,43.3366],[-70.9244,43.3239],[-70.9114,43.3197],[-70.9126,43.3076],[-70.8963,43.2985],[-70.9066,43.292],[-70.8964,43.2923],[-70.897,43.2855],[-70.8835,43.2834],[-70.8831,43.273],[-70.8629,43.2648],[-70.8575,43.2558],[-70.8428,43.2542],[-70.8379,43.2424],[-70.8178,43.2382],[-70.8172,43.2293],[-70.8098,43.2259],[-70.8193,43.193],[-70.8282,43.1878],[-70.8236,43.1742],[-70.8336,43.1461],[-70.8271,43.1274],[-70.7659,43.0925],[-70.7564,43.0802],[-70.738,43.0737],[-70.7063,43.0753],[-70.7012,43.0452],[-70.6307,42.9853],[-70.6111,42.979],[-70.5876,42.9492],[-70.5751,42.9171],[-70.5402,42.944],[-70.5289,43.0058],[-70.5325,43.02],[-70.5521,43.043],[-70.5997,43.0569],[-70.587,43.0794],[-70.5541,43.0611],[-70.5091,43.0112],[-70.4944,42.9855],[-70.4751,42.918],[-70.4813,42.8825],[-70.4997,42.8514],[-70.5279,42.829],[-70.5978,42.8134],[-70.6538,42.8195],[-70.6632,42.8051],[-70.6945,42.7833],[-70.7318,42.7747],[-70.7372,42.788],[-70.7349,42.8245],[-70.7488,42.8588],[-70.735,42.8747],[-70.8202,42.8718],[-70.8477,42.8609],[-70.8856,42.8828],[-70.9296,42.885],[-70.967,42.8688],[-71.0312,42.8591],[-71.0449,42.8487],[-71.0644,42.8063],[-71.1328,42.8215],[-71.1667,42.8089],[-71.1861,42.7909],[-71.1818,42.7373],[-71.2238,42.7465],[-71.2552,42.7366],[-71.2946,42.697],[-71.4175,42.7001],[-71.4467,42.7291],[-71.4724,42.7357],[-71.506,42.7634],[-71.5246,42.8027],[-71.5487,42.9088],[-71.5492,42.9505],[-71.5326,42.9889],[-71.4988,43.0181],[-71.5026,43.0497],[-71.4908,43.0889]]]}},{"type":"Feature","properties":{"key":"nh-merrimack","bufferDeg":0.1},"geometry":{"type":"Polygon","coordinates":[[[-72.1511,43.4639],[-72.1369,43.4967],[-72.1119,43.5224],[-72.0795,43.5377],[-72.056,43.5396],[-71.9643,43.6438],[-71.9141,43.6873],[-71.8824,43.7055],[-71.8462,43.7112],[-71.8104,43.7034],[-71.7799,43.6833],[-71.7668,43.665],[-71.7247,43.6677],[-71.6866,43.6576],[-71.606,43.5842],[-71.5832,43.5754],[-71.5629,43.5548],[-71.5085,43.5432],[-71.189,43.3733],[-71.1587,43.3484],[-71.1402,43.3137],[-71.1365,43.2746],[-71.1482,43.2371],[-71.2918,43.0132],[-71.2789,42.9654],[-71.2768,42.9227],[-71.2985,42.8777],[-71.285,42.8619],[-71.2423,42.8541],[-71.193,42.8299],[-71.1784,42.8167],[-71.17,42.8058],[-71.1861,42.7909],[-71.1818,42.7373],[-71.2238,42.7465],[-71.2552,42.7366],[-71.2946,42.697],[-72.0383,42.7155],[-72.0545,42.7291],[-72.0727,42.7694],[-72.0892,42.8504],[-72.1031,42.8535],[-72.1356,42.8768],[-72.1563,42.911],[-72.1621,42.9506],[-72.1578,43.0247],[-72.1321,43.1572],[-72.135,43.1843],[-72.1593,43.2207],[-72.1841,43.2882],[-72.1892,43.336],[-72.1715,43.3807],[-72.1548,43.4041],[-72.1511,43.4639]]]}},{"type":"Feature","properties":{"key":"lakes-white-mountains","bufferDeg":0.1},"geometry":{"type":"Polygon","coordinates":[[[-71.831,43.5954],[-71.819,43.6367],[-71.7981,43.6664],[-71.768,43.6866],[-71.7491,43.6916],[-71.7294,43.7431],[-71.6985,43.7711],[-71.6438,43.7855],[-71.6624,43.8722],[-71.6625,43.9137],[-71.6458,43.9516],[-71.6151,43.9795],[-71.5758,43.9925],[-71.4816,44.0031],[-71.4808,44.0461],[-71.4732,44.0616],[-71.4805,44.0957],[-71.5088,44.1381],[-71.5148,44.1576],[-71.6003,44.1576],[-71.6335,44.1729],[-71.6591,44.1992],[-71.6707,44.2265],[-71.7366,44.2403],[-71.7702,44.2641],[-71.8434,44.3454],[-71.8124,44.3573],[-71.8144,44.3819],[-71.8006,44.384],[-71.8035,44.3919],[-71.7945,44.399],[-71.762,44.407],[-71.7437,44.401],[-71.7354,44.41],[-71.7026,44.4135],[-71.677,44.4269],[-71.678,44.4353],[-71.6609,44.4399],[-71.6542,44.4588],[-71.639,44.4644],[-71.6468,44.4732],[-71.6328,44.4838],[-71.6247,44.4817],[-71.6345,44.4756],[-71.6262,44.4745],[-71.6178,44.4858],[-71.5986,44.4868],[-71.5939,44.501],[-71.5859,44.4994],[-71.5881,44.5066],[-71.577,44.5021],[-71.5941,44.5215],[-71.5807,44.5246],[-71.5719,44.5379],[-71.5986,44.5548],[-71.597,44.5595],[-71.5896,44.5657],[-71.5597,44.564],[-71.5577,44.5704],[-71.5477,44.5714],[-71.5524,44.5844],[-71.5458,44.5779],[-71.5349,44.5879],[-71.54,44.5885],[-71.5385,44.5942],[-71.5469,44.5908],[-71.546,44.5971],[-71.5552,44.5934],[-71.551,44.601],[-71.5621,44.6012],[-71.5536,44.6061],[-71.5551,44.6252],[-71.5463,44.623],[-71.557,44.6295],[-71.5468,44.6298],[-71.5637,44.6373],[-71.5578,44.642],[-71.5628,44.6524],[-71.5771,44.6507],[-71.5752,44.6558],[-71.5874,44.6597],[-71.5879,44.6699],[-71.5815,44.6732],[-71.5966,44.6781],[-71.5939,44.6964],[-71.6186,44.7222],[-71.6171,44.7287],[-71.6261,44.7285],[-71.6251,44.7434],[-71.632,44.7521],[-71.6167,44.7563],[-71.5925,44.7827],[-71.5728,44.7909],[-71.5684,44.807],[-71.5769,44.8152],[-71.5511,44.837],[-71.5558,44.8486],[-71.5474,44.8554],[-71.5494,44.8621],[-71.4949,44.9043],[-71.4932,44.9114],[-71.4999,44.9112],[-71.5228,44.9399],[-71.5148,44.9437],[-71.5192,44.9496],[-71.5163,44.9644],[-71.5236,44.9641],[-71.518,44.9677],[-71.5229,44.9662],[-71.5413,44.9839],[-71.5331,44.9909],[-71.537,44.9935],[-71.5085,45.0079],[-71.4808,45.0023],[-71.4651,45.0136],[-71.6363,45.0116],[-71.6267,45.0378],[-71.603,45.0685],[-71.5924,45.1032],[-71.5739,45.1353],[-71.5325,45.1671],[-71.5275,45.1845],[-71.5405,45.2106],[-71.5409,45.2577],[-71.5225,45.2987],[-71.488,45.3275],[-71.4327,45.3378],[-71.409,45.3577],[-71.3173,45.3967],[-71.2813,45.4023],[-71.2458,45.3947],[-71.1995,45.3694],[-71.1854,45.3517],[-71.1675,45.3738],[-71.117,45.4008],[-71.0741,45.4051],[-71.0334,45.391],[-71.0024,45.3611],[-70.993,45.3369],[-71.0106,45.3477],[-71.0121,45.3339],[-71.0019,45.3284],[-71.0085,45.3192],[-71.0327,45.3102],[-71.0591,45.3138],[-71.0839,45.3055],[-71.0335,44.6976],[-70.989,43.7901],[-70.9728,43.5705],[-70.9506,43.5513],[-70.9535,43.5406],[-70.9638,43.5394],[-70.9539,43.5223],[-70.9547,43.5093],[-70.9683,43.4894],[-70.9675,43.4809],[-70.976,43.4784],[-70.9611,43.4692],[-70.9666,43.4513],[-70.961,43.4384],[-70.9868,43.4138],[-70.9823,43.3983],[-70.9901,43.3889],[-71.0302,43.3831],[-71.0648,43.3924],[-71.0603,43.3415],[-71.07,43.3101],[-71.0895,43.2836],[-71.1731,43.2072],[-71.2074,43.1892],[-71.2459,43.1855],[-71.283,43.1967],[-71.5594,43.3438],[-71.6023,43.335],[-71.6461,43.3437],[-71.6762,43.3608],[-71.7149,43.4087],[-71.751,43.4329],[-71.8111,43.5032],[-71.8266,43.5422],[-71.831,43.5954]]]}},{"type":"Feature","properties":{"key":"monadnock","bufferDeg":0.1},"geometry":{"type":"Polygon","coordinates":[[[-72.4245,43.2595],[-72.4024,43.2536],[-72.1675,43.2814],[-72.1262,43.2772],[-72.0902,43.2566],[-72.0702,43.2296],[-72.0319,43.2287],[-71.9905,43.2188],[-71.957,43.1924],[-71.9375,43.1546],[-71.9355,43.112],[-71.953,43.0263],[-71.9267,43.0044],[-71.9082,42.9638],[-71.889,42.8693],[-71.8643,42.8485],[-71.8462,42.8081],[-71.8306,42.7103],[-72.6073,42.7296],[-72.4584,42.7269],[-72.477,42.7608],[-72.4905,42.7728],[-72.5155,42.7656],[-72.5087,42.7795],[-72.5415,42.8071],[-72.5474,42.8396],[-72.5571,42.8532],[-72.5526,42.885],[-72.5334,42.8953],[-72.5245,42.9151],[-72.5338,42.9526],[-72.5184,42.9631],[-72.4737,42.9721],[-72.4617,42.9829],[-72.4625,42.9974],[-72.4433,43.0076],[-72.4626,43.0258],[-72.4604,43.0414],[-72.4678,43.0528],[-72.434,43.0844],[-72.4432,43.1028],[-72.4335,43.1106],[-72.4328,43.1202],[-72.4423,43.1293],[-72.4408,43.1366],[-72.4521,43.1386],[-72.4574,43.1475],[-72.4521,43.1532],[-72.4528,43.1728],[-72.4439,43.1798],[-72.4505,43.1926],[-72.4382,43.2029],[-72.4411,43.2182],[-72.4342,43.2319],[-72.4388,43.252],[-72.4245,43.2595]]]}},{"type":"Feature","properties":{"key":"vt","bufferDeg":0.2},"geometry":{"type":"Polygon","coordinates":[[[-73.6193,43.6955],[-73.6008,43.7255],[-73.5828,43.7745],[-73.5924,43.8139],[-73.5877,43.8422],[-73.6067,43.9402],[-73.636,44.0172],[-73.6322,44.0927],[-73.5953,44.2213],[-73.5497,44.3122],[-73.5265,44.3333],[-73.5321,44.3981],[-73.5192,44.4386],[-73.5599,44.4983],[-73.5856,44.5756],[-73.5867,44.656],[-73.5657,44.7252],[-73.5621,44.7652],[-73.5781,44.8123],[-73.5765,44.8942],[-73.5499,44.9613],[-73.5537,45.0063],[-73.5342,45.0754],[-73.4791,45.1574],[-73.4173,45.1965],[-73.3456,45.2107],[-72.8451,45.2167],[-72.3114,45.2038],[-71.4674,45.2136],[-71.3998,45.2008],[-71.4376,45.1419],[-71.4261,45.1295],[-71.4284,45.1237],[-71.4488,45.1126],[-71.4493,45.1045],[-71.4679,45.0836],[-71.4781,45.0843],[-71.4878,45.0714],[-71.498,45.0702],[-71.4972,45.0558],[-71.5065,45.0485],[-71.4909,45.0432],[-71.5011,45.0134],[-71.4651,45.0129],[-71.4883,45.0007],[-71.5088,45.0078],[-71.5304,44.9994],[-71.5415,44.9848],[-71.5229,44.9662],[-71.518,44.9677],[-71.5237,44.9643],[-71.5163,44.9645],[-71.5192,44.9496],[-71.5148,44.9437],[-71.5228,44.9399],[-71.4999,44.9112],[-71.4932,44.9114],[-71.4949,44.9043],[-71.5494,44.8621],[-71.5474,44.8554],[-71.5558,44.8486],[-71.5511,44.837],[-71.5769,44.8152],[-71.5684,44.807],[-71.5728,44.7909],[-71.5925,44.7827],[-71.6167,44.7563],[-71.632,44.7521],[-71.6251,44.7434],[-71.6261,44.7285],[-71.6171,44.7287],[-71.6186,44.7222],[-71.5939,44.6964],[-71.5966,44.6781],[-71.5815,44.6732],[-71.5879,44.6699],[-71.5874,44.6597],[-71.5752,44.6558],[-71.5771,44.6507],[-71.5628,44.6524],[-71.5578,44.642],[-71.5637,44.6373],[-71.5468,44.6298],[-71.557,44.6295],[-71.5463,44.623],[-71.5551,44.6252],[-71.5536,44.6061],[-71.5621,44.6012],[-71.551,44.601],[-71.5552,44.5934],[-71.546,44.5971],[-71.5469,44.5908],[-71.5385,44.5942],[-71.54,44.5885],[-71.5349,44.5879],[-71.5458,44.5779],[-71.5524,44.5844],[-71.5477,44.5714],[-71.5577,44.5704],[-71.5597,44.564],[-71.5896,44.5657],[-71.597,44.5595],[-71.5986,44.5548],[-71.5719,44.5379],[-71.5807,44.5246],[-71.5941,44.5215],[-71.577,44.5021],[-71.5881,44.5066],[-71.5859,44.4994],[-71.5939,44.501],[-71.5986,44.4868],[-71.6178,44.4858],[-71.6262,44.4745],[-71.6345,44.4756],[-71.6247,44.4817],[-71.6328,44.4838],[-71.6468,44.4732],[-71.639,44.4644],[-71.6542,44.4588],[-71.6609,44.4399],[-71.678,44.4353],[-71.677,44.4269],[-71.7026,44.4135],[-71.7354,44.41],[-71.7437,44.401],[-71.762,44.407],[-71.7945,44.399],[-71.8035,44.3919],[-71.8006,44.384],[-71.8144,44.3819],[-71.8148,44.3545],[-71.8714,44.3367],[-71.9106,44.3484],[-71.934,44.336],[-71.9814,44.3374],[-72.0091,44.3222],[-72.0336,44.3181],[-72.0329,44.3022],[-72.0586,44.2865],[-72.0679,44.2734],[-72.0669,44.2681],[-72.0583,44.2701],[-72.0615,44.2611],[-72.0477,44.239],[-72.0662,44.1901],[-72.039,44.1568],[-72.042,44.137],[-72.0333,44.1317],[-72.0531,44.1195],[-72.0554,44.1108],[-72.0479,44.0966],[-72.0395,44.1035],[-72.0313,44.1004],[-72.0333,44.0905],[-72.0453,44.0873],[-72.0317,44.079],[-72.0529,44.0763],[-72.0483,44.0697],[-72.0573,44.0583],[-72.0681,44.0574],[-72.0619,44.0496],[-72.0783,44.0434],[-72.0748,44.0324],[-72.0827,44.0218],[-72.0954,44.0218],[-72.0905,44.0099],[-72.1028,44.0146],[-72.1041,44.0024],[-72.1169,43.9945],[-72.112,43.986],[-72.1144,43.968],[-72.0909,43.9658],[-72.1007,43.963],[-72.1057,43.9498],[-72.1184,43.9465],[-72.1205,43.9196],[-72.1505,43.9021],[-72.1597,43.8877],[-72.1721,43.885],[-72.1679,43.8691],[-72.1846,43.8641],[-72.188,43.8552],[-72.1825,43.8341],[-72.189,43.8212],[-72.184,43.8064],[-72.2055,43.7846],[-72.2052,43.7709],[-72.2185,43.7655],[-72.2342,43.746],[-72.2711,43.7339],[-72.2996,43.7063],[-72.3051,43.6953],[-72.3032,43.6686],[-72.3136,43.6569],[-72.3147,43.6419],[-72.3291,43.6355],[-72.3348,43.618],[-72.3283,43.6011],[-72.3802,43.5734],[-72.3807,43.5403],[-72.3943,43.5274],[-72.3989,43.5127],[-72.3811,43.494],[-72.3815,43.48],[-72.3926,43.4669],[-72.3904,43.4509],[-72.4035,43.3916],[-72.416,43.3772],[-72.4126,43.3623],[-72.3899,43.3566],[-72.4106,43.3311],[-72.3953,43.3127],[-72.416,43.2702],[-72.4386,43.2524],[-72.4342,43.2319],[-72.4411,43.2182],[-72.4382,43.2029],[-72.4505,43.1926],[-72.4439,43.1798],[-72.4528,43.1728],[-72.4521,43.1532],[-72.4574,43.1475],[-72.4521,43.1386],[-72.4408,43.1366],[-72.4423,43.1293],[-72.4325,43.1189],[-72.4432,43.103],[-72.4353,43.0815],[-72.4678,43.0528],[-72.4604,43.0414],[-72.4626,43.0258],[-72.4433,43.0076],[-72.4625,42.9974],[-72.4617,42.9829],[-72.4737,42.9721],[-72.5184,42.9631],[-72.5338,42.9526],[-72.5245,42.9151],[-72.5334,42.8953],[-72.5526,42.885],[-72.5571,42.8529],[-72.5474,42.8396],[-72.5415,42.8071],[-72.5087,42.7795],[-72.5155,42.7656],[-72.4905,42.7728],[-72.477,42.7608],[-72.4584,42.7269],[-72.2604,42.721],[-73.2648,42.7458],[-73.3338,42.5589],[-73.3642,42.5663],[-73.4313,42.6194],[-73.47,42.6957],[-73.4845,42.7516],[-73.4888,42.831],[-73.4768,42.8748],[-73.4543,43.3806],[-73.5302,43.4145],[-73.591,43.468],[-73.6256,43.5412],[-73.6283,43.6221],[-73.6193,43.6955]]]}},{"type":"Feature","properties":{"key":"champlain-valley","bufferDeg":0.1},"geometry":{"type":"Polygon","coordinates":[[[-73.5057,44.1768],[-73.4702,44.2517],[-73.4219,44.2986],[-73.4346,44.3529],[-73.4335,44.3812],[-73.4209,44.4212],[-73.3981,44.4488],[-73.4124,44.4758],[-73.4451,44.5046],[-73.4648,44.532],[-73.4768,44.558],[-73.4902,44.6167],[-73.4818,44.6677],[-73.4666,44.7028],[-73.4582,44.7784],[-73.4777,44.8195],[-73.479,44.8718],[-73.4459,44.9463],[-73.4546,44.9913],[-73.4444,45.0314],[-73.4112,45.0841],[-73.3802,45.1036],[-73.3444,45.1107],[-72.6337,45.1147],[-72.5456,45.1077],[-72.5052,45.0953],[-72.4734,45.0674],[-72.4561,45.0288],[-72.4387,44.9469],[-72.4337,44.8429],[-72.4381,44.8034],[-72.4575,44.7688],[-72.5033,44.7156],[-72.5305,44.6935],[-72.5637,44.6821],[-72.5987,44.6828],[-72.6511,44.7015],[-72.6787,44.7024],[-72.6886,44.6945],[-72.7148,44.6287],[-72.7358,44.6111],[-72.7255,44.6002],[-72.7115,44.5642],[-72.7042,44.5166],[-72.71,44.4236],[-72.7026,44.3959],[-72.7068,44.359],[-72.7478,44.2966],[-72.7758,44.2725],[-72.7964,44.2653],[-72.8341,44.1751],[-72.8311,44.1589],[-72.7149,44.1258],[-72.6808,44.1086],[-72.6557,44.0798],[-72.6432,44.0437],[-72.6452,44.0056],[-72.6613,43.971],[-72.729,43.8774],[-72.8106,43.7779],[-72.8496,43.7629],[-72.8831,43.7647],[-72.8926,43.752],[-72.925,43.7323],[-72.9824,43.7111],[-73.0234,43.7051],[-73.0633,43.7162],[-73.0957,43.7433],[-73.1094,43.7426],[-73.1269,43.706],[-73.1582,43.6791],[-73.1976,43.6672],[-73.3541,43.6535],[-73.3905,43.657],[-73.4232,43.6734],[-73.4478,43.7004],[-73.4611,43.7473],[-73.4861,43.7867],[-73.4927,43.8261],[-73.4849,43.8591],[-73.5003,43.8922],[-73.5101,43.9788],[-73.5221,43.9911],[-73.5365,44.0287],[-73.535,44.0689],[-73.5057,44.1768]]]}},{"type":"Feature","properties":{"key":"southern-vt","bufferDeg":0.1},"geometry":{"type":"Polygon","coordinates":[[[-73.5249,43.6619],[-73.4868,43.7474],[-73.4614,43.7758],[-73.4567,43.7927],[-73.4359,43.8213],[-73.4066,43.843],[-73.3715,43.8527],[-73.3161,43.8576],[-73.2972,43.8995],[-73.2646,43.9262],[-73.2239,43.9372],[-73.0349,43.9466],[-72.9939,43.94],[-72.9746,43.9274],[-72.9095,43.9518],[-72.8723,43.958],[-72.7686,43.9251],[-72.7315,43.9048],[-72.6971,43.8626],[-72.6855,43.8284],[-72.6856,43.7843],[-72.6408,43.7653],[-72.6156,43.7385],[-72.6018,43.7045],[-72.6012,43.6677],[-72.614,43.6332],[-72.6652,43.5477],[-72.6443,43.5283],[-72.6284,43.4969],[-72.6229,43.4679],[-72.6287,43.4255],[-72.66,43.3512],[-72.6642,43.3251],[-72.5468,43.3359],[-72.4323,43.3332],[-72.4078,43.3278],[-72.3953,43.3127],[-72.416,43.2702],[-72.4386,43.2524],[-72.4342,43.2319],[-72.4411,43.2182],[-72.4382,43.2029],[-72.4505,43.1926],[-72.4439,43.1798],[-72.4528,43.1728],[-72.4521,43.1532],[-72.4574,43.1475],[-72.4521,43.1386],[-72.4408,43.1366],[-72.4423,43.1293],[-72.4325,43.1189],[-72.4432,43.103],[-72.4353,43.0815],[-72.4678,43.0528],[-72.4604,43.0414],[-72.4626,43.0258],[-72.4433,43.0076],[-72.4625,42.9974],[-72.4617,42.9829],[-72.4737,42.9721],[-72.5184,42.9631],[-72.5338,42.9526],[-72.5245,42.9151],[-72.5334,42.8953],[-72.5526,42.885],[-72.5571,42.8529],[-72.5474,42.8396],[-72.5415,42.8071],[-72.5087,42.7795],[-72.5155,42.7656],[-72.4905,42.7728],[-72.477,42.7608],[-72.4584,42.7269],[-72.3594,42.7234],[-73.2648,42.7458],[-73.2998,42.6512],[-73.3203,42.6562],[-73.3538,42.6827],[-73.3732,42.7209],[-73.3877,42.7768],[-73.3899,42.8164],[-73.3767,42.8705],[-73.3491,43.4815],[-73.3705,43.4713],[-73.4077,43.4688],[-73.4784,43.499],[-73.509,43.5245],[-73.5272,43.56],[-73.5249,43.6619]]]}},{"type":"Feature","properties":{"key":"central-vt","bufferDeg":0.1},"geometry":{"type":"Polygon","coordinates":[[[-73.0256,44.6441],[-73.0134,44.6967],[-72.974,44.736],[-72.9505,44.7444],[-72.8995,44.7985],[-72.856,44.8104],[-72.8499,44.8232],[-72.7909,44.8827],[-72.7603,44.899],[-72.726,44.904],[-72.6105,44.9004],[-72.5693,44.8901],[-72.5356,44.8715],[-72.3836,44.817],[-72.3516,44.7983],[-72.3287,44.7692],[-72.3179,44.7338],[-72.3208,44.6969],[-72.3275,44.6828],[-72.3024,44.668],[-72.2795,44.6386],[-72.2689,44.603],[-72.2786,44.5528],[-72.1882,44.5183],[-72.154,44.4964],[-72.1344,44.4713],[-72.119,44.4309],[-72.1195,44.3893],[-72.137,44.3514],[-72.1899,44.2807],[-72.2201,44.251],[-72.2372,44.2115],[-72.2894,44.1432],[-72.3206,44.1163],[-72.3452,44.1088],[-72.3642,44.0677],[-72.3942,44.0417],[-72.432,44.0295],[-72.4715,44.0328],[-72.5346,44.0513],[-72.5984,43.9594],[-72.6282,43.9291],[-72.6678,43.9139],[-72.7102,43.9166],[-72.9065,43.9724],[-72.9443,43.9758],[-72.9771,43.9921],[-73.0017,44.0191],[-73.0221,44.0902],[-73.0448,44.1238],[-73.0521,44.1649],[-73.042,44.2054],[-73.0046,44.2816],[-72.9948,44.3265],[-72.9338,44.4348],[-72.9355,44.4829],[-72.9282,44.4984],[-72.9296,44.5109],[-72.9651,44.5453],[-72.9882,44.5565],[-73.0154,44.5895],[-73.0256,44.6441]]]}},{"type":"Feature","properties":{"key":"northeast-kingdom","bufferDeg":0.1},"geometry":{"type":"Polygon","coordinates":[[[-72.6528,45.0225],[-72.6416,45.056],[-72.6195,45.0835],[-72.5891,45.1016],[-72.5544,45.108],[-72.3108,45.1038],[-71.4489,45.1103],[-71.4679,45.0836],[-71.4781,45.0843],[-71.4878,45.0714],[-71.498,45.0702],[-71.4972,45.0558],[-71.5065,45.0485],[-71.4909,45.0432],[-71.5011,45.0134],[-71.4651,45.0129],[-71.4883,45.0007],[-71.5088,45.0078],[-71.5304,44.9994],[-71.5415,44.9848],[-71.5229,44.9662],[-71.518,44.9677],[-71.5237,44.9643],[-71.5163,44.9645],[-71.5192,44.9496],[-71.5148,44.9437],[-71.5228,44.9399],[-71.4999,44.9112],[-71.4932,44.9114],[-71.4949,44.9043],[-71.5494,44.8621],[-71.5474,44.8554],[-71.5558,44.8486],[-71.5511,44.837],[-71.5769,44.8152],[-71.5684,44.807],[-71.5728,44.7909],[-71.5925,44.7827],[-71.6167,44.7563],[-71.632,44.7521],[-71.6251,44.7434],[-71.6261,44.7285],[-71.6171,44.7287],[-71.6186,44.7222],[-71.5939,44.6964],[-71.5966,44.6781],[-71.5815,44.6732],[-71.5879,44.6699],[-71.5874,44.6597],[-71.5752,44.6558],[-71.5771,44.6507],[-71.5628,44.6524],[-71.5578,44.642],[-71.5637,44.6373],[-71.5468,44.6298],[-71.557,44.6295],[-71.5463,44.623],[-71.5551,44.6252],[-71.5536,44.6061],[-71.5621,44.6012],[-71.551,44.601],[-71.5552,44.5934],[-71.546,44.5971],[-71.5469,44.5908],[-71.5385,44.5942],[-71.54,44.5885],[-71.5349,44.5879],[-71.5458,44.5779],[-71.5524,44.5844],[-71.5477,44.5714],[-71.5577,44.5704],[-71.5597,44.564],[-71.5896,44.5657],[-71.597,44.5595],[-71.5986,44.5548],[-71.5719,44.5379],[-71.5807,44.5246],[-71.5941,44.5215],[-71.577,44.5021],[-71.5881,44.5066],[-71.5859,44.4994],[-71.5939,44.501],[-71.5986,44.4868],[-71.6178,44.4858],[-71.6262,44.4745],[-71.6345,44.4756],[-71.6247,44.4817],[-71.6328,44.4838],[-71.6468,44.4732],[-71.639,44.4644],[-71.6542,44.4588],[-71.6609,44.4399],[-71.678,44.4353],[-71.677,44.4269],[-71.7026,44.4135],[-71.7354,44.41],[-71.7437,44.401],[-71.762,44.407],[-71.7945,44.399],[-71.8035,44.3919],[-71.8006,44.384],[-71.8144,44.3819],[-71.8148,44.3545],[-71.8714,44.3367],[-71.9106,44.3484],[-71.934,44.336],[-71.9814,44.3374],[-72.0091,44.3222],[-72.0293,44.3223],[-72.0329,44.3022],[-72.0586,44.2865],[-72.0679,44.2734],[-72.0669,44.2681],[-72.0583,44.2701],[-72.0615,44.2611],[-72.0477,44.239],[-72.0662,44.1901],[-72.039,44.1568],[-72.042,44.137],[-72.0333,44.1317],[-72.0531,44.1195],[-72.0554,44.1108],[-72.0479,44.0966],[-72.0395,44.1035],[-72.0313,44.1004],[-72.0333,44.0905],[-72.0453,44.0873],[-72.0317,44.079],[-72.0529,44.0763],[-72.0483,44.0697],[-72.057,44.0587],[-72.1841,44.0917],[-72.2979,44.0834],[-72.3362,44.088],[-72.3999,44.1088],[-72.4331,44.1272],[-72.457,44.1566],[-72.4683,44.1929],[-72.4652,44.2307],[-72.4483,44.2646],[-72.4146,44.3087],[-72.4082,44.3394],[-72.3792,44.3771],[-72.4703,44.4118],[-72.5017,44.4311],[-72.5241,44.4604],[-72.5342,44.4958],[-72.5248,44.5448],[-72.5486,44.5588],[-72.5715,44.5879],[-72.5822,44.6233],[-72.5733,44.6726],[-72.6459,44.7065],[-72.6691,44.7373],[-72.6789,44.7745],[-72.6739,44.8127],[-72.6366,44.8674],[-72.6528,45.0225]]]}},{"type":"Feature","properties":{"key":"me","bufferDeg":0.2},"geometry":{"type":"Polygon","coordinates":[[[-71.2711,45.376],[-71.2228,45.4494],[-71.133,45.5059],[-71.0612,45.5412],[-70.9812,45.5455],[-70.9669,45.5403],[-70.9403,45.5672],[-70.9041,45.5885],[-70.8992,45.6074],[-70.8759,45.6339],[-70.837,45.7025],[-70.7919,45.7423],[-70.7425,45.7814],[-70.709,45.7937],[-70.6759,45.8284],[-70.6047,45.8589],[-70.5754,45.9174],[-70.5144,45.9702],[-70.5169,45.9981],[-70.5065,46.1061],[-70.4862,46.1572],[-70.4922,46.2051],[-70.4724,46.2792],[-70.4375,46.3254],[-70.4195,46.3697],[-70.3431,46.4803],[-70.2792,46.5298],[-70.232,46.5519],[-70.1928,46.737],[-70.1378,46.8377],[-69.3651,47.602],[-69.3006,47.6448],[-69.2247,47.6598],[-69.1935,47.6537],[-69.1455,47.6546],[-69.076,47.6332],[-68.9968,47.6226],[-68.9237,47.5871],[-68.8657,47.5218],[-68.8474,47.4877],[-68.831,47.4144],[-68.6984,47.4432],[-68.6395,47.4781],[-68.5034,47.4965],[-68.4843,47.5138],[-68.3933,47.5524],[-68.273,47.5599],[-68.1786,47.5473],[-68.0371,47.4869],[-68.0106,47.4583],[-67.981,47.4378],[-67.9486,47.4254],[-67.8184,47.3436],[-67.7858,47.2997],[-67.7515,47.2705],[-67.6974,47.2444],[-67.6409,47.2003],[-67.6036,47.1392],[-67.5902,47.0688],[-67.5818,46.0191],[-67.5653,45.9928],[-67.5507,45.9243],[-67.5602,45.8581],[-67.5594,45.8064],[-67.5319,45.7945],[-67.473,45.8037],[-67.3989,45.7958],[-67.3328,45.7614],[-67.2617,45.6905],[-67.2257,45.6031],[-67.2193,45.466],[-67.2311,45.4359],[-67.2226,45.4134],[-67.2225,45.3824],[-67.1783,45.3665],[-67.1191,45.3581],[-67.0614,45.3367],[-67.0129,45.2987],[-66.9666,45.2493],[-66.8651,45.0815],[-66.8001,45.0179],[-66.7806,44.9647],[-66.7145,44.898],[-66.6866,44.8156],[-66.6963,44.7291],[-66.7419,44.655],[-66.759,44.6373],[-66.9094,44.543],[-67.0025,44.461],[-67.122,44.3908],[-67.1843,44.3653],[-67.2252,44.3566],[-67.2579,44.3391],[-67.3139,44.3265],[-67.3757,44.2704],[-67.4862,44.2145],[-67.5826,44.1885],[-67.6809,44.1887],[-67.7119,44.1612],[-67.7681,44.1349],[-67.8027,44.1249],[-67.8809,44.1177],[-67.9833,44.0792],[-67.9993,44.0311],[-68.0399,43.9784],[-68.0674,43.9529],[-68.1393,43.9101],[-68.1796,43.8988],[-68.2201,43.8755],[-68.2831,43.8554],[-68.3815,43.8467],[-68.4572,43.7901],[-68.5047,43.7708],[-68.5294,43.7268],[-68.5447,43.7118],[-68.6213,43.6622],[-68.6536,43.6157],[-68.7409,43.5551],[-68.8171,43.536],[-68.8608,43.5338],[-68.9283,43.5421],[-68.9832,43.5586],[-69.0814,43.6104],[-69.0985,43.6068],[-69.1647,43.5507],[-69.2451,43.5155],[-69.331,43.5045],[-69.3927,43.5129],[-69.4462,43.5364],[-69.529,43.5083],[-69.6023,43.5015],[-69.6415,43.4781],[-69.6964,43.4602],[-69.8152,43.4473],[-70.0497,43.3518],[-70.1905,43.2312],[-70.2169,43.191],[-70.2061,43.1493],[-70.2113,43.0573],[-70.262,42.9635],[-70.3468,42.901],[-70.3888,42.8134],[-70.4015,42.7986],[-70.4503,42.7576],[-70.5036,42.7303],[-70.5477,42.7228],[-70.6259,42.7397],[-70.6596,42.7368],[-70.7197,42.7789],[-70.7361,42.8048],[-70.7349,42.8245],[-70.7488,42.8588],[-70.7273,42.8936],[-70.726,42.9285],[-70.709,42.9382],[-70.6944,42.9567],[-70.6809,42.9369],[-70.6551,42.9221],[-70.6107,42.9125],[-70.5751,42.9171],[-70.5876,42.9492],[-70.6111,42.979],[-70.6307,42.9853],[-70.7012,43.0452],[-70.7063,43.0753],[-70.738,43.0737],[-70.7564,43.0802],[-70.7659,43.0925],[-70.8271,43.1274],[-70.8336,43.1461],[-70.8236,43.1742],[-70.8282,43.1878],[-70.8193,43.193],[-70.8095,43.2252],[-70.8172,43.2293],[-70.8178,43.2382],[-70.8389,43.2445],[-70.8428,43.2542],[-70.8575,43.2558],[-70.8629,43.2648],[-70.8833,43.2732],[-70.8836,43.2834],[-70.9066,43.292],[-70.8963,43.2985],[-70.9126,43.3076],[-70.9114,43.3197],[-70.9244,43.3239],[-70.9312,43.3366],[-70.9558,43.334],[-70.9731,43.3488],[-70.9879,43.3899],[-70.9823,43.3983],[-70.9868,43.4138],[-70.961,43.4384],[-70.9666,43.4513],[-70.9611,43.4692],[-70.976,43.4784],[-70.9675,43.4809],[-70.9683,43.4894],[-70.9547,43.5093],[-70.9539,43.5223],[-70.9638,43.5394],[-70.9535,43.5406],[-70.9506,43.5513],[-70.9728,43.5705],[-70.989,43.7901],[-71.0335,44.6976],[-71.0839,45.3055],[-71.1053,45.2949],[-71.111,45.2844],[-71.1064,45.28],[-71.1163,45.2741],[-71.1329,45.2445],[-71.1476,45.2394],[-71.1623,45.2503],[-71.1801,45.2399],[-71.1964,45.254],[-71.2306,45.2494],[-71.2456,45.2688],[-71.2594,45.272],[-71.2649,45.2938],[-71.282,45.2977],[-71.2711,45.376]]]}},{"type":"Feature","properties":{"key":"southern-maine","bufferDeg":0.1},"geometry":{"type":"Polygon","coordinates":[[[-70.9559,43.8901],[-70.8847,43.9107],[-70.8507,43.9484],[-70.8934,43.9604],[-70.9179,43.978],[-70.9472,44.0135],[-70.9624,44.051],[-70.966,44.0914],[-70.9532,44.1298],[-70.9317,44.1634],[-70.8969,44.1876],[-70.8553,44.1952],[-70.825,44.1876],[-70.6701,44.26],[-70.6292,44.2709],[-70.5875,44.264],[-70.5172,44.2075],[-70.4997,44.1758],[-70.49,44.1402],[-70.4598,44.1331],[-70.413,44.1054],[-70.3925,44.1018],[-70.3589,44.1278],[-70.324,44.1374],[-70.288,44.134],[-70.2556,44.118],[-70.1308,44.0242],[-70.0754,44.0668],[-70.0378,44.0756],[-69.9997,44.0695],[-69.9668,44.0495],[-69.9471,44.0228],[-69.9085,44.0477],[-69.8687,44.0534],[-69.8298,44.043],[-69.7836,44.0127],[-69.7644,43.9825],[-69.7571,43.9476],[-69.7624,43.9123],[-69.7786,43.8692],[-69.7707,43.8055],[-69.7876,43.7601],[-69.7823,43.6456],[-69.7874,43.6037],[-69.8093,43.5677],[-69.8441,43.5439],[-70.1028,43.4382],[-70.2369,43.3187],[-70.2565,43.3092],[-70.2966,43.2527],[-70.3498,43.2232],[-70.3321,43.2045],[-70.3087,43.1555],[-70.3047,43.1323],[-70.3088,43.0797],[-70.3341,43.0328],[-70.3735,42.9987],[-70.4341,42.9747],[-70.4458,42.9111],[-70.4645,42.8787],[-70.4988,42.8452],[-70.5371,42.8246],[-70.5758,42.8171],[-70.6145,42.8252],[-70.647,42.8476],[-70.6748,42.8976],[-70.7214,42.9311],[-70.6944,42.9567],[-70.6809,42.9369],[-70.6551,42.9221],[-70.6107,42.9125],[-70.5751,42.9171],[-70.5876,42.9492],[-70.6111,42.979],[-70.6307,42.9853],[-70.7012,43.0452],[-70.7063,43.0753],[-70.738,43.0737],[-70.7564,43.0802],[-70.7659,43.0925],[-70.8271,43.1274],[-70.8336,43.1461],[-70.8236,43.1742],[-70.8282,43.1878],[-70.8193,43.193],[-70.8095,43.2252],[-70.8172,43.2293],[-70.8178,43.2382],[-70.8389,43.2445],[-70.8428,43.2542],[-70.8575,43.2558],[-70.8629,43.2648],[-70.8833,43.2732],[-70.8836,43.2834],[-70.9066,43.292],[-70.8963,43.2985],[-70.9126,43.3076],[-70.9114,43.3197],[-70.9244,43.3239],[-70.9312,43.3366],[-70.9558,43.334],[-70.9782,43.3587],[-70.9746,43.3636],[-70.9879,43.3899],[-70.9823,43.3983],[-70.9868,43.4138],[-70.961,43.4384],[-70.9666,43.4513],[-70.9611,43.4692],[-70.976,43.4784],[-70.9675,43.4809],[-70.9683,43.4894],[-70.9547,43.5093],[-70.9539,43.5223],[-70.9638,43.5394],[-70.9535,43.5406],[-70.9506,43.5513],[-70.9728,43.5705],[-70.9931,43.8914],[-70.9559,43.8901]]]}},{"type":"Feature","properties":{"key":"midcoast","bufferDeg":0.1},"geometry":{"type":"Polygon","coordinates":[[[-70.1518,43.992],[-70.1021,44.1504],[-70.0864,44.1833],[-70.06,44.2083],[-70.0264,44.2223],[-69.9514,44.2173],[-69.9136,44.2498],[-69.8786,44.2655],[-69.8402,44.2668],[-69.7616,44.2542],[-69.7461,44.3078],[-69.7297,44.3403],[-69.7027,44.3647],[-69.6687,44.3779],[-69.6013,44.3724],[-69.5348,44.5088],[-69.515,44.5336],[-69.5141,44.564],[-69.5363,44.5814],[-69.5606,44.6241],[-69.575,44.6656],[-69.5736,44.719],[-69.5565,44.7531],[-69.5279,44.7783],[-69.4847,44.7921],[-69.4782,44.806],[-69.4365,44.8402],[-69.3811,44.8542],[-69.3268,44.8484],[-69.2766,44.8215],[-69.2175,44.8288],[-69.1816,44.8268],[-69.1487,44.8121],[-69.1231,44.7867],[-69.1099,44.7577],[-68.8554,44.8005],[-68.8144,44.7994],[-68.7598,44.7683],[-68.7358,44.7447],[-68.7161,44.6973],[-68.7123,44.6632],[-68.7205,44.6294],[-68.7034,44.5997],[-68.6985,44.5602],[-68.7031,44.5439],[-68.6934,44.4828],[-68.7103,44.4201],[-68.7419,44.3812],[-68.741,44.3638],[-68.7622,44.2867],[-68.722,44.2624],[-68.6818,44.2185],[-68.6232,44.2156],[-68.5831,44.2287],[-68.5525,44.2298],[-68.512,44.2229],[-68.4778,44.2003],[-68.4545,44.16],[-68.4296,44.1454],[-68.4044,44.1049],[-68.3847,44.0255],[-68.3915,43.992],[-68.4128,43.9502],[-68.5081,43.8766],[-68.5699,43.8559],[-68.5994,43.7982],[-68.6346,43.7681],[-68.6896,43.7423],[-68.7295,43.6808],[-68.7839,43.6454],[-68.8343,43.6335],[-68.8995,43.6378],[-68.9544,43.6543],[-69.0697,43.7221],[-69.109,43.7045],[-69.1567,43.6942],[-69.1968,43.6502],[-69.2351,43.6262],[-69.2824,43.6089],[-69.3616,43.6085],[-69.413,43.6288],[-69.4511,43.6583],[-69.4926,43.6241],[-69.5244,43.6107],[-69.5681,43.6028],[-69.634,43.6012],[-69.6639,43.5786],[-69.7134,43.5587],[-69.7707,43.5557],[-69.8816,43.5365],[-69.9178,43.5431],[-69.9492,43.5625],[-69.9714,43.5919],[-69.9815,43.6274],[-69.9881,43.7059],[-69.9873,43.7889],[-69.9799,43.8155],[-70.0204,43.8246],[-70.087,43.8716],[-70.1434,43.9508],[-70.1518,43.992]]]}},{"type":"Feature","properties":{"key":"downeast-acadia","bufferDeg":0.1},"geometry":{"type":"Polygon","coordinates":[[[-68.9523,44.4199],[-68.9462,44.4493],[-68.9316,44.4756],[-68.9014,44.5104],[-68.9047,44.5333],[-68.9393,44.5802],[-68.9475,44.6226],[-68.937,44.6645],[-68.9024,44.7337],[-68.8772,44.7627],[-68.843,44.78],[-68.7748,44.7848],[-68.7189,44.8177],[-68.676,44.8194],[-68.6294,44.8402],[-68.5702,44.8478],[-68.598,44.9559],[-68.5996,44.9978],[-68.584,45.0367],[-68.5538,45.0657],[-68.4947,45.0824],[-68.4953,45.1012],[-68.4795,45.1397],[-68.4493,45.1685],[-68.3972,45.1841],[-68.4024,45.2375],[-68.3869,45.277],[-68.3564,45.3066],[-68.3163,45.3207],[-68.0651,45.3527],[-68.1433,45.6095],[-68.1473,45.6518],[-68.1334,45.6919],[-68.1041,45.7227],[-68.0646,45.7385],[-67.9674,45.7549],[-67.9278,45.7768],[-67.8868,45.7789],[-67.8673,45.7715],[-67.8213,45.7788],[-67.7807,45.7775],[-67.7333,45.7891],[-67.6937,45.7831],[-67.6495,45.7613],[-67.617,45.7202],[-67.5755,45.7034],[-67.5295,45.6929],[-67.4929,45.7027],[-67.4297,45.7006],[-67.3851,45.6785],[-67.3309,45.6108],[-67.3164,45.507],[-67.3209,45.4709],[-67.3392,45.4379],[-67.3212,45.3968],[-67.3203,45.3625],[-67.3323,45.3186],[-67.3554,45.2782],[-67.3485,45.2675],[-67.3041,45.2897],[-67.2597,45.2901],[-67.2051,45.2711],[-67.1139,45.2514],[-67.0859,45.2304],[-67.0222,45.1553],[-66.942,45.0154],[-66.8844,44.9642],[-66.8696,44.9236],[-66.8712,44.9048],[-66.8301,44.8775],[-66.8,44.8461],[-66.786,44.8049],[-66.7909,44.7617],[-66.8308,44.7069],[-66.8949,44.6739],[-66.971,44.6211],[-67.0363,44.5596],[-67.1508,44.4882],[-67.2053,44.4639],[-67.2583,44.4536],[-67.2992,44.4302],[-67.3658,44.4186],[-67.3895,44.3896],[-67.4428,44.3455],[-67.5353,44.3028],[-67.6063,44.2857],[-67.7212,44.2877],[-67.7538,44.2536],[-67.7959,44.231],[-67.8577,44.217],[-67.9085,44.222],[-67.9493,44.1937],[-67.9788,44.1824],[-68.0395,44.175],[-68.0736,44.1319],[-68.0962,44.0647],[-68.1282,44.0302],[-68.1713,44.0049],[-68.22,43.9922],[-68.2657,43.9645],[-68.2972,43.9544],[-68.3546,43.9462],[-68.4098,43.9494],[-68.4728,43.9288],[-68.5219,43.9355],[-68.5577,43.96],[-68.5816,44.0032],[-68.5981,44.0153],[-68.7285,44.0158],[-68.7686,44.0248],[-68.8216,44.0607],[-68.8484,44.1022],[-68.8794,44.0991],[-68.9132,44.1078],[-68.966,44.1382],[-68.9862,44.166],[-68.9958,44.1989],[-68.9822,44.2809],[-68.9595,44.3272],[-68.9468,44.3766],[-68.9523,44.4199]]]}},{"type":"Feature","properties":{"key":"central-western-me","bufferDeg":0.1},"geometry":{"type":"Polygon","coordinates":[[[-71.0417,45.4427],[-71.0039,45.4475],[-70.9175,45.4322],[-70.8886,45.4797],[-70.8647,45.5011],[-70.8212,45.5223],[-70.8155,45.5505],[-70.7842,45.5904],[-70.7623,45.636],[-70.7003,45.69],[-70.6547,45.7093],[-70.6176,45.7472],[-70.5896,45.7616],[-70.5583,45.7667],[-70.5158,45.7904],[-70.5132,45.8225],[-70.4961,45.8565],[-70.4089,45.9274],[-70.4156,45.9701],[-70.4107,45.9872],[-70.4174,46.0086],[-70.4087,46.0851],[-70.3796,46.1431],[-70.3925,46.1983],[-70.3825,46.2353],[-70.3498,46.2795],[-70.3369,46.3142],[-70.3029,46.3591],[-70.2962,46.3783],[-70.2528,46.429],[-70.1885,46.4571],[-70.1413,46.4982],[-70.121,46.5941],[-70.1021,46.6349],[-70.0672,46.6633],[-70.0234,46.6735],[-69.7213,46.674],[-69.6832,46.6666],[-69.6508,46.6452],[-69.629,46.6131],[-69.6211,46.5751],[-69.6193,46.3951],[-69.6319,46.3485],[-69.6294,46.0674],[-69.6042,46.0445],[-69.588,46.0132],[-69.551,45.8935],[-69.5468,45.8574],[-69.5557,45.8222],[-69.5767,45.7925],[-69.6199,45.7687],[-69.6274,45.7531],[-69.6349,45.7272],[-69.6097,45.7021],[-69.5949,45.6697],[-69.5924,45.6343],[-69.6259,45.5391],[-69.6606,45.4975],[-69.6051,45.3227],[-69.6015,45.2825],[-69.5837,45.2115],[-69.5697,45.1648],[-69.554,45.1376],[-69.5134,45.1529],[-69.3692,45.1726],[-69.3336,45.171],[-69.3008,45.1571],[-69.275,45.1325],[-69.2594,45.1005],[-69.185,44.8357],[-69.1693,44.7441],[-69.1687,44.7026],[-69.1849,44.6645],[-69.2153,44.6362],[-69.2545,44.6227],[-69.2963,44.6175],[-69.2981,44.6086],[-69.2888,44.5995],[-69.2737,44.5604],[-69.2759,44.5186],[-69.2994,44.4311],[-69.3148,44.3987],[-69.3407,44.3738],[-69.3863,44.359],[-69.4118,44.3083],[-69.424,44.2574],[-69.4397,44.2228],[-69.4661,44.1954],[-69.5057,44.1701],[-69.5349,44.1618],[-69.5597,44.1624],[-69.5607,44.0946],[-69.5768,44.0623],[-69.6034,44.0378],[-69.637,44.0244],[-69.6732,44.0238],[-69.7747,44.0407],[-69.8126,44.0566],[-69.8406,44.0256],[-69.8753,44.0102],[-69.9302,44.0115],[-69.9405,43.9409],[-69.9616,43.9069],[-70.0082,43.8577],[-70.0769,43.8146],[-70.1178,43.8067],[-70.1584,43.8162],[-70.2462,43.8574],[-70.3071,43.9069],[-70.3267,43.8936],[-70.3692,43.8866],[-70.4176,43.8913],[-70.4943,43.9209],[-70.5431,43.9057],[-70.6216,43.9283],[-70.6611,43.8297],[-70.6828,43.8082],[-70.6967,43.7637],[-70.7209,43.7358],[-70.7492,43.7184],[-70.7881,43.7067],[-70.8735,43.7069],[-70.9056,43.6926],[-70.9814,43.6872],[-71.0335,44.6976],[-71.0839,45.3055],[-71.1053,45.2949],[-71.111,45.2844],[-71.1064,45.28],[-71.1163,45.2741],[-71.1241,45.2551],[-71.1476,45.2394],[-71.1623,45.2503],[-71.1769,45.2418],[-71.1832,45.2934],[-71.1784,45.3383],[-71.1543,45.3765],[-71.1158,45.4003],[-71.0874,45.409],[-71.075,45.4243],[-71.0417,45.4427]]]}},{"type":"Feature","properties":{"key":"bangor-north","bufferDeg":0.1},"geometry":{"type":"Polygon","coordinates":[[[-69.8701,45.8594],[-69.8364,45.8796],[-69.8352,45.9071],[-69.8202,45.9389],[-69.8286,45.976],[-69.8323,46.3931],[-69.8197,46.4396],[-69.8201,46.4739],[-70.023,46.4735],[-70.0579,46.4797],[-70.0885,46.4977],[-70.1108,46.5253],[-70.1221,46.5589],[-70.121,46.5944],[-70.0949,46.7164],[-70.0678,46.7663],[-69.2945,47.5312],[-69.2623,47.5524],[-69.2244,47.5598],[-69.1692,47.5569],[-69.077,47.5318],[-69.0302,47.5283],[-68.9834,47.5069],[-68.9501,47.4682],[-68.9307,47.4116],[-68.936,47.375],[-68.9547,47.3349],[-68.9509,47.3159],[-68.886,47.2886],[-68.859,47.3031],[-68.7534,47.3337],[-68.6899,47.3444],[-68.6676,47.3414],[-68.6098,47.3826],[-68.5084,47.3957],[-68.4611,47.394],[-68.4419,47.42],[-68.3841,47.452],[-68.2789,47.4601],[-68.2053,47.4509],[-68.0995,47.4086],[-68.0689,47.375],[-67.9079,47.2858],[-67.8722,47.255],[-67.8645,47.2359],[-67.8423,47.221],[-67.8123,47.186],[-67.7438,47.1558],[-67.7156,47.1338],[-67.6969,47.1032],[-67.6902,47.068],[-67.6816,45.9904],[-67.658,45.9552],[-67.6507,45.921],[-67.6557,45.8863],[-67.6668,45.8657],[-67.6563,45.8376],[-67.6593,45.7955],[-67.686,45.7533],[-67.6859,45.7026],[-67.7208,45.6272],[-67.7504,45.5967],[-67.7901,45.5813],[-67.9175,45.5601],[-67.8619,45.381],[-67.8593,45.3442],[-67.8446,45.2986],[-67.8406,45.2552],[-67.8554,45.2142],[-67.8862,45.1834],[-67.9271,45.1687],[-68.1769,45.1369],[-68.1718,45.0843],[-68.1872,45.0448],[-68.2175,45.0153],[-68.2781,44.9982],[-68.2775,44.9795],[-68.2933,44.941],[-68.3235,44.9122],[-68.3762,44.8964],[-68.3484,44.7879],[-68.3467,44.7459],[-68.3625,44.7069],[-68.3928,44.6778],[-68.4325,44.6638],[-68.5644,44.6469],[-68.6027,44.6141],[-68.6436,44.6037],[-68.6618,44.607],[-68.6793,44.5843],[-68.7161,44.5646],[-68.7856,44.5654],[-68.8585,44.594],[-69.1673,44.5454],[-69.2044,44.5462],[-69.2385,44.5604],[-69.2652,44.5861],[-69.2819,44.6243],[-69.3242,44.6401],[-69.3498,44.6662],[-69.3643,44.6998],[-69.3842,44.8051],[-69.4284,44.9626],[-69.4617,44.9408],[-69.5024,44.9259],[-69.6077,44.9118],[-69.6434,44.9135],[-69.6762,44.9276],[-69.702,44.9523],[-69.7319,45.0372],[-69.7506,45.0714],[-69.8029,45.2562],[-69.8063,45.2953],[-69.8752,45.5125],[-69.8797,45.5494],[-69.8704,45.5853],[-69.8499,45.6167],[-69.9159,45.6826],[-69.9316,45.7211],[-69.9302,45.7627],[-69.912,45.8001],[-69.8966,45.813],[-69.8919,45.8299],[-69.8701,45.8594]]]}},{"type":"Feature","properties":{"key":"upper-valley","bufferDeg":0.1},"geometry":{"type":"Polygon","coordinates":[[[-73.0802,43.8644],[-73.0732,43.9196],[-73.0535,43.9509],[-73.0239,43.9729],[-72.9882,43.9826],[-72.9583,43.9794],[-72.8927,43.9997],[-72.8232,44.0883],[-72.7934,44.1156],[-72.7553,44.1288],[-72.729,44.1269],[-72.6728,44.2109],[-72.6442,44.242],[-72.6052,44.2585],[-72.5768,44.2614],[-72.5124,44.2533],[-72.4979,44.2825],[-72.4669,44.3087],[-72.4281,44.3204],[-72.3878,44.3157],[-72.2927,44.2843],[-72.1664,44.2909],[-72.1434,44.3396],[-72.1059,44.3887],[-72.076,44.4107],[-71.9785,44.4373],[-71.9575,44.4367],[-71.9199,44.4479],[-71.8901,44.4449],[-71.8645,44.4711],[-71.8271,44.4937],[-71.7699,44.5063],[-71.7276,44.4988],[-71.6924,44.4744],[-71.6515,44.4303],[-71.5567,44.4],[-71.526,44.384],[-71.5052,44.3613],[-71.4319,44.3525],[-71.4055,44.3417],[-71.363,44.3087],[-71.3356,44.2717],[-71.3182,44.2256],[-71.2912,44.1833],[-71.28,44.1432],[-71.2569,44.1128],[-71.247,44.0767],[-71.2511,44.0395],[-71.2763,43.9967],[-71.264,43.9358],[-71.2643,43.8946],[-71.2811,43.8571],[-71.3117,43.8295],[-71.3508,43.8166],[-71.4383,43.8067],[-71.4228,43.7144],[-71.4243,43.6739],[-71.4418,43.6373],[-71.4723,43.6107],[-71.511,43.5983],[-71.5553,43.5937],[-71.5848,43.5432],[-71.6172,43.5163],[-71.6464,43.5057],[-71.6615,43.4884],[-71.7005,43.4672],[-71.733,43.4655],[-71.7473,43.4572],[-71.8157,43.4442],[-71.8645,43.4576],[-71.9343,43.3732],[-71.9544,43.3583],[-71.9701,43.3185],[-71.9564,43.3006],[-71.9462,43.2671],[-71.9143,43.2198],[-71.9096,43.1778],[-71.9476,43.0864],[-71.9701,43.0555],[-72.0026,43.0353],[-72.0403,43.0288],[-72.1807,43.0319],[-72.2187,43.0403],[-72.2557,43.0706],[-72.2863,43.0672],[-72.3424,43.0366],[-72.3779,43.0323],[-72.4375,43.0358],[-72.4735,43.0448],[-72.5037,43.0664],[-72.5434,43.1201],[-72.5473,43.1356],[-72.6757,43.1231],[-72.7096,43.1255],[-72.8438,43.159],[-72.8828,43.1785],[-72.9066,43.2088],[-72.9428,43.2334],[-72.9633,43.2682],[-72.9684,43.3081],[-72.9647,43.3563],[-72.9419,43.4208],[-72.9193,43.4506],[-72.8866,43.4701],[-72.8886,43.5106],[-72.8623,43.6281],[-72.8797,43.6365],[-72.9051,43.6643],[-72.9185,43.6995],[-72.9179,43.735],[-72.9643,43.7262],[-73.0032,43.736],[-73.0351,43.7604],[-73.073,43.8265],[-73.0802,43.8644]]]}},{"type":"Feature","properties":{"key":"new-england","bufferDeg":0.2},"geometry":{"type":"Polygon","coordinates":[[[-71.2961,41.0704],[-71.3105,41.0398],[-71.3823,40.9561],[-71.4405,40.9234],[-71.5157,40.9027],[-71.5734,40.8968],[-71.6709,40.9076],[-71.7395,40.9359],[-71.7776,40.9607],[-71.7993,40.9855],[-71.87,41.0004],[-71.9348,41.0451],[-71.9771,41.0889],[-72.0443,41.0658],[-72.957,40.8916],[-73.3546,40.8],[-73.7447,40.8],[-73.7783,40.8257],[-73.8255,40.8771],[-73.8482,40.9321],[-73.8824,40.9739],[-73.9176,41.0376],[-73.9276,41.1096],[-73.9112,41.1805],[-73.8705,41.2408],[-73.8109,41.2826],[-73.7501,41.3104],[-73.6919,42.0031],[-73.7081,42.0917],[-73.6958,42.1554],[-73.4809,42.7379],[-73.4888,42.831],[-73.4768,42.8748],[-73.4543,43.3806],[-73.5302,43.4145],[-73.591,43.468],[-73.6256,43.5412],[-73.6283,43.6221],[-73.6213,43.6883],[-73.5828,43.7745],[-73.5924,43.8139],[-73.5877,43.8422],[-73.6067,43.9402],[-73.636,44.0172],[-73.6322,44.0927],[-73.5953,44.2213],[-73.5497,44.3122],[-73.5265,44.3333],[-73.5321,44.3981],[-73.5192,44.4386],[-73.5599,44.4983],[-73.5856,44.5756],[-73.5867,44.656],[-73.5657,44.7252],[-73.5621,44.7652],[-73.5781,44.8123],[-73.5765,44.8942],[-73.5499,44.9613],[-73.5537,45.0063],[-73.5228,45.0987],[-73.4791,45.1574],[-73.4173,45.1965],[-73.3456,45.2107],[-72.8451,45.2167],[-72.3114,45.2038],[-71.6391,45.2116],[-71.639,45.2771],[-71.6071,45.3524],[-71.5476,45.4086],[-71.4675,45.4361],[-71.455,45.4465],[-71.4165,45.4583],[-71.3503,45.4911],[-71.2784,45.5023],[-71.2073,45.487],[-71.19,45.4761],[-71.0612,45.5412],[-70.9812,45.5455],[-70.9669,45.5403],[-70.9403,45.5672],[-70.9041,45.5885],[-70.8992,45.6074],[-70.8759,45.6339],[-70.837,45.7025],[-70.7425,45.7814],[-70.709,45.7937],[-70.6759,45.8284],[-70.6047,45.8589],[-70.5754,45.9174],[-70.5144,45.9702],[-70.5169,45.9981],[-70.5065,46.1061],[-70.4862,46.1572],[-70.4922,46.2051],[-70.4724,46.2792],[-70.4375,46.3254],[-70.4195,46.3697],[-70.3431,46.4803],[-70.2792,46.5298],[-70.232,46.5519],[-70.1928,46.737],[-70.1378,46.8377],[-69.3651,47.602],[-69.3006,47.6448],[-69.2247,47.6598],[-69.1935,47.6537],[-69.1455,47.6546],[-69.076,47.6332],[-68.9853,47.6185],[-68.9237,47.5871],[-68.8657,47.5218],[-68.8474,47.4877],[-68.831,47.4144],[-68.6984,47.4432],[-68.6395,47.4781],[-68.5034,47.4965],[-68.4843,47.5138],[-68.3933,47.5524],[-68.3578,47.5578],[-68.273,47.5599],[-68.1786,47.5473],[-68.0371,47.4869],[-68.0106,47.4583],[-67.981,47.4378],[-67.9486,47.4254],[-67.8184,47.3436],[-67.7858,47.2997],[-67.7515,47.2705],[-67.6974,47.2444],[-67.6409,47.2003],[-67.6036,47.1392],[-67.5902,47.0688],[-67.5818,46.0191],[-67.5653,45.9928],[-67.5507,45.9243],[-67.5602,45.8581],[-67.5594,45.8064],[-67.5319,45.7945],[-67.473,45.8037],[-67.3989,45.7958],[-67.3328,45.7614],[-67.2617,45.6905],[-67.2257,45.6031],[-67.2193,45.466],[-67.2311,45.4359],[-67.2226,45.4134],[-67.2225,45.3824],[-67.1783,45.3665],[-67.1191,45.3581],[-67.0614,45.3367],[-67.0129,45.2987],[-66.9666,45.2493],[-66.8651,45.0815],[-66.8001,45.0179],[-66.7806,44.9647],[-66.7145,44.898],[-66.6866,44.8156],[-66.6963,44.7291],[-66.7419,44.655],[-66.759,44.6373],[-66.9094,44.543],[-67.0025,44.461],[-67.122,44.3908],[-67.1843,44.3653],[-67.2252,44.3566],[-67.2579,44.3391],[-67.3139,44.3265],[-67.3757,44.2704],[-67.4862,44.2145],[-67.5826,44.1885],[-67.6809,44.1887],[-67.7119,44.1612],[-67.7681,44.1349],[-67.8027,44.1249],[-67.8809,44.1177],[-67.9833,44.0792],[-67.9993,44.0311],[-68.0399,43.9784],[-68.0674,43.9529],[-68.1393,43.9101],[-68.1796,43.8988],[-68.2201,43.8755],[-68.2831,43.8554],[-68.3815,43.8467],[-68.4572,43.7901],[-68.5047,43.7708],[-68.5294,43.7268],[-68.5447,43.7118],[-68.6213,43.6622],[-68.6536,43.6157],[-68.7409,43.5551],[-68.8171,43.536],[-68.8608,43.5338],[-68.9283,43.5421],[-68.9832,43.5586],[-69.0814,43.6104],[-69.0985,43.6068],[-69.1647,43.5507],[-69.2451,43.5155],[-69.331,43.5045],[-69.3927,43.5129],[-69.4462,43.5364],[-69.529,43.5083],[-69.6023,43.5015],[-69.6415,43.4781],[-69.6964,43.4602],[-69.8152,43.4473],[-70.0497,43.3518],[-70.1905,43.2312],[-70.2169,43.191],[-70.2061,43.1493],[-70.2113,43.0573],[-70.262,42.9635],[-70.3468,42.901],[-70.3787,42.8344],[-70.342,42.7828],[-70.3182,42.7218],[-70.3064,42.6658],[-70.3053,42.5892],[-70.333,42.5178],[-70.3527,42.4867],[-70.4047,42.428],[-70.4374,42.4053],[-70.4631,42.3284],[-70.3042,42.3168],[-70.2409,42.3308],[-70.1843,42.3342],[-70.1368,42.3313],[-70.0438,42.3097],[-69.9634,42.2763],[-69.8788,42.2216],[-69.8388,42.1829],[-69.7602,42.0825],[-69.7114,41.9853],[-69.6761,41.8781],[-69.66,41.7548],[-69.6606,41.6859],[-69.6725,41.615],[-69.6967,41.5539],[-69.7577,41.4456],[-69.728,41.4006],[-69.6949,41.2931],[-69.6945,41.2619],[-69.7198,41.1618],[-69.7412,41.1235],[-69.8177,41.0467],[-69.9055,41.0055],[-70.0022,40.9883],[-70.1513,40.9942],[-70.2456,41.016],[-70.3932,41.0735],[-70.4379,41.0665],[-70.5404,41.0822],[-70.5778,41.0996],[-70.5957,41.0987],[-70.6484,41.0461],[-70.7201,41.0116],[-70.8208,41.0007],[-70.8889,41.0116],[-70.9316,41.0264],[-71.0068,41.073],[-71.0254,41.0914],[-71.0748,41.1698],[-71.1297,41.2026],[-71.2797,41.1603],[-71.2961,41.0704]],[[-73.1949,42.7441],[-73.2648,42.7458],[-73.2649,42.7458],[-73.1949,42.7441]],[[-71.2524,42.7374],[-71.2552,42.7366],[-71.2595,42.7322],[-71.2524,42.7374]],[[-70.8856,42.8828],[-70.9035,42.8868],[-70.9115,42.8862],[-70.8856,42.8828]],[[-73.4873,42.0495],[-73.4873,42.0494],[-72.8138,42.0367],[-73.4873,42.0495]],[[-71.8424,41.4075],[-71.8403,41.4111],[-71.8424,41.4103],[-71.8424,41.4075]],[[-71.8195,41.4193],[-71.7977,41.4167],[-71.8181,41.4198],[-71.8195,41.4193]],[[-71.7882,41.621],[-71.7884,41.6286],[-71.7977,41.4167],[-71.7882,41.621]],[[-71.4651,45.0136],[-71.4956,45.0133],[-71.4669,45.0129],[-71.4651,45.0136]],[[-71.4808,45.0023],[-71.4786,45.0058],[-71.4879,45.001],[-71.4808,45.0023]],[[-71.4888,45.0008],[-71.4886,45.0008],[-71.4994,45.0046],[-71.4888,45.0008]],[[-71.5088,45.0078],[-71.5335,44.9952],[-71.5087,45.0078],[-71.5088,45.0078]],[[-71.541,44.9842],[-71.5331,44.9909],[-71.5356,44.9925],[-71.541,44.9842]],[[-71.5367,44.9839],[-71.5407,44.9839],[-71.5229,44.9662],[-71.5367,44.9839]],[[-71.5233,44.9643],[-71.518,44.9677],[-71.5237,44.9643],[-71.5233,44.9643]],[[-71.5163,44.9644],[-71.5163,44.9644],[-71.5192,44.9496],[-71.5163,44.9644]],[[-71.8123,44.3716],[-71.8144,44.3819],[-71.8146,44.3692],[-71.8123,44.3716]],[[-71.8124,44.3573],[-71.8146,44.3631],[-71.8147,44.3551],[-71.8124,44.3573]],[[-71.8158,44.354],[-71.8156,44.3542],[-71.8604,44.3402],[-71.8158,44.354]],[[-71.9106,44.3484],[-71.8716,44.3367],[-71.8715,44.3367],[-71.9106,44.3484]],[[-72.031,44.3206],[-72.0091,44.3222],[-72.0293,44.3223],[-72.031,44.3206]],[[-72.0329,44.3022],[-72.0328,44.3189],[-72.0336,44.3181],[-72.0329,44.3022]],[[-72.0676,44.2722],[-72.0586,44.2865],[-72.0679,44.2734],[-72.0676,44.2722]],[[-72.0583,44.2701],[-72.0674,44.2707],[-72.0669,44.2681],[-72.0583,44.2701]],[[-72.0456,44.1618],[-72.0662,44.1901],[-72.0518,44.1665],[-72.0456,44.1618]],[[-72.0333,44.1314],[-72.0334,44.1315],[-72.0373,44.1249],[-72.0333,44.1314]],[[-72.0318,44.0785],[-72.0324,44.0789],[-72.0529,44.0763],[-72.0318,44.0785]],[[-72.1168,43.9943],[-72.1041,44.0024],[-72.1169,43.9945],[-72.1168,43.9943]],[[-72.2996,43.7062],[-72.2711,43.7339],[-72.2996,43.7063],[-72.2996,43.7062]],[[-72.3807,43.5403],[-72.3798,43.5737],[-72.3802,43.5734],[-72.3807,43.5403]],[[-72.3943,43.5274],[-72.3952,43.5244],[-72.3807,43.5403],[-72.3943,43.5274]],[[-72.398,43.5117],[-72.3967,43.5195],[-72.3989,43.5127],[-72.398,43.5117]],[[-72.3851,43.5007],[-72.3932,43.5067],[-72.3828,43.4958],[-72.3851,43.5007]],[[-72.38,43.49],[-72.3811,43.4924],[-72.3814,43.4822],[-72.38,43.49]],[[-72.3825,43.4759],[-72.3819,43.4795],[-72.3926,43.4669],[-72.3825,43.4759]],[[-72.4159,43.3766],[-72.4035,43.3916],[-72.416,43.3772],[-72.4159,43.3766]],[[-72.4385,43.2521],[-72.416,43.2702],[-72.4386,43.2524],[-72.4385,43.2521]],[[-72.4328,43.1202],[-72.4423,43.1293],[-72.4329,43.1193],[-72.4328,43.1202]],[[-72.4431,43.1028],[-72.4335,43.1106],[-72.4432,43.103],[-72.4431,43.1028]],[[-72.434,43.0844],[-72.4428,43.102],[-72.4357,43.0828],[-72.434,43.0844]],[[-72.5474,42.8396],[-72.557,42.8531],[-72.5571,42.8529],[-72.5474,42.8396]],[[-70.9725,43.3488],[-70.9726,43.3484],[-70.9674,43.3492],[-70.9725,43.3488]],[[-70.9066,43.292],[-70.8973,43.2923],[-70.8973,43.2927],[-70.9066,43.292]],[[-70.8968,43.2867],[-70.897,43.2855],[-70.8967,43.2855],[-70.8968,43.2867]],[[-70.8875,43.284],[-70.8836,43.2834],[-70.8836,43.2834],[-70.8875,43.284]],[[-70.8831,43.2731],[-70.8831,43.273],[-70.8629,43.2648],[-70.8831,43.2731]],[[-70.8388,43.2445],[-70.8379,43.2424],[-70.8334,43.2428],[-70.8388,43.2445]],[[-70.8101,43.2255],[-70.8169,43.2145],[-70.8095,43.2252],[-70.8101,43.2255]]]}}]}
