{
  "type": "FeatureCollection",
  "metadata": {
    "note": "Representative service-area markers for public flex, demand-response, microtransit, small local systems, and on-demand water taxis without fixed route geometry. Markers are not live vehicle positions."
  },
  "features": [
    {"type":"Feature","geometry":{"type":"Point","coordinates":[-68.015,46.681]},"properties":{"group":"local","dataStatus":"reference","color":"#9fc36a","title":"Aroostook Regional Transportation System","status":"Rural and demand-response public transportation","details":"Serves Aroostook County plus Danforth and Patten. Service must often be arranged in advance.","provider":"MaineDOT public-transit directory","sourceUrl":"https://www.maine.gov/dot/programs-services/transit/public-transit"}},
    {"type":"Feature","geometry":{"type":"Point","coordinates":[-68.419,44.543]},"properties":{"group":"local","dataStatus":"reference","color":"#9fc36a","title":"Downeast Transportation","status":"Local, seasonal, and demand-response service","details":"Serves Hancock and Washington counties and connects smaller Downeast communities.","provider":"MaineDOT public-transit directory","sourceUrl":"https://www.maine.gov/dot/programs-services/transit/public-transit"}},
    {"type":"Feature","geometry":{"type":"Point","coordinates":[-68.771,44.802]},"properties":{"group":"local","dataStatus":"reference","color":"#9fc36a","title":"Penquis Transportation","status":"Rural public transportation","details":"Serves Penobscot and Piscataquis counties beyond Bangor's fixed-route network.","provider":"MaineDOT public-transit directory","sourceUrl":"https://www.maine.gov/dot/programs-services/transit/public-transit"}},
    {"type":"Feature","geometry":{"type":"Point","coordinates":[-69.78,44.311]},"properties":{"group":"local","dataStatus":"reference","color":"#9fc36a","title":"KVCAP Transportation","status":"Kennebec and Somerset county service","details":"Public and coordinated transportation in rural central Maine; many trips require advance booking.","provider":"MaineDOT public-transit directory","sourceUrl":"https://www.maine.gov/dot/programs-services/transit/public-transit"}},
    {"type":"Feature","geometry":{"type":"Point","coordinates":[-69.006,44.426]},"properties":{"group":"local","dataStatus":"reference","color":"#9fc36a","title":"Mid-Coast Connector","status":"Midcoast public transportation","details":"Connects communities in Waldo, Knox, Lincoln, and Sagadahoc counties and the Brunswick area.","provider":"MaineDOT public-transit directory","sourceUrl":"https://www.maine.gov/dot/programs-services/transit/public-transit"}},
    {"type":"Feature","geometry":{"type":"Point","coordinates":[-70.774,43.439]},"properties":{"group":"local","dataStatus":"reference","color":"#9fc36a","title":"York County Community Action transportation","status":"Rural and community transportation","details":"Serves York County and several southern Oxford County towns.","provider":"MaineDOT public-transit directory","sourceUrl":"https://www.maine.gov/dot/programs-services/transit/public-transit"}},
    {"type":"Feature","geometry":{"type":"Point","coordinates":[-70.255,43.659]},"properties":{"group":"local","dataStatus":"scheduled","color":"#f2b84b","title":"The LAP","status":"Lewiston / Auburn ↔ Portland commuter bus","details":"Seven-day public commuter service with stops in Lewiston, Auburn, and Portland. This marker represents the service, not a live bus.","provider":"MaineDOT","sourceUrl":"https://www.maine.gov/dot/programs-services/transit/the-lap"}},

    {"type":"Feature","geometry":{"type":"Point","coordinates":[-71.537,43.208]},"properties":{"group":"local","dataStatus":"scheduled","color":"#f2b84b","title":"Concord Area Transit","status":"Local fixed-route and demand-response service","details":"Public transportation within Concord. No current reliable open GTFS route geometry was available in the audit.","provider":"New Hampshire Transit Association","sourceUrl":"https://www.nhtransit.org/transit-providers"}},
    {"type":"Feature","geometry":{"type":"Point","coordinates":[-71.185,44.468]},"properties":{"group":"local","dataStatus":"scheduled","color":"#f2b84b","title":"Tri-County Transit · Berlin–Gorham","status":"Public flex-route bus","details":"A scheduled loop that can deviate up to one quarter mile with advance notice.","provider":"Tri-County Transit","sourceUrl":"https://www.tricountytransit.org/schedules.html"}},
    {"type":"Feature","geometry":{"type":"Point","coordinates":[-71.77,44.306]},"properties":{"group":"local","dataStatus":"scheduled","color":"#f2b84b","title":"Tri-County Transit · Tri-Town","status":"Lancaster–Whitefield–Littleton flex route","details":"Public flex route serving three North Country towns; deviations require advance notice.","provider":"Tri-County Transit","sourceUrl":"https://www.tricountytransit.org/schedules.html"}},
    {"type":"Feature","geometry":{"type":"Point","coordinates":[-72.337,43.377]},"properties":{"group":"local","dataStatus":"scheduled","color":"#f2b84b","title":"Sullivan County Transportation","status":"Charlestown, Claremont, Newport, and Lebanon service","details":"Open-to-everyone shared rides, scheduled buses, route deviations, Claremont Dial-A-Ride, and a countywide volunteer-driver program.","provider":"Southwestern Community Services","sourceUrl":"https://www.scshelps.org/transportation/"}},
    {"type":"Feature","geometry":{"type":"Point","coordinates":[-71.47,43.527]},"properties":{"group":"local","dataStatus":"reference","color":"#9fc36a","title":"Belknap–Merrimack community transportation","status":"Accessible community rides beyond fixed routes","details":"Community Action Program transportation centered on Belknap and Merrimack counties; eligibility and advance-booking rules vary by program.","provider":"New Hampshire Transit Association","sourceUrl":"https://www.nhtransit.org/transit-providers"}},
    {"type":"Feature","geometry":{"type":"Point","coordinates":[-71.648,42.835]},"properties":{"group":"local","dataStatus":"reference","color":"#9fc36a","title":"Souhegan Valley transportation","status":"Community rides in the Milford / Souhegan Valley area","details":"A locally coordinated ride option for communities not covered well by fixed-route buses; reservations and eligibility vary.","provider":"New Hampshire Transit Association","sourceUrl":"https://www.nhtransit.org/transit-providers"}},
    {"type":"Feature","geometry":{"type":"Point","coordinates":[-71.688,43.758]},"properties":{"group":"local","dataStatus":"reference","color":"#9fc36a","title":"Transport Central","status":"Community transportation in central New Hampshire","details":"Plymouth-area accessible transportation listed in New Hampshire's statewide community-provider directory.","provider":"New Hampshire Transit Association","sourceUrl":"https://www.nhtransit.org/transit-providers"}},

    {"type":"Feature","geometry":{"type":"Point","coordinates":[-71.538,42.447]},"properties":{"group":"local","dataStatus":"scheduled","color":"#f2b84b","title":"Lexpress","status":"Town of Lexington local bus","details":"Small municipal fixed-route service. Scheduled route geometry is also included from its official GTFS feed.","provider":"Town of Lexington","sourceUrl":"https://www.lexingtonma.gov/380/Lexpress"}},
    {"type":"Feature","geometry":{"type":"Point","coordinates":[-71.237,42.49]},"properties":{"group":"local","dataStatus":"scheduled","color":"#f2b84b","title":"Middlesex 3 TMA shuttles","status":"Employer and first/last-mile shuttles","details":"Scheduled mobility serving Bedford and the Middlesex 3 corridor; route geometry is included where published in GTFS.","provider":"Middlesex 3 TMA","sourceUrl":"https://middlesex3tma.com/"}},
    {"type":"Feature","geometry":{"type":"Point","coordinates":[-70.937,41.636]},"properties":{"group":"local","dataStatus":"reference","color":"#9fc36a","title":"GATRA GO / microtransit","status":"On-demand public microtransit","details":"GATRA operates app/phone-booked zones across several southeastern Massachusetts communities; routes vary by request.","provider":"Massachusetts public-transit directory","sourceUrl":"https://www.mass.gov/info-details/public-transportation-in-massachusetts"}},
    {"type":"Feature","geometry":{"type":"Point","coordinates":[-70.296,41.7]},"properties":{"group":"local","dataStatus":"reference","color":"#9fc36a","title":"SmartDART","status":"Cape Cod on-demand public transit","details":"App/phone-booked microtransit; no fixed path should be drawn because each trip is requested dynamically.","provider":"Massachusetts public-transit directory","sourceUrl":"https://www.mass.gov/info-details/public-transportation-in-massachusetts"}},
    {"type":"Feature","geometry":{"type":"Point","coordinates":[-71.803,42.263]},"properties":{"group":"local","dataStatus":"reference","color":"#9fc36a","title":"Via WRTA","status":"Worcester-area on-demand public transit","details":"Microtransit complements WRTA fixed routes; vehicle paths depend on rider requests.","provider":"Massachusetts public-transit directory","sourceUrl":"https://www.mass.gov/info-details/public-transportation-in-massachusetts"}},
    {"type":"Feature","geometry":{"type":"Point","coordinates":[-70.662,42.615]},"properties":{"group":"local","dataStatus":"reference","color":"#9fc36a","title":"CATA On Demand","status":"Public microtransit in Gloucester and Rockport","details":"Weekday app-booked minibus trips complement Cape Ann's published fixed-route network.","provider":"Cape Ann Transportation Authority","sourceUrl":"https://canntran.com/cataondemand/"}},
    {"type":"Feature","geometry":{"type":"Point","coordinates":[-71.293,42.296]},"properties":{"group":"local","dataStatus":"reference","color":"#9fc36a","title":"CATCH Connect","status":"Wellesley-area curb-to-curb microtransit","details":"Fare-free on-demand rides within Wellesley with links to Newton-Wellesley Hospital, Natick, and MBTA connections.","provider":"MetroWest Regional Transit Authority","sourceUrl":"https://mwrta.com/catch"}},
    {"type":"Feature","geometry":{"type":"Point","coordinates":[-72.6,42.588]},"properties":{"group":"local","dataStatus":"reference","color":"#9fc36a","title":"FRTA Access","status":"On-demand public rides across rural western Massachusetts","details":"Self-scheduled public transportation covers service zones in Franklin County and portions of Hampshire and Hampden counties.","provider":"Franklin Regional Transit Authority","sourceUrl":"https://www.frta.org/getting-around/frta-access-program/"}},
    {"type":"Feature","geometry":{"type":"Point","coordinates":[-71.433,42.485]},"properties":{"group":"local","dataStatus":"scheduled","color":"#f2b84b","title":"CrossTown Connect · Acton","status":"Municipal fixed-route and dial-a-ride services","details":"Cross-Acton Transit links housing, business centers, Town Hall, and South Acton station; MinuteVan and other booked rides fill local gaps.","provider":"Town of Acton","sourceUrl":"https://www.acton-ma.gov/626/Transportation-Services"}},

    {"type":"Feature","geometry":{"type":"Point","coordinates":[-71.88,41.915]},"properties":{"group":"local","dataStatus":"scheduled","color":"#f2b84b","title":"Northeastern Connecticut Transit District","status":"Deviated fixed routes and dial-a-ride","details":"Serves Brooklyn, Canterbury, Eastford, Hampton, Killingly, Plainfield, Pomfret, Putnam, Thompson, Union, and Woodstock.","provider":"Connecticut DOT transit directory","sourceUrl":"https://portal.ct.gov/dot/travel-gateway/public-transportation/ct-buses"}},
    {"type":"Feature","geometry":{"type":"Point","coordinates":[-73.122,41.801]},"properties":{"group":"local","dataStatus":"scheduled","color":"#f2b84b","title":"Northwestern Connecticut Transit District","status":"Local bus and dial-a-ride","details":"Serves Torrington, Winsted, and rural northwest Connecticut communities.","provider":"Connecticut DOT transit directory","sourceUrl":"https://portal.ct.gov/dot/travel-gateway/public-transportation/ct-buses"}},
    {"type":"Feature","geometry":{"type":"Point","coordinates":[-73.083,41.321]},"properties":{"group":"local","dataStatus":"reference","color":"#9fc36a","title":"VTD2GO","status":"Evening microtransit in Ansonia, Derby, and Shelton","details":"App/phone-booked public rides connect to Metro-North, CTtransit, and Greater Bridgeport Transit.","provider":"Connecticut DOT microtransit program","sourceUrl":"https://portal.ct.gov/dot/travel-gateway/public-transportation/microtransit-pilot-program"}},
    {"type":"Feature","geometry":{"type":"Point","coordinates":[-72.59,41.956]},"properties":{"group":"local","dataStatus":"reference","color":"#9fc36a","title":"GHTD Link","status":"On-demand transit in Enfield and East Windsor","details":"Point-to-point booked rides connect the two-town zone with CTtransit route 905.","provider":"Connecticut DOT microtransit program","sourceUrl":"https://portal.ct.gov/dot/travel-gateway/public-transportation/microtransit-pilot-program"}},
    {"type":"Feature","geometry":{"type":"Point","coordinates":[-71.93,41.35]},"properties":{"group":"local","dataStatus":"reference","color":"#9fc36a","title":"HOP and New London Smart Ride","status":"Microtransit in Groton, Mystic/Noank, Stonington, Waterford, and New London","details":"Same-day public rides cover several separate southeastern Connecticut zones and connect with buses, rail, Amtrak, and Cross Sound Ferry.","provider":"Connecticut DOT microtransit program","sourceUrl":"https://portal.ct.gov/dot/travel-gateway/public-transportation/microtransit-pilot-program"}},
    {"type":"Feature","geometry":{"type":"Point","coordinates":[-73.057,41.23]},"properties":{"group":"local","dataStatus":"reference","color":"#9fc36a","title":"Milford Micro","status":"Evening and weekend on-demand public rides","details":"Serves downtown Milford, the mall, beaches, medical and shopping destinations, and the Metro-North station.","provider":"Connecticut DOT microtransit program","sourceUrl":"https://portal.ct.gov/dot/travel-gateway/public-transportation/microtransit-pilot-program"}},
    {"type":"Feature","geometry":{"type":"Point","coordinates":[-72.927,41.308]},"properties":{"group":"local","dataStatus":"reference","color":"#9fc36a","title":"Via NHV","status":"Neighborhood microtransit across New Haven","details":"On-demand public rides fill neighborhood gaps and connect Union and State Street rail stations.","provider":"Connecticut DOT microtransit program","sourceUrl":"https://portal.ct.gov/dot/travel-gateway/public-transportation/microtransit-pilot-program"}},
    {"type":"Feature","geometry":{"type":"Point","coordinates":[-72.651,41.55]},"properties":{"group":"local","dataStatus":"reference","color":"#9fc36a","title":"XtraMile","status":"Microtransit in Middletown, East Hampton, Madison, and Guilford","details":"Separate on-demand zones connect rural and shoreline communities to River Valley Transit, CTtransit, Shore Line East, Amtrak, and the Air Line Trail.","provider":"Connecticut DOT microtransit program","sourceUrl":"https://portal.ct.gov/dot/travel-gateway/public-transportation/microtransit-pilot-program"}},
    {"type":"Feature","geometry":{"type":"Point","coordinates":[-73.201,41.242]},"properties":{"group":"local","dataStatus":"reference","color":"#9fc36a","title":"GBT Connect","status":"Town-wide on-demand transit in Trumbull","details":"Public rides connect neighborhoods, jobs, shopping, and civic destinations to Greater Bridgeport Transit routes.","provider":"Connecticut DOT microtransit program","sourceUrl":"https://portal.ct.gov/dot/travel-gateway/public-transportation/microtransit-pilot-program"}},
    {"type":"Feature","geometry":{"type":"Point","coordinates":[-73.421,41.118]},"properties":{"group":"local","dataStatus":"reference","color":"#9fc36a","title":"Wheels2U","status":"Norwalk neighborhood microtransit","details":"An on-demand public connection for trips that do not fit the fixed-route network.","provider":"Connecticut DOT microtransit program","sourceUrl":"https://portal.ct.gov/dot/travel-gateway/public-transportation/microtransit-pilot-program"}},
    {"type":"Feature","geometry":{"type":"Point","coordinates":[-73.538,41.053]},"properties":{"group":"local","dataStatus":"reference","color":"#9fc36a","title":"StamFORWARD","status":"Stamford on-demand public transit","details":"Microtransit serves a designated city zone and complements local bus and Metro-North connections.","provider":"Connecticut DOT microtransit program","sourceUrl":"https://portal.ct.gov/dot/travel-gateway/public-transportation/microtransit-pilot-program"}},

    {"type":"Feature","geometry":{"type":"Point","coordinates":[-71.463,41.435]},"properties":{"group":"local","dataStatus":"scheduled","color":"#f2b84b","title":"RIPTA South County Flex","status":"Flexible transit in URI, Narragansett, South Kingstown, and Westerly","details":"Scheduled stops plus reserved pickup/drop-off within designated zones connect smaller communities to RIPTA's statewide network.","provider":"Rhode Island Public Transit Authority","sourceUrl":"https://www.ripta.com/flex"}},
    {"type":"Feature","geometry":{"type":"Point","coordinates":[-71.67,41.95]},"properties":{"group":"local","dataStatus":"scheduled","color":"#f2b84b","title":"RIPTA northern Flex zones","status":"Flexible transit around Woonsocket, Manville, Pascoag, and Slatersville","details":"Flex vehicles serve lower-density communities by scheduled stop or advance reservation within each zone.","provider":"Rhode Island Public Transit Authority","sourceUrl":"https://www.ripta.com/flex"}},
    {"type":"Feature","geometry":{"type":"Point","coordinates":[-71.557,41.7]},"properties":{"group":"local","dataStatus":"scheduled","color":"#f2b84b","title":"RIPTA West Bay / Aquidneck Flex","status":"Flexible transit in West Warwick, Coventry, and South Aquidneck","details":"Community-scale flexible service links riders with the larger RIPTA bus network.","provider":"Rhode Island Public Transit Authority","sourceUrl":"https://www.ripta.com/flex"}},
    {"type":"Feature","geometry":{"type":"Point","coordinates":[-71.413,41.824]},"properties":{"group":"local","dataStatus":"reference","color":"#9fc36a","title":"Rhode Island community transportation directory","status":"Town shuttles, volunteer drivers, and local resources","details":"RIPTA maintains town-by-town pages for local and specialized transportation beyond the statewide fixed-route network.","provider":"RIPTA","sourceUrl":"https://www.ripta.com/community"}},

    {"type":"Feature","geometry":{"type":"Point","coordinates":[-73.213,44.475]},"properties":{"group":"local","dataStatus":"reference","color":"#9fc36a","title":"SSTA demand-response mobility","status":"Booked public and specialized rides in Chittenden County","details":"Complements Green Mountain Transit's Burlington-area fixed routes; individual trips do not follow a fixed public path.","provider":"Vermont Public Transportation Association","sourceUrl":"https://vpta.net/my-area-provider"}},
    {"type":"Feature","geometry":{"type":"Point","coordinates":[-72.015,44.419]},"properties":{"group":"local","dataStatus":"reference","color":"#9fc36a","title":"RCT demand-response mobility","status":"Rural rides across Vermont's Northeast Kingdom","details":"Rural Community Transportation provides regional fixed and booked services in northeastern Vermont communities.","provider":"Vermont Public Transportation Association","sourceUrl":"https://vpta.net/my-area-provider"}},
    {"type":"Feature","geometry":{"type":"Point","coordinates":[-73.167,44.015]},"properties":{"group":"local","dataStatus":"reference","color":"#9fc36a","title":"Tri-Valley Transit demand-response","status":"Booked rides in Addison, Orange, northern Windsor, and Washington regions","details":"Town-level transportation fills gaps beyond Tri-Valley Transit's published fixed routes.","provider":"Vermont Public Transportation Association","sourceUrl":"https://vpta.net/my-area-provider"}},
    {"type":"Feature","geometry":{"type":"Point","coordinates":[-73.197,42.878]},"properties":{"group":"local","dataStatus":"reference","color":"#9fc36a","title":"GMCN demand-response mobility","status":"Southwestern Vermont community transportation","details":"Green Mountain Community Network provides booked and fixed services centered on Bennington County communities.","provider":"Vermont Public Transportation Association","sourceUrl":"https://vpta.net/my-area-provider"}},
    {"type":"Feature","geometry":{"type":"Point","coordinates":[-72.973,43.61]},"properties":{"group":"local","dataStatus":"reference","color":"#9fc36a","title":"Marble Valley demand-response","status":"Rutland-region booked public transportation","details":"Complements The Bus fixed routes across Rutland and nearby rural towns.","provider":"Vermont Public Transportation Association","sourceUrl":"https://vpta.net/my-area-provider"}},
    {"type":"Feature","geometry":{"type":"Point","coordinates":[-72.557,42.85]},"properties":{"group":"local","dataStatus":"reference","color":"#9fc36a","title":"MOOver demand-response mobility","status":"Booked rides across Windham and southern Windsor counties","details":"Complements published MOOver routes in southeastern Vermont and the Deerfield Valley.","provider":"Vermont Public Transportation Association","sourceUrl":"https://vpta.net/my-area-provider"}},

    {"type":"Feature","geometry":{"type":"Point","coordinates":[-71.0499,42.3564]},"properties":{"group":"local","dataStatus":"reference","color":"#2eb7c5","title":"Boston Water Taxi","status":"On-demand passenger water taxi across Boston Harbor","details":"Call/app-based service among waterfront docks, including Logan, Downtown, Seaport, Charlestown, and East Boston. No single fixed route is implied by this marker.","provider":"Boston Water Taxi","sourceUrl":"https://www.bostonwatertaxi.com/interactive-stop-map"}},
    {"type":"Feature","geometry":{"type":"Point","coordinates":[-71.0438,42.3533]},"properties":{"group":"local","dataStatus":"reference","color":"#2eb7c5","title":"Red Top Boats water taxi","status":"On-demand Boston Harbor water taxi and private launch service","details":"Serves Logan, Seaport, Downtown, East Boston, Lovejoy Wharf, and Charlestown docks by request; trips do not follow one fixed public line.","provider":"Red Top Boats","sourceUrl":"https://redtopboats.com/water-taxi-map.html"}},
    {"type":"Feature","geometry":{"type":"Point","coordinates":[-69.106,44.103]},"properties":{"group":"local","dataStatus":"reference","color":"#2eb7c5","title":"Island Transporter","status":"On-demand coastal freight and supplemental ferry service from Rockland","details":"Carries materials, vehicles, equipment, and contracted island service along the Maine coast; not a fixed passenger timetable.","provider":"Island Transporter / MaineDOT water-taxi directory","sourceUrl":"https://islandtransporter.com/"}},
    {"type":"Feature","geometry":{"type":"Point","coordinates":[-68.91,44.302]},"properties":{"group":"local","dataStatus":"reference","color":"#2eb7c5","title":"Quicksilver Water Taxi","status":"On-demand Penobscot Bay, Islesboro, and Warren Island water taxi","details":"Reservation-based water taxi and charter service; actual trip paths vary with each booking.","provider":"Quicksilver Water Taxi & Charter Boat","sourceUrl":"https://www.quicksilvermaine.com/contact/"}},
    {"type":"Feature","geometry":{"type":"Point","coordinates":[-68.347,44.232]},"properties":{"group":"local","dataStatus":"reference","color":"#2eb7c5","title":"Bass Harbor Island Cruises","status":"Seasonal charter and island-access boat service","details":"Bass Harbor-based private charters and offshore island visits; mapped as an on-demand service rather than a fabricated fixed route.","provider":"Island Cruises / MaineDOT water-taxi directory","sourceUrl":"https://bassharborcruises.com/"}},
    {"type":"Feature","geometry":{"type":"Point","coordinates":[-68.285,44.295]},"properties":{"group":"local","dataStatus":"reference","color":"#2eb7c5","title":"Cadillac Water Taxi","status":"On-demand Cranberry Isles water taxi","details":"Reservation-based local water transport serving the Cranberry Isles area; mapped as a service-area point because trips have no fixed public route.","provider":"Town of Cranberry Isles transportation directory","sourceUrl":"https://www.cranberryisles-me.gov/public-services/transportation/"}},
    {"type":"Feature","geometry":{"type":"Point","coordinates":[-73.19,44.777]},"properties":{"group":"local","dataStatus":"reference","color":"#2eb7c5","title":"Spring Beach Ferry","status":"On-demand Lake Champlain Inland Sea water taxi","details":"Small-group transport among local docks, state parks, private camps, and wet landings, including backup Burton Island transport. Reservation and weather dependent; no fixed public route.","provider":"Spring Beach Ferry","sourceUrl":"https://www.springbeachferry.com/"}},
    {"type":"Feature","geometry":{"type":"Point","coordinates":[-73.2192,44.4774]},"properties":{"group":"local","dataStatus":"scheduled","color":"#2eb7c5","title":"Spirit of Ethan Allen","status":"Scheduled Burlington passenger cruises on Lake Champlain","details":"Seasonal sightseeing, lunch, brunch, and evening cruises depart the Burlington waterfront; these are round-trip excursions, not a cross-lake ferry.","provider":"Spirit of Ethan Allen","sourceUrl":"https://soea.com/daily-cruise-schedule"}},
    {"type":"Feature","geometry":{"type":"Point","coordinates":[-73.219,44.478]},"properties":{"group":"local","dataStatus":"scheduled","color":"#2eb7c5","title":"Buttercup Cruises","status":"Burlington Community Boathouse passenger cruises","details":"Regular Lake Champlain cruises and private charters depart Burlington; mapped as a dock/service point because excursions do not have a fixed transport corridor.","provider":"Buttercup Cruises","sourceUrl":"https://www.buttercupcruisesvt.com/"}}
  ]
}
