{"type":"FeatureCollection","metadata":{"source":"U.S. Census Bureau TIGERweb 2025","greaterBostonDefinition":"Practical 17-municipality MBTA inner core"},"features":[{"type":"Feature","properties":{"key":"nh","name":"New Hampshire","geoid":"33"},"geometry":{"type":"Polygon","coordinates":[[[-70.8389,43.2445],[-70.8428,43.2542],[-70.8575,43.2558],[-70.8629,43.2648],[-70.8833,43.2732],[-70.8836,43.2834],[-70.8967,43.2853],[-70.8973,43.2927],[-70.9066,43.292],[-70.8963,43.2986],[-70.9037,43.3063],[-70.9126,43.3076],[-70.9154,43.3154],[-70.9114,43.3197],[-70.9244,43.3238],[-70.9317,43.3309],[-70.9312,43.3365],[-70.9559,43.334],[-70.968,43.3446],[-70.9674,43.3492],[-70.973,43.3488],[-70.972,43.3546],[-70.9782,43.3587],[-70.9746,43.3636],[-70.9879,43.3899],[-70.9823,43.3983],[-70.9868,43.4138],[-70.961,43.4384],[-70.9666,43.4513],[-70.9611,43.4692],[-70.976,43.4784],[-70.9675,43.4809],[-70.9683,43.4895],[-70.9547,43.5093],[-70.9539,43.5223],[-70.9638,43.5394],[-70.9535,43.5406],[-70.9506,43.5513],[-70.9573,43.5613],[-70.9728,43.5705],[-70.989,43.7901],[-71.0057,44.2027],[-71.0335,44.6976],[-71.0839,45.3055],[-71.1053,45.2949],[-71.111,45.2844],[-71.1064,45.28],[-71.1163,45.2741],[-71.1241,45.2551],[-71.1329,45.2445],[-71.1476,45.2394],[-71.1623,45.2503],[-71.1801,45.2399],[-71.1964,45.2541],[-71.2306,45.2494],[-71.2356,45.2609],[-71.2456,45.2688],[-71.2594,45.272],[-71.2649,45.2938],[-71.2805,45.2946],[-71.2842,45.3024],[-71.3005,45.2966],[-71.3076,45.2875],[-71.3308,45.2803],[-71.3364,45.2727],[-71.3603,45.2703],[-71.3632,45.2667],[-71.3565,45.2539],[-71.3783,45.2435],[-71.3841,45.2335],[-71.4021,45.2426],[-71.4211,45.2322],[-71.4428,45.2383],[-71.4435,45.2348],[-71.4158,45.2184],[-71.4031,45.2153],[-71.3973,45.2035],[-71.4144,45.1848],[-71.4185,45.1705],[-71.4249,45.1658],[-71.4264,45.1527],[-71.4376,45.1419],[-71.4261,45.1295],[-71.4284,45.1237],[-71.4403,45.1137],[-71.4488,45.1126],[-71.4493,45.1045],[-71.4644,45.0934],[-71.4679,45.0837],[-71.4781,45.0843],[-71.4873,45.0787],[-71.4878,45.0714],[-71.498,45.0702],[-71.4957,45.0648],[-71.5013,45.0587],[-71.4972,45.0558],[-71.5064,45.0485],[-71.491,45.0432],[-71.4925,45.0335],[-71.5001,45.0261],[-71.4971,45.0236],[-71.5011,45.0133],[-71.4651,45.0129],[-71.4883,45.0007],[-71.5088,45.0078],[-71.5304,44.9994],[-71.5415,44.9848],[-71.5229,44.9662],[-71.518,44.9677],[-71.5237,44.9643],[-71.5163,44.9645],[-71.5192,44.9496],[-71.5148,44.9437],[-71.5171,44.9391],[-71.5228,44.9399],[-71.4999,44.9112],[-71.4932,44.9114],[-71.4949,44.9043],[-71.5074,44.8995],[-71.5139,44.8943],[-71.5107,44.8904],[-71.5161,44.8845],[-71.5495,44.8621],[-71.5475,44.8554],[-71.5558,44.8486],[-71.5511,44.837],[-71.5618,44.8236],[-71.5732,44.8208],[-71.5769,44.8152],[-71.5684,44.807],[-71.5728,44.7909],[-71.5792,44.7849],[-71.5925,44.7827],[-71.6167,44.7563],[-71.632,44.7521],[-71.6251,44.7434],[-71.6261,44.7285],[-71.6171,44.7287],[-71.6186,44.7222],[-71.5994,44.7053],[-71.6008,44.699],[-71.5939,44.6964],[-71.5979,44.6922],[-71.594,44.6834],[-71.5966,44.6781],[-71.5815,44.6732],[-71.5879,44.6699],[-71.5874,44.6597],[-71.5752,44.6558],[-71.5801,44.6521],[-71.5771,44.6507],[-71.5628,44.6524],[-71.5578,44.642],[-71.5637,44.6372],[-71.5468,44.6298],[-71.557,44.6295],[-71.5463,44.623],[-71.5551,44.6252],[-71.5536,44.6061],[-71.5621,44.6012],[-71.5509,44.601],[-71.5552,44.5933],[-71.546,44.5971],[-71.5469,44.5908],[-71.5385,44.5942],[-71.5401,44.5885],[-71.5349,44.5879],[-71.5458,44.5779],[-71.5524,44.5844],[-71.5548,44.5794],[-71.5477,44.5714],[-71.5577,44.5704],[-71.5597,44.564],[-71.5896,44.5657],[-71.597,44.5595],[-71.5986,44.5548],[-71.5719,44.5379],[-71.5807,44.5246],[-71.5941,44.5216],[-71.577,44.5021],[-71.5881,44.5066],[-71.5859,44.4994],[-71.5939,44.501],[-71.5986,44.4868],[-71.6178,44.4858],[-71.6262,44.4745],[-71.6345,44.4756],[-71.6247,44.4817],[-71.6328,44.4838],[-71.6468,44.4732],[-71.639,44.4644],[-71.6542,44.4588],[-71.6609,44.4399],[-71.678,44.4353],[-71.677,44.4268],[-71.6827,44.4273],[-71.7026,44.4135],[-71.7354,44.41],[-71.7437,44.401],[-71.762,44.407],[-71.7784,44.3998],[-71.7945,44.399],[-71.8035,44.3919],[-71.8006,44.384],[-71.8144,44.3819],[-71.8147,44.3545],[-71.8715,44.3367],[-71.9106,44.3484],[-71.934,44.336],[-71.9814,44.3374],[-71.9881,44.3301],[-72.0091,44.3222],[-72.0293,44.3223],[-72.0336,44.3181],[-72.0329,44.3022],[-72.0586,44.2865],[-72.0679,44.2734],[-72.0669,44.2681],[-72.0583,44.2701],[-72.0615,44.2611],[-72.0477,44.239],[-72.0662,44.1901],[-72.0518,44.1665],[-72.039,44.1568],[-72.042,44.137],[-72.0333,44.1317],[-72.0373,44.1249],[-72.0531,44.1195],[-72.0554,44.1108],[-72.0479,44.0966],[-72.0395,44.1035],[-72.0313,44.1004],[-72.0333,44.0905],[-72.0453,44.0873],[-72.0317,44.079],[-72.0529,44.0763],[-72.0483,44.0697],[-72.0573,44.0583],[-72.0681,44.0574],[-72.0619,44.0496],[-72.0783,44.0434],[-72.0748,44.0324],[-72.0827,44.0218],[-72.0954,44.0218],[-72.0905,44.0099],[-72.1028,44.0146],[-72.1041,44.0024],[-72.1169,43.9945],[-72.112,43.986],[-72.1144,43.9681],[-72.0909,43.9658],[-72.1007,43.963],[-72.099,43.9576],[-72.1057,43.9498],[-72.1183,43.9465],[-72.1205,43.9196],[-72.1505,43.9021],[-72.1597,43.8877],[-72.1721,43.885],[-72.1679,43.8691],[-72.1846,43.8641],[-72.188,43.8552],[-72.1824,43.8341],[-72.1889,43.8212],[-72.1841,43.8064],[-72.2055,43.7846],[-72.2052,43.7709],[-72.2185,43.7655],[-72.2342,43.746],[-72.2711,43.7339],[-72.2996,43.7063],[-72.3051,43.6953],[-72.3031,43.6686],[-72.3136,43.6569],[-72.3147,43.6419],[-72.3291,43.6355],[-72.3274,43.6307],[-72.3348,43.618],[-72.3283,43.6011],[-72.3802,43.5734],[-72.3807,43.5404],[-72.3943,43.5274],[-72.3989,43.5127],[-72.3811,43.494],[-72.3815,43.48],[-72.3926,43.4669],[-72.3904,43.4509],[-72.4035,43.3916],[-72.416,43.3772],[-72.4126,43.3623],[-72.3899,43.3566],[-72.4106,43.3311],[-72.3953,43.3127],[-72.416,43.2702],[-72.4386,43.2524],[-72.4342,43.2319],[-72.441,43.2182],[-72.4382,43.2029],[-72.4505,43.1926],[-72.4439,43.1798],[-72.4528,43.1728],[-72.4521,43.1532],[-72.4574,43.1475],[-72.4521,43.1386],[-72.4408,43.1366],[-72.4423,43.1293],[-72.4325,43.1189],[-72.4335,43.1106],[-72.4432,43.103],[-72.4353,43.0815],[-72.4678,43.0527],[-72.4604,43.0414],[-72.4626,43.0258],[-72.4433,43.0076],[-72.4494,43.0003],[-72.4625,42.9974],[-72.4654,42.9896],[-72.4617,42.9829],[-72.4737,42.9721],[-72.4816,42.974],[-72.4922,42.9677],[-72.5184,42.9631],[-72.5338,42.9526],[-72.5269,42.9414],[-72.5245,42.9151],[-72.5304,42.9111],[-72.5334,42.8953],[-72.5526,42.885],[-72.5571,42.8529],[-72.5474,42.8395],[-72.5415,42.8071],[-72.5087,42.7795],[-72.5155,42.7656],[-72.5084,42.7644],[-72.4977,42.7734],[-72.4905,42.7727],[-72.477,42.7608],[-72.4734,42.7462],[-72.4584,42.7269],[-71.2946,42.697],[-71.2679,42.726],[-71.2454,42.7425],[-71.2238,42.7465],[-71.1818,42.7373],[-71.1861,42.7909],[-71.1666,42.8089],[-71.1328,42.8215],[-71.0644,42.8063],[-71.0449,42.8487],[-71.0312,42.8591],[-70.967,42.8688],[-70.9296,42.885],[-70.9146,42.8866],[-70.8856,42.8828],[-70.8477,42.8609],[-70.8202,42.8718],[-70.735,42.8747],[-70.7273,42.8936],[-70.726,42.9285],[-70.709,42.9381],[-70.6944,42.9568],[-70.6809,42.9369],[-70.6551,42.9221],[-70.6107,42.9125],[-70.5751,42.9171],[-70.5876,42.9492],[-70.6112,42.979],[-70.6307,42.9853],[-70.7012,43.0452],[-70.7063,43.0753],[-70.738,43.0737],[-70.7564,43.0802],[-70.7659,43.0925],[-70.7797,43.0962],[-70.8271,43.1274],[-70.8336,43.1461],[-70.8236,43.1742],[-70.8283,43.1878],[-70.8193,43.193],[-70.8169,43.2145],[-70.8095,43.2252],[-70.8172,43.2293],[-70.8178,43.2382],[-70.8389,43.2445]]]}},{"type":"Feature","properties":{"key":"me","name":"Maine","geoid":"23"},"geometry":{"type":"Polygon","coordinates":[[[-67.8057,45.6801],[-67.818,45.6938],[-67.8029,45.6961],[-67.8096,45.7296],[-67.7818,45.7311],[-67.7929,45.7501],[-67.8063,45.7552],[-67.8065,45.7944],[-67.8021,45.803],[-67.7807,45.8178],[-67.7553,45.8234],[-67.7971,45.86],[-67.7962,45.8652],[-67.8045,45.8694],[-67.8039,45.8829],[-67.7875,45.8947],[-67.7681,45.8981],[-67.7653,45.9098],[-67.7554,45.9117],[-67.7506,45.9176],[-67.7586,45.9264],[-67.7778,45.9342],[-67.7812,45.9434],[-67.7902,47.0672],[-67.8211,47.0834],[-67.8829,47.1044],[-67.8882,47.1098],[-67.8909,47.1266],[-67.9098,47.1472],[-67.9287,47.1562],[-67.9515,47.1835],[-67.9519,47.1945],[-67.9572,47.1996],[-67.9897,47.21],[-68.0197,47.2385],[-68.074,47.2592],[-68.0819,47.271],[-68.1359,47.2956],[-68.1522,47.3097],[-68.1547,47.3252],[-68.2145,47.3396],[-68.2345,47.3553],[-68.2649,47.3522],[-68.2848,47.3603],[-68.3033,47.3552],[-68.3277,47.3601],[-68.3631,47.3547],[-68.3777,47.3436],[-68.3847,47.3241],[-68.3808,47.3082],[-68.3848,47.3037],[-68.3763,47.2952],[-68.3779,47.2874],[-68.4098,47.288],[-68.4298,47.2813],[-68.4488,47.282],[-68.475,47.2971],[-68.5168,47.2961],[-68.5498,47.2821],[-68.5801,47.2871],[-68.5977,47.2702],[-68.5935,47.2588],[-68.6175,47.2434],[-68.6598,47.2361],[-68.6872,47.2444],[-68.7051,47.2379],[-68.717,47.2405],[-68.7643,47.222],[-68.8115,47.2151],[-68.8574,47.1903],[-68.8955,47.1824],[-68.9,47.1777],[-68.9198,47.1899],[-68.9237,47.1974],[-68.9411,47.2061],[-68.9508,47.202],[-68.9529,47.2069],[-68.9612,47.2057],[-68.9653,47.2125],[-68.9804,47.2201],[-69.0338,47.2404],[-69.0507,47.2565],[-69.0468,47.2716],[-69.0535,47.2972],[-69.0492,47.3058],[-69.0549,47.3153],[-69.0549,47.3777],[-69.0396,47.3842],[-69.0454,47.393],[-69.0438,47.3974],[-69.0376,47.3968],[-69.0427,47.402],[-69.0352,47.4018],[-69.0425,47.4047],[-69.0324,47.4022],[-69.0306,47.4074],[-69.0366,47.4077],[-69.0345,47.4146],[-69.0422,47.4157],[-69.0392,47.4197],[-69.0432,47.4268],[-69.0522,47.4221],[-69.0485,47.4242],[-69.0521,47.43],[-69.0635,47.4341],[-69.0619,47.4306],[-69.0684,47.4274],[-69.0901,47.4241],[-69.0989,47.4314],[-69.1077,47.4277],[-69.1078,47.4354],[-69.122,47.4427],[-69.1411,47.444],[-69.1565,47.4516],[-69.1623,47.4474],[-69.1789,47.4574],[-69.2052,47.452],[-69.2245,47.4598],[-69.9971,46.6955],[-70.0565,46.4156],[-70.0969,46.4095],[-70.0952,46.4064],[-70.1009,46.4053],[-70.0988,46.4011],[-70.1099,46.3903],[-70.1078,46.3877],[-70.1166,46.3882],[-70.127,46.3804],[-70.127,46.3708],[-70.1364,46.3699],[-70.1481,46.359],[-70.1729,46.3592],[-70.1912,46.3502],[-70.2089,46.3295],[-70.203,46.3144],[-70.2059,46.2997],[-70.2316,46.291],[-70.2531,46.2588],[-70.2509,46.2491],[-70.2675,46.2194],[-70.2736,46.2168],[-70.2711,46.2108],[-70.2927,46.1915],[-70.2906,46.1851],[-70.2363,46.1452],[-70.2545,46.1137],[-70.2531,46.1001],[-70.2859,46.0998],[-70.292,46.0868],[-70.3019,46.0824],[-70.3025,46.0704],[-70.311,46.0642],[-70.3004,46.0606],[-70.2842,46.0627],[-70.2783,46.0563],[-70.2974,46.0407],[-70.3014,46.0276],[-70.318,46.0191],[-70.3061,46.0098],[-70.3024,45.9987],[-70.2839,45.9955],[-70.307,45.9827],[-70.3159,45.963],[-70.277,45.9673],[-70.2745,45.9614],[-70.2657,45.9642],[-70.258,45.959],[-70.2605,45.9523],[-70.2528,45.9554],[-70.2391,45.9439],[-70.2631,45.924],[-70.2572,45.9176],[-70.2595,45.9098],[-70.2534,45.9074],[-70.2657,45.8937],[-70.2588,45.8912],[-70.3078,45.8588],[-70.3419,45.8523],[-70.3594,45.8354],[-70.3708,45.8352],[-70.3722,45.828],[-70.3967,45.8081],[-70.3962,45.7987],[-70.4169,45.7955],[-70.4157,45.7853],[-70.4056,45.7765],[-70.407,45.7625],[-70.3884,45.7502],[-70.3939,45.7401],[-70.3838,45.7346],[-70.3901,45.7285],[-70.3965,45.7291],[-70.4003,45.7197],[-70.4392,45.7039],[-70.4655,45.7065],[-70.5264,45.6664],[-70.5339,45.671],[-70.5586,45.6665],[-70.5649,45.6548],[-70.5836,45.6424],[-70.5909,45.6305],[-70.607,45.6257],[-70.6191,45.612],[-70.6446,45.607],[-70.6781,45.5705],[-70.6877,45.5694],[-70.6851,45.5666],[-70.6892,45.5622],[-70.6771,45.5522],[-70.687,45.5493],[-70.6965,45.54],[-70.6991,45.5301],[-70.7226,45.5137],[-70.7227,45.5065],[-70.7116,45.5018],[-70.7164,45.4865],[-70.6917,45.4743],[-70.6929,45.4664],[-70.6818,45.4617],[-70.6811,45.4522],[-70.6507,45.4449],[-70.6404,45.4308],[-70.6298,45.4263],[-70.6278,45.4207],[-70.6351,45.4111],[-70.6213,45.4027],[-70.6363,45.3952],[-70.6389,45.3888],[-70.6349,45.3834],[-70.6518,45.377],[-70.6608,45.3781],[-70.6617,45.3863],[-70.6782,45.3943],[-70.712,45.3905],[-70.7297,45.3991],[-70.7304,45.4044],[-70.7436,45.4119],[-70.744,45.4212],[-70.7546,45.4283],[-70.7644,45.4259],[-70.7814,45.4312],[-70.7981,45.4265],[-70.8259,45.3984],[-70.8239,45.391],[-70.8138,45.3878],[-70.8028,45.3675],[-70.8145,45.3567],[-70.8098,45.3487],[-70.8199,45.3402],[-70.8164,45.3308],[-70.8076,45.3277],[-70.8084,45.3118],[-70.8146,45.3082],[-70.8115,45.3038],[-70.8163,45.2982],[-70.8355,45.294],[-70.8299,45.2902],[-70.8319,45.2789],[-70.8489,45.2631],[-70.8486,45.2452],[-70.8376,45.235],[-70.8575,45.2291],[-70.8969,45.2419],[-70.8985,45.2583],[-70.9059,45.2608],[-70.9075,45.2684],[-70.9213,45.2792],[-70.912,45.2963],[-70.9196,45.3053],[-70.9178,45.3117],[-70.9389,45.32],[-70.9524,45.3391],[-70.9673,45.3322],[-70.985,45.3319],[-71.0107,45.3477],[-71.0121,45.3339],[-71.0019,45.3284],[-71.0085,45.3192],[-71.0327,45.3102],[-71.0591,45.3138],[-71.0839,45.3055],[-71.0335,44.6976],[-71.0057,44.2027],[-70.989,43.7901],[-70.9728,43.5705],[-70.9573,43.5613],[-70.9506,43.5513],[-70.9535,43.5406],[-70.9638,43.5394],[-70.9539,43.5223],[-70.9547,43.5093],[-70.9683,43.4895],[-70.9675,43.4809],[-70.976,43.4784],[-70.9611,43.4692],[-70.9666,43.4513],[-70.961,43.4384],[-70.9868,43.4138],[-70.9823,43.3983],[-70.9879,43.3899],[-70.9746,43.3636],[-70.9782,43.3587],[-70.972,43.3546],[-70.9726,43.3484],[-70.9674,43.3492],[-70.968,43.3446],[-70.9559,43.334],[-70.9312,43.3365],[-70.9317,43.3309],[-70.9244,43.3238],[-70.9114,43.3197],[-70.9154,43.3154],[-70.9126,43.3076],[-70.9037,43.3063],[-70.8963,43.2986],[-70.9066,43.292],[-70.8964,43.2923],[-70.897,43.2855],[-70.8836,43.2834],[-70.8831,43.273],[-70.8629,43.2648],[-70.8575,43.2558],[-70.8428,43.2542],[-70.8379,43.2424],[-70.8274,43.2434],[-70.8178,43.2382],[-70.8172,43.2293],[-70.8098,43.2259],[-70.8169,43.2145],[-70.8193,43.193],[-70.8283,43.1878],[-70.8236,43.1742],[-70.8336,43.1461],[-70.8271,43.1274],[-70.7797,43.0962],[-70.7659,43.0925],[-70.7564,43.0802],[-70.738,43.0737],[-70.7063,43.0753],[-70.7012,43.0452],[-70.6307,42.9853],[-70.6112,42.979],[-70.5876,42.9492],[-70.5751,42.9171],[-70.57,42.9191],[-70.553,42.9293],[-70.5402,42.944],[-70.5289,43.0058],[-70.5325,43.02],[-70.5521,43.043],[-70.5731,43.0529],[-70.5997,43.0569],[-70.5906,43.0674],[-70.5822,43.0955],[-70.562,43.1099],[-70.5558,43.1215],[-70.5401,43.1305],[-70.5374,43.1059],[-70.5251,43.0893],[-70.493,43.073],[-70.4591,43.0715],[-70.4211,43.0867],[-70.4062,43.1021],[-70.4032,43.1152],[-70.4072,43.1384],[-70.4409,43.1666],[-70.4864,43.1703],[-70.5217,43.1549],[-70.5229,43.1789],[-70.5063,43.2188],[-70.5124,43.2427],[-70.5208,43.2521],[-70.5022,43.2681],[-70.4932,43.2868],[-70.4218,43.2975],[-70.3674,43.3233],[-70.3516,43.3391],[-70.3462,43.3582],[-70.3189,43.3901],[-70.2804,43.4087],[-70.2684,43.4264],[-70.156,43.5244],[-69.8552,43.6469],[-69.8088,43.6473],[-69.7866,43.6581],[-69.7495,43.654],[-69.7304,43.6573],[-69.7083,43.6682],[-69.6934,43.6834],[-69.6863,43.6982],[-69.6647,43.7117],[-69.6173,43.6998],[-69.5509,43.7071],[-69.5353,43.7145],[-69.5191,43.7321],[-69.5158,43.761],[-69.5058,43.7785],[-69.4699,43.7939],[-69.4093,43.8108],[-69.3873,43.799],[-69.3972,43.7634],[-69.3876,43.7361],[-69.3564,43.7109],[-69.3351,43.7045],[-69.309,43.705],[-69.2829,43.7138],[-69.262,43.7254],[-69.2381,43.7501],[-69.2333,43.781],[-69.2425,43.7998],[-69.2623,43.8154],[-69.2366,43.8256],[-69.2266,43.8122],[-69.1972,43.796],[-69.1498,43.7957],[-69.083,43.8256],[-69.0649,43.8419],[-69.0559,43.8589],[-69.0228,43.8425],[-69.0243,43.8198],[-69.0099,43.7984],[-68.9812,43.7838],[-68.9498,43.7802],[-68.9444,43.7679],[-68.9255,43.7501],[-68.8706,43.7336],[-68.8269,43.7357],[-68.8054,43.746],[-68.7861,43.7684],[-68.7812,43.7851],[-68.7853,43.8043],[-68.7495,43.8325],[-68.7128,43.8384],[-68.6847,43.8546],[-68.6694,43.8696],[-68.6638,43.8939],[-68.6793,43.9235],[-68.707,43.9392],[-68.7426,43.9431],[-68.7215,43.9619],[-68.7072,43.9638],[-68.6897,43.9542],[-68.6596,43.948],[-68.6187,43.9559],[-68.5942,43.9537],[-68.5684,43.958],[-68.5473,43.9686],[-68.5307,43.9866],[-68.4931,44.0106],[-68.4849,44.0283],[-68.463,44.0321],[-68.4368,44.0532],[-68.3688,44.0452],[-68.3114,44.0534],[-68.2792,44.0699],[-68.2631,44.0906],[-68.2302,44.0905],[-68.2034,44.0996],[-68.1759,44.1251],[-68.1684,44.1729],[-68.1708,44.1901],[-68.1376,44.2069],[-68.1226,44.226],[-68.1207,44.2443],[-68.1283,44.2643],[-68.061,44.2783],[-68.0278,44.2742],[-67.9994,44.2802],[-67.9736,44.2952],[-67.9608,44.3193],[-67.9424,44.3261],[-67.9252,44.3414],[-67.8982,44.3221],[-67.8744,44.3169],[-67.8583,44.317],[-67.8237,44.327],[-67.8097,44.3365],[-67.7953,44.3612],[-67.796,44.3795],[-67.8056,44.391],[-67.7747,44.4113],[-67.7417,44.3908],[-67.7153,44.3865],[-67.6746,44.3946],[-67.655,44.3867],[-67.6274,44.3835],[-67.5676,44.3972],[-67.4994,44.4275],[-67.473,44.4483],[-67.4442,44.4811],[-67.4434,44.5053],[-67.4139,44.5096],[-67.3882,44.5204],[-67.3404,44.5213],[-67.3178,44.5315],[-67.3008,44.5499],[-67.2481,44.5549],[-67.2233,44.5632],[-67.1038,44.6334],[-67.0875,44.6535],[-67.0502,44.681],[-67.0393,44.697],[-67.0108,44.7173],[-66.9775,44.7312],[-66.9523,44.7604],[-66.9026,44.7766],[-66.8854,44.7942],[-66.9326,44.8255],[-66.9653,44.8289],[-66.9749,44.8416],[-66.9821,44.8673],[-66.9687,44.9104],[-66.9968,44.9284],[-67.0217,44.9539],[-67.0946,45.0745],[-67.1126,45.1126],[-67.1589,45.162],[-67.2051,45.1714],[-67.2273,45.1634],[-67.2428,45.1724],[-67.2474,45.1809],[-67.2834,45.1919],[-67.291,45.1876],[-67.2914,45.171],[-67.2993,45.1692],[-67.3027,45.1607],[-67.2942,45.1536],[-67.296,45.1478],[-67.32,45.1424],[-67.3208,45.1313],[-67.346,45.1265],[-67.3807,45.1521],[-67.405,45.1601],[-67.4048,45.1668],[-67.3992,45.169],[-67.4005,45.1777],[-67.4293,45.1935],[-67.428,45.2018],[-67.4393,45.2261],[-67.4685,45.2507],[-67.4764,45.2754],[-67.489,45.2806],[-67.4851,45.2912],[-67.4761,45.2886],[-67.4661,45.2939],[-67.4681,45.299],[-67.4603,45.3],[-67.4518,45.3177],[-67.4569,45.3253],[-67.4312,45.3411],[-67.4315,45.3498],[-67.4254,45.3574],[-67.4345,45.365],[-67.4192,45.3771],[-67.4276,45.391],[-67.4527,45.4097],[-67.4612,45.4222],[-67.4741,45.4251],[-67.4804,45.4409],[-67.4765,45.4433],[-67.485,45.4528],[-67.4821,45.4594],[-67.5009,45.4789],[-67.5035,45.4896],[-67.4895,45.4892],[-67.4855,45.4956],[-67.4776,45.497],[-67.4675,45.4952],[-67.4637,45.4971],[-67.4711,45.5042],[-67.4636,45.5084],[-67.4497,45.4991],[-67.4535,45.5088],[-67.4501,45.5103],[-67.4301,45.501],[-67.4228,45.5055],[-67.4162,45.5013],[-67.4349,45.5281],[-67.4325,45.5404],[-67.4251,45.5403],[-67.4207,45.5497],[-67.4289,45.5683],[-67.4232,45.5716],[-67.4311,45.5841],[-67.4567,45.6043],[-67.4933,45.6013],[-67.488,45.5958],[-67.499,45.5867],[-67.5192,45.5876],[-67.548,45.5978],[-67.5617,45.5947],[-67.5899,45.6068],[-67.6084,45.6061],[-67.6391,45.6251],[-67.644,45.6231],[-67.6398,45.6161],[-67.6456,45.6133],[-67.6752,45.6307],[-67.6923,45.6501],[-67.7096,45.6813],[-67.7178,45.6794],[-67.7283,45.6892],[-67.7346,45.6889],[-67.7335,45.684],[-67.7179,45.6677],[-67.7201,45.6623],[-67.7325,45.6634],[-67.7444,45.6729],[-67.7543,45.6676],[-67.7687,45.6775],[-67.8057,45.6801]]]}},{"type":"Feature","properties":{"key":"vt","name":"Vermont","geoid":"50"},"geometry":{"type":"Polygon","coordinates":[[[-72.0419,44.1567],[-72.0662,44.1901],[-72.0477,44.239],[-72.0615,44.2611],[-72.0583,44.2701],[-72.0685,44.2708],[-72.0586,44.2865],[-72.0329,44.3022],[-72.0328,44.3205],[-72.0091,44.3222],[-71.9881,44.3301],[-71.9814,44.3374],[-71.934,44.336],[-71.9124,44.3481],[-71.8716,44.3367],[-71.8158,44.354],[-71.8124,44.3573],[-71.8163,44.3674],[-71.8123,44.3716],[-71.8144,44.3819],[-71.8006,44.384],[-71.8035,44.3919],[-71.7945,44.399],[-71.7784,44.3998],[-71.762,44.407],[-71.7437,44.401],[-71.7354,44.41],[-71.7026,44.4135],[-71.6827,44.4273],[-71.677,44.4268],[-71.678,44.4353],[-71.6609,44.4399],[-71.6542,44.4588],[-71.639,44.4644],[-71.6468,44.4732],[-71.6328,44.4838],[-71.6247,44.4817],[-71.6345,44.4756],[-71.6262,44.4745],[-71.6178,44.4858],[-71.5986,44.4868],[-71.5939,44.501],[-71.5859,44.4994],[-71.5881,44.5066],[-71.577,44.5021],[-71.5941,44.5216],[-71.5807,44.5246],[-71.5719,44.5379],[-71.5986,44.5548],[-71.597,44.5595],[-71.5896,44.5657],[-71.5597,44.564],[-71.5577,44.5704],[-71.5477,44.5714],[-71.5548,44.5794],[-71.5524,44.5844],[-71.5458,44.5779],[-71.5349,44.5879],[-71.5401,44.5885],[-71.5385,44.5942],[-71.5469,44.5908],[-71.546,44.5971],[-71.5552,44.5933],[-71.5509,44.601],[-71.5621,44.6012],[-71.5536,44.6061],[-71.5551,44.6252],[-71.5463,44.623],[-71.557,44.6295],[-71.5468,44.6298],[-71.5637,44.6372],[-71.5578,44.642],[-71.5628,44.6524],[-71.5771,44.6507],[-71.5801,44.6521],[-71.5752,44.6558],[-71.5874,44.6597],[-71.5879,44.6699],[-71.5815,44.6732],[-71.5966,44.6781],[-71.594,44.6834],[-71.5979,44.6922],[-71.5939,44.6964],[-71.6008,44.699],[-71.5994,44.7053],[-71.6186,44.7222],[-71.6171,44.7287],[-71.6261,44.7285],[-71.6251,44.7434],[-71.632,44.7521],[-71.6167,44.7563],[-71.5925,44.7827],[-71.5792,44.7849],[-71.5728,44.7909],[-71.5684,44.807],[-71.5769,44.8152],[-71.5732,44.8208],[-71.5618,44.8236],[-71.5511,44.837],[-71.5558,44.8486],[-71.5475,44.8554],[-71.5495,44.8621],[-71.5161,44.8845],[-71.5107,44.8904],[-71.5139,44.8943],[-71.5074,44.8995],[-71.4949,44.9043],[-71.4932,44.9114],[-71.4999,44.9112],[-71.5228,44.9399],[-71.5171,44.9391],[-71.5148,44.9437],[-71.5192,44.9496],[-71.5163,44.9644],[-71.5236,44.9641],[-71.518,44.9677],[-71.5229,44.9662],[-71.5368,44.9839],[-71.5413,44.9839],[-71.5331,44.9909],[-71.537,44.9935],[-71.5085,45.0079],[-71.4888,45.0008],[-71.4808,45.0023],[-71.4763,45.0094],[-71.465,45.0136],[-72.3119,45.0038],[-72.5554,45.008],[-72.6347,45.0147],[-72.847,45.0167],[-73.3432,45.0107],[-73.3546,44.9874],[-73.3382,44.9648],[-73.339,44.9177],[-73.3562,44.9045],[-73.3691,44.8667],[-73.3798,44.857],[-73.3816,44.8494],[-73.3795,44.838],[-73.335,44.8041],[-73.3332,44.7888],[-73.3656,44.7418],[-73.366,44.6976],[-73.3613,44.6945],[-73.3701,44.6849],[-73.3697,44.6635],[-73.3845,44.6467],[-73.3786,44.6415],[-73.3868,44.6364],[-73.3902,44.6184],[-73.3768,44.5996],[-73.3818,44.5893],[-73.375,44.5758],[-73.3568,44.5579],[-73.3388,44.548],[-73.3297,44.5296],[-73.322,44.5253],[-73.3208,44.5136],[-73.3067,44.5003],[-73.2992,44.4729],[-73.3001,44.4547],[-73.2936,44.4389],[-73.315,44.3885],[-73.3336,44.3723],[-73.335,44.3644],[-73.324,44.3338],[-73.3242,44.31],[-73.3122,44.2801],[-73.3127,44.2654],[-73.3237,44.2442],[-73.3434,44.2382],[-73.3623,44.2085],[-73.3906,44.1911],[-73.3898,44.1818],[-73.3972,44.1738],[-73.403,44.145],[-73.4161,44.1324],[-73.4115,44.112],[-73.4297,44.0786],[-73.4379,44.0451],[-73.4076,44.0211],[-73.4125,43.9822],[-73.4057,43.9559],[-73.4086,43.9319],[-73.3962,43.9033],[-73.3742,43.8762],[-73.3823,43.8561],[-73.3726,43.8454],[-73.3882,43.8327],[-73.3925,43.8213],[-73.3807,43.8108],[-73.3768,43.7992],[-73.3582,43.7865],[-73.3508,43.7714],[-73.3699,43.7439],[-73.3706,43.7253],[-73.4047,43.6902],[-73.4041,43.6813],[-73.4155,43.6525],[-73.4265,43.6426],[-73.4284,43.6355],[-73.4177,43.6217],[-73.4237,43.6124],[-73.4216,43.603],[-73.4312,43.5883],[-73.3958,43.5681],[-73.3833,43.5772],[-73.3825,43.5866],[-73.3869,43.5908],[-73.3725,43.6048],[-73.3764,43.6088],[-73.3698,43.6194],[-73.3719,43.6245],[-73.3543,43.6262],[-73.3488,43.6215],[-73.3342,43.628],[-73.3179,43.6285],[-73.3112,43.6241],[-73.3064,43.6283],[-73.3004,43.6178],[-73.3028,43.6098],[-73.298,43.61],[-73.291,43.5992],[-73.2969,43.5873],[-73.2921,43.5845],[-73.2973,43.5794],[-73.2849,43.5793],[-73.2809,43.5736],[-73.2679,43.5722],[-73.2586,43.565],[-73.2545,43.5556],[-73.2486,43.5539],[-73.2501,43.5434],[-73.2416,43.535],[-73.2477,43.5232],[-73.2783,42.8376],[-73.2787,42.8334],[-73.2854,42.8341],[-73.2837,42.8139],[-73.2909,42.8019],[-73.2764,42.746],[-72.4584,42.7269],[-72.4734,42.7462],[-72.477,42.7608],[-72.4905,42.7727],[-72.4977,42.7734],[-72.5084,42.7644],[-72.5155,42.7656],[-72.5087,42.7795],[-72.5415,42.8071],[-72.5474,42.8395],[-72.5571,42.8532],[-72.5526,42.885],[-72.5334,42.8953],[-72.5304,42.9111],[-72.5245,42.9151],[-72.5269,42.9414],[-72.5338,42.9526],[-72.5184,42.9631],[-72.4922,42.9677],[-72.4816,42.974],[-72.4737,42.9721],[-72.4617,42.9829],[-72.4654,42.9896],[-72.4625,42.9974],[-72.4494,43.0003],[-72.4433,43.0076],[-72.4626,43.0258],[-72.4604,43.0414],[-72.4678,43.0527],[-72.434,43.0845],[-72.4432,43.1028],[-72.4335,43.1106],[-72.4328,43.1202],[-72.4423,43.1293],[-72.4408,43.1366],[-72.4521,43.1386],[-72.4574,43.1475],[-72.4521,43.1532],[-72.4528,43.1728],[-72.4439,43.1798],[-72.4505,43.1926],[-72.4382,43.2029],[-72.441,43.2182],[-72.4342,43.2319],[-72.4388,43.252],[-72.416,43.2702],[-72.3953,43.3127],[-72.4106,43.3311],[-72.3899,43.3566],[-72.4126,43.3623],[-72.416,43.3765],[-72.4035,43.3916],[-72.3904,43.4509],[-72.3926,43.4669],[-72.3825,43.4759],[-72.38,43.49],[-72.3851,43.5007],[-72.3982,43.5104],[-72.3961,43.5234],[-72.3807,43.5404],[-72.3798,43.5742],[-72.3283,43.6011],[-72.3348,43.618],[-72.3274,43.6307],[-72.3291,43.6355],[-72.3147,43.6419],[-72.3136,43.6569],[-72.3031,43.6686],[-72.3051,43.6953],[-72.2997,43.7061],[-72.2711,43.7339],[-72.2342,43.746],[-72.2185,43.7655],[-72.2052,43.7709],[-72.2055,43.7846],[-72.1841,43.8064],[-72.1889,43.8212],[-72.1824,43.8341],[-72.188,43.8552],[-72.1846,43.8641],[-72.1679,43.8691],[-72.1721,43.885],[-72.1597,43.8877],[-72.1505,43.9021],[-72.1205,43.9196],[-72.1183,43.9465],[-72.1057,43.9498],[-72.099,43.9576],[-72.1007,43.963],[-72.0909,43.9658],[-72.1144,43.9681],[-72.112,43.986],[-72.117,43.9942],[-72.1041,44.0024],[-72.1028,44.0146],[-72.0905,44.0099],[-72.0954,44.0218],[-72.0827,44.0218],[-72.0748,44.0324],[-72.0783,44.0434],[-72.0619,44.0496],[-72.0681,44.0574],[-72.0573,44.0583],[-72.0483,44.0697],[-72.0529,44.0763],[-72.0318,44.0785],[-72.0453,44.0873],[-72.0333,44.0905],[-72.0313,44.1004],[-72.0395,44.1035],[-72.0479,44.0966],[-72.0554,44.1108],[-72.0531,44.1195],[-72.0373,44.1249],[-72.0333,44.1314],[-72.042,44.137],[-72.0419,44.1567]]]}},{"type":"Feature","properties":{"key":"ct","name":"Connecticut","geoid":"09"},"geometry":{"type":"Polygon","coordinates":[[[-72.5279,41.1778],[-72.0818,41.2622],[-71.9995,41.2958],[-71.9295,41.3104],[-71.9073,41.3045],[-71.8921,41.3301],[-71.8665,41.3192],[-71.8575,41.3208],[-71.8294,41.3424],[-71.8379,41.3601],[-71.8306,41.3788],[-71.8331,41.3878],[-71.8422,41.3954],[-71.8436,41.4053],[-71.8397,41.4122],[-71.8203,41.4194],[-71.7977,41.4167],[-71.7882,41.621],[-71.8007,42.0235],[-72.5315,42.0346],[-72.5728,42.0302],[-72.5822,42.0247],[-72.6072,42.0251],[-72.608,42.0311],[-72.7559,42.0363],[-72.7521,42.029],[-72.7573,42.021],[-72.7653,42.0224],[-72.759,42.0155],[-72.7667,42.0033],[-72.8171,41.9977],[-72.8138,42.0367],[-73.4873,42.0495],[-73.551,41.2954],[-73.4827,41.2128],[-73.7278,41.1007],[-73.6553,41.0122],[-73.6603,41.0005],[-73.6568,40.9845],[-73.6129,40.9509],[-73.2496,41.0259],[-72.9995,41.0871],[-72.5279,41.1778]]]}},{"type":"Feature","properties":{"key":"ma","name":"Massachusetts","geoid":"25"},"geometry":{"type":"Polygon","coordinates":[[[-71.2551,42.7366],[-71.2946,42.697],[-73.2648,42.7459],[-73.5082,42.0861],[-73.497,42.0496],[-72.8138,42.0367],[-72.8171,41.9977],[-72.7667,42.0033],[-72.759,42.0155],[-72.7653,42.0224],[-72.7573,42.021],[-72.7521,42.029],[-72.7559,42.0363],[-72.608,42.0311],[-72.6072,42.0251],[-72.5822,42.0247],[-72.5728,42.0302],[-72.5315,42.0346],[-71.8007,42.0235],[-71.7992,42.0081],[-71.3814,42.0188],[-71.3815,41.8935],[-71.3388,41.8986],[-71.3409,41.8818],[-71.334,41.8626],[-71.3426,41.8447],[-71.3354,41.8356],[-71.3475,41.8232],[-71.3393,41.8085],[-71.3405,41.797],[-71.3295,41.7883],[-71.3285,41.7807],[-71.2611,41.7521],[-71.1955,41.6751],[-71.1326,41.6604],[-71.1353,41.6285],[-71.142,41.6125],[-71.1316,41.5937],[-71.1211,41.4928],[-71.0886,41.4313],[-71.085,41.4335],[-71.0535,41.417],[-71.0336,41.4141],[-71.0399,41.3983],[-71.0327,41.3803],[-71.0148,41.362],[-70.9907,41.3513],[-70.9558,41.3502],[-70.896,41.3701],[-70.9037,41.3551],[-70.901,41.3346],[-70.87,41.2971],[-70.8903,41.2774],[-70.8925,41.2501],[-70.885,41.2338],[-70.8663,41.2154],[-70.8236,41.2006],[-70.7836,41.2012],[-70.7678,41.2065],[-70.7495,41.2202],[-70.7348,41.2463],[-70.7348,41.2592],[-70.7165,41.2695],[-70.7031,41.289],[-70.6551,41.2962],[-70.5718,41.3001],[-70.5122,41.2983],[-70.4933,41.28],[-70.4599,41.2653],[-70.4291,41.2687],[-70.4087,41.2773],[-70.3745,41.2695],[-70.3441,41.2761],[-70.2857,41.2423],[-70.1789,41.2045],[-70.1097,41.1898],[-69.9995,41.1883],[-69.9536,41.1997],[-69.9158,41.2209],[-69.8945,41.2592],[-69.8949,41.2904],[-69.9696,41.4035],[-70.0065,41.4339],[-70.0443,41.4438],[-70.0652,41.4427],[-70.0944,41.4308],[-70.1058,41.4199],[-70.1165,41.3951],[-70.1113,41.3704],[-70.0978,41.3536],[-70.1379,41.3464],[-70.1487,41.3452],[-70.1749,41.3573],[-70.2151,41.3603],[-70.2381,41.3862],[-70.2673,41.3934],[-70.3236,41.3916],[-70.3531,41.3815],[-70.3701,41.3688],[-70.3834,41.3699],[-70.3808,41.412],[-70.3929,41.4455],[-70.4059,41.457],[-70.4364,41.4689],[-70.4897,41.463],[-70.4949,41.4796],[-70.5086,41.499],[-70.4486,41.5131],[-70.4239,41.5287],[-70.3952,41.5567],[-70.3463,41.5685],[-70.3113,41.5711],[-70.2789,41.5593],[-70.2495,41.5601],[-70.2256,41.5686],[-70.208,41.5842],[-70.1815,41.5935],[-70.1604,41.5994],[-70.127,41.6002],[-70.0779,41.6125],[-70.0686,41.6107],[-70.0634,41.5902],[-70.0803,41.5645],[-70.102,41.5564],[-70.1226,41.5378],[-70.1286,41.5247],[-70.1267,41.5037],[-70.1144,41.4841],[-70.0849,41.4675],[-70.0554,41.4641],[-70.0237,41.4719],[-69.9982,41.4934],[-69.9582,41.5047],[-69.929,41.5322],[-69.9154,41.5892],[-69.8986,41.6061],[-69.8681,41.6568],[-69.8605,41.6923],[-69.8591,41.7365],[-69.8665,41.817],[-69.8953,41.9068],[-69.9177,41.9592],[-69.9963,42.0597],[-70.0403,42.0916],[-70.1207,42.1251],[-70.1725,42.1345],[-70.2292,42.1312],[-70.2774,42.1143],[-70.6084,42.1385],[-70.6429,42.1782],[-70.6363,42.2029],[-70.6401,42.2284],[-70.6486,42.2374],[-70.6841,42.2538],[-70.6904,42.279],[-70.6063,42.5312],[-70.5827,42.553],[-70.5454,42.5701],[-70.5218,42.5935],[-70.5021,42.6246],[-70.5139,42.6806],[-70.5297,42.707],[-70.5493,42.7242],[-70.6259,42.7397],[-70.6613,42.7366],[-70.7026,42.7242],[-70.7143,42.7319],[-70.7372,42.788],[-70.7349,42.8245],[-70.7488,42.8588],[-70.735,42.8747],[-70.8202,42.8718],[-70.8477,42.8609],[-70.8856,42.8828],[-70.9035,42.8868],[-70.9296,42.885],[-70.967,42.8688],[-71.0312,42.8591],[-71.0449,42.8487],[-71.0644,42.8063],[-71.1328,42.8215],[-71.1666,42.8089],[-71.1861,42.7909],[-71.1818,42.7373],[-71.2238,42.7465],[-71.2551,42.7366]]]}},{"type":"Feature","properties":{"key":"ri","name":"Rhode Island","geoid":"44"},"geometry":{"type":"MultiPolygon","coordinates":[[[[-71.2084,41.6906],[-71.2611,41.7521],[-71.3285,41.7807],[-71.3295,41.7883],[-71.3405,41.797],[-71.3393,41.8085],[-71.3475,41.8232],[-71.3354,41.8356],[-71.3426,41.8447],[-71.334,41.8626],[-71.3409,41.8818],[-71.3388,41.8986],[-71.3815,41.8935],[-71.3814,42.0188],[-71.7992,42.0081],[-71.7872,41.6561],[-71.7977,41.4167],[-71.8181,41.4199],[-71.8424,41.4103],[-71.8422,41.3954],[-71.8331,41.3878],[-71.8306,41.3788],[-71.8379,41.3601],[-71.8294,41.3424],[-71.8575,41.3208],[-71.8665,41.3192],[-71.8921,41.3301],[-71.9073,41.3045],[-71.791,41.1841],[-71.7915,41.2722],[-71.695,41.2826],[-71.5753,41.321],[-71.5266,41.3088],[-71.4948,41.3074],[-71.1193,41.4133],[-71.0886,41.4313],[-71.1211,41.4928],[-71.1316,41.5937],[-71.142,41.6125],[-71.1353,41.6285],[-71.1326,41.6604],[-71.1955,41.6751],[-71.2084,41.6906]]],[[[-71.6788,41.1589],[-71.6761,41.1415],[-71.6683,41.1283],[-71.6189,41.0991],[-71.5693,41.0972],[-71.5175,41.1071],[-71.4914,41.1251],[-71.477,41.1557],[-71.4786,41.1758],[-71.4898,41.1947],[-71.4846,41.2175],[-71.4893,41.2352],[-71.5164,41.2715],[-71.536,41.2862],[-71.5576,41.294],[-71.5916,41.2893],[-71.6245,41.2741],[-71.635,41.2637],[-71.643,41.2313],[-71.6705,41.1945],[-71.6788,41.1589]]]]}},{"type":"Feature","properties":{"key":"boston","name":"Greater Boston / MBTA core","geoid":"mbta-core-17","members":["Arlington","Belmont","Boston","Braintree","Brookline","Cambridge","Chelsea","Everett","Malden","Medford","Milton","Newton","Quincy","Revere","Somerville","Watertown","Winthrop"],"definition":"Boston plus 16 adjacent inner-core municipalities","sourceUrl":"https://tigerweb.geo.census.gov/tigerweb/"},"geometry":{"type":"Polygon","coordinates":[[[-71.082752,42.204266],[-71.082866,42.204077],[-71.083126,42.204006],[-71.08342,42.203956],[-71.083611,42.204078],[-71.084105,42.203925],[-71.086017,42.204005],[-71.086368,42.2042],[-71.086864,42.204172],[-71.087352,42.203954],[-71.087388,42.203474],[-71.087866,42.203171],[-71.088216,42.202488],[-71.08847,42.20226],[-71.092607,42.20247],[-71.094316,42.202432],[-71.095529,42.202122],[-71.096738,42.20212],[-71.097192,42.201846],[-71.097567,42.201865],[-71.09798,42.201647],[-71.098212,42.201658],[-71.098733,42.201299],[-71.099333,42.201224],[-71.099934,42.201283],[-71.100478,42.201502],[-71.100829,42.201476],[-71.102957,42.200708],[-71.114799,42.212653],[-71.130749,42.227911],[-71.142681,42.235998],[-71.145597,42.250096],[-71.146642,42.255755],[-71.152312,42.258336],[-71.158584,42.255155],[-71.171322,42.265346],[-71.171379,42.265905],[-71.171695,42.266278],[-71.17356,42.266705],[-71.174317,42.267179],[-71.174596,42.267894],[-71.174501,42.268651],[-71.173529,42.269438],[-71.173022,42.270026],[-71.172953,42.270298],[-71.173527,42.271114],[-71.173859,42.271987],[-71.17475,42.273322],[-71.174825,42.274201],[-71.174418,42.275042],[-71.174438,42.275299],[-71.174605,42.275663],[-71.174972,42.276004],[-71.176781,42.276799],[-71.177461,42.276868],[-71.182895,42.275853],[-71.183159,42.275913],[-71.185357,42.279591],[-71.187773,42.280227],[-71.18993,42.281289],[-71.190753,42.28184],[-71.191131,42.282364],[-71.191249,42.283038],[-71.190841,42.285491],[-71.190886,42.285823],[-71.192117,42.287277],[-71.19322,42.288014],[-71.19429,42.288283],[-71.195006,42.288164],[-71.195524,42.287572],[-71.195793,42.286196],[-71.196086,42.285974],[-71.196355,42.285957],[-71.200018,42.287595],[-71.201344,42.288558],[-71.203375,42.288621],[-71.204566,42.289046],[-71.204957,42.289304],[-71.205424,42.28986],[-71.205675,42.292163],[-71.20635,42.294267],[-71.206991,42.295445],[-71.207538,42.296858],[-71.210477,42.298831],[-71.211343,42.299495],[-71.211779,42.300062],[-71.211768,42.300936],[-71.211253,42.302266],[-71.211235,42.302882],[-71.211487,42.303663],[-71.212945,42.305949],[-71.21369,42.306288],[-71.21636,42.306409],[-71.218475,42.306814],[-71.220855,42.306408],[-71.222776,42.30715],[-71.22411,42.3073],[-71.225456,42.307952],[-71.226688,42.30825],[-71.227003,42.308491],[-71.227209,42.309006],[-71.227123,42.30928],[-71.226513,42.309856],[-71.226311,42.310284],[-71.226944,42.311554],[-71.227068,42.312398],[-71.226978,42.312662],[-71.226425,42.313205],[-71.226286,42.314117],[-71.227543,42.3154],[-71.227528,42.315895],[-71.227939,42.316417],[-71.228148,42.317162],[-71.228205,42.318712],[-71.228491,42.319132],[-71.229477,42.319566],[-71.231144,42.320841],[-71.231879,42.320939],[-71.234761,42.32085],[-71.238421,42.321791],[-71.239216,42.321701],[-71.240255,42.32108],[-71.240885,42.320884],[-71.242638,42.320868],[-71.244586,42.321258],[-71.246219,42.321006],[-71.246799,42.321061],[-71.247352,42.321378],[-71.2478,42.321865],[-71.248307,42.32253],[-71.248756,42.323447],[-71.249038,42.32362],[-71.24977,42.323729],[-71.250035,42.324],[-71.250229,42.324551],[-71.251245,42.325271],[-71.251746,42.326123],[-71.252937,42.326756],[-71.253472,42.326757],[-71.253838,42.32662],[-71.254308,42.326052],[-71.25447,42.325392],[-71.254888,42.325126],[-71.256295,42.324659],[-71.257818,42.324506],[-71.258106,42.324606],[-71.258398,42.324938],[-71.258575,42.325603],[-71.258999,42.326341],[-71.259565,42.326674],[-71.260249,42.32679],[-71.261952,42.326649],[-71.262488,42.326509],[-71.263092,42.326052],[-71.263536,42.326017],[-71.266097,42.327391],[-71.269559,42.327779],[-71.269958,42.328086],[-71.270255,42.328555],[-71.270249,42.32893],[-71.269773,42.329569],[-71.269763,42.329764],[-71.269807,42.329983],[-71.270279,42.330522],[-71.270246,42.33098],[-71.269767,42.331181],[-71.26801,42.33056],[-71.265666,42.331273],[-71.26513,42.33183],[-71.264726,42.333944],[-71.264415,42.334473],[-71.264161,42.334655],[-71.263138,42.334903],[-71.26122,42.334605],[-71.259933,42.334825],[-71.259204,42.335419],[-71.258934,42.336019],[-71.258964,42.336579],[-71.256746,42.33804],[-71.25583,42.338996],[-71.255689,42.339291],[-71.255701,42.339749],[-71.255885,42.340111],[-71.256864,42.340648],[-71.258248,42.34119],[-71.258795,42.341201],[-71.26037,42.340899],[-71.261042,42.341002],[-71.261596,42.341354],[-71.261884,42.341869],[-71.261882,42.342188],[-71.261236,42.344282],[-71.260169,42.345453],[-71.259759,42.346111],[-71.259793,42.34661],[-71.260432,42.347612],[-71.260306,42.348194],[-71.259963,42.348557],[-71.258747,42.349108],[-71.258624,42.349361],[-71.258631,42.350052],[-71.259145,42.351724],[-71.260099,42.353016],[-71.260358,42.353658],[-71.256465,42.354905],[-71.256356,42.354012],[-71.255731,42.353754],[-71.255217,42.353928],[-71.254034,42.35477],[-71.253559,42.355241],[-71.253146,42.355897],[-71.217061,42.366569],[-71.194177,42.386031],[-71.195531,42.3874],[-71.195406,42.387721],[-71.194946,42.387988],[-71.194876,42.38817],[-71.195245,42.388394],[-71.195885,42.389088],[-71.196817,42.389736],[-71.196724,42.390655],[-71.196973,42.390838],[-71.197028,42.391973],[-71.197206,42.392167],[-71.197583,42.392283],[-71.197964,42.392678],[-71.197654,42.393167],[-71.19633,42.394031],[-71.196284,42.394361],[-71.196627,42.395229],[-71.197454,42.395813],[-71.198188,42.396067],[-71.199429,42.39732],[-71.199591,42.397757],[-71.199552,42.398214],[-71.199714,42.39845],[-71.20008,42.398627],[-71.200236,42.399304],[-71.200621,42.399458],[-71.201613,42.400566],[-71.201799,42.401374],[-71.201574,42.401695],[-71.201849,42.402071],[-71.201702,42.402425],[-71.202543,42.403226],[-71.202628,42.403702],[-71.211261,42.406074],[-71.202612,42.414826],[-71.196315,42.421429],[-71.192048,42.425532],[-71.185558,42.432313],[-71.182277,42.436279],[-71.153682,42.435803],[-71.129061,42.435552],[-71.127146,42.438887],[-71.121976,42.439786],[-71.124153,42.444116],[-71.121346,42.44867],[-71.119402,42.453445],[-71.104867,42.448879],[-71.082116,42.44394],[-71.082919,42.43884],[-71.025836,42.444709],[-71.018757,42.450118],[-71.011924,42.442164],[-71.009503,42.440964],[-71.011826,42.439944],[-71.011897,42.439748],[-71.012181,42.439646],[-71.012365,42.439741],[-71.011802,42.438997],[-71.011141,42.439064],[-71.011123,42.438871],[-71.010908,42.43878],[-71.01093,42.438597],[-71.010828,42.438759],[-71.01067,42.438739],[-71.010536,42.438445],[-71.010099,42.438301],[-71.01013,42.438176],[-71.010511,42.438201],[-71.010625,42.438102],[-71.010736,42.437764],[-71.010425,42.437584],[-71.010677,42.437347],[-71.010639,42.437196],[-71.010927,42.437083],[-71.01109,42.436795],[-71.011442,42.436693],[-71.010994,42.436542],[-71.01144,42.436225],[-71.011416,42.435991],[-71.010802,42.435398],[-71.010777,42.434568],[-71.00979,42.434479],[-71.009277,42.434278],[-71.00858,42.434346],[-71.007873,42.433972],[-71.006974,42.433838],[-71.006532,42.433394],[-71.005691,42.432981],[-71.004632,42.433055],[-71.003302,42.432703],[-71.002994,42.432837],[-71.002539,42.432623],[-71.00215,42.432608],[-70.999857,42.431296],[-70.998475,42.431296],[-70.995714,42.430855],[-70.994779,42.431196],[-70.992023,42.434135],[-70.99012,42.434877],[-70.987805,42.433998],[-70.985754,42.432557],[-70.983708,42.431663],[-70.982294,42.431296],[-70.979894,42.432396],[-70.975194,42.436896],[-70.971594,42.442696],[-70.968594,42.444396],[-70.966293,42.443497],[-70.950793,42.444296],[-70.951393,42.436996],[-70.952993,42.429396],[-70.959093,42.418597],[-70.962093,42.412397],[-70.959494,42.407498],[-70.924593,42.386798],[-70.901292,42.384098],[-70.851436,42.393209],[-70.749487,42.40082],[-70.748802,42.400212],[-70.748847,42.373752],[-70.749488,42.37334],[-70.851191,42.372499],[-70.894292,42.372399],[-70.905692,42.316999],[-70.917091,42.314198],[-70.927191,42.310098],[-70.937091,42.311098],[-70.948991,42.301298],[-70.960192,42.299498],[-70.960255,42.295794],[-70.959975,42.295584],[-70.960257,42.295661],[-70.960392,42.287699],[-70.937691,42.277499],[-70.938091,42.266399],[-70.959491,42.247799],[-70.960191,42.246799],[-70.960909,42.246091],[-70.962086,42.246424],[-70.961641,42.245782],[-70.963479,42.245967],[-70.962194,42.246455],[-70.96541,42.246791],[-70.967,42.244582],[-70.968591,42.2404],[-70.967991,42.237999],[-70.960491,42.235099],[-70.960191,42.231299],[-70.960384,42.228715],[-70.960596,42.228539],[-70.960891,42.226899],[-70.962891,42.225499],[-70.963728,42.224694],[-70.964283,42.224585],[-70.965414,42.223899],[-70.966282,42.223541],[-70.96679,42.223524],[-70.967022,42.223353],[-70.967591,42.222528],[-70.96792,42.221753],[-70.968066,42.22169],[-70.968016,42.221201],[-70.967684,42.220662],[-70.9687,42.219878],[-70.976478,42.168324],[-71.006386,42.168309],[-71.021994,42.169005],[-71.021984,42.169417],[-71.021606,42.1703],[-71.021695,42.170418],[-71.022428,42.170546],[-71.021636,42.172797],[-71.021298,42.17341],[-71.021614,42.174099],[-71.021034,42.174603],[-71.020816,42.175015],[-71.02089,42.175476],[-71.021134,42.175898],[-71.021054,42.176211],[-71.020574,42.176565],[-71.02069,42.176897],[-71.020569,42.177235],[-71.020628,42.17757],[-71.019878,42.177938],[-71.019994,42.178514],[-71.019665,42.178529],[-71.019549,42.178794],[-71.019751,42.179014],[-71.019746,42.179326],[-71.01992,42.179555],[-71.020167,42.179622],[-71.019898,42.180294],[-71.020164,42.180971],[-71.019691,42.181259],[-71.019646,42.18148],[-71.019941,42.181896],[-71.019589,42.18263],[-71.019456,42.183246],[-71.019229,42.183511],[-71.019459,42.183789],[-71.018988,42.184057],[-71.019411,42.18426],[-71.019312,42.184435],[-71.019468,42.184651],[-71.019273,42.184988],[-71.019345,42.18519],[-71.019144,42.18522],[-71.01909,42.185354],[-71.019517,42.185948],[-71.01913,42.186851],[-71.029591,42.19153],[-71.047271,42.194592],[-71.04949,42.206669],[-71.049886,42.206656],[-71.050275,42.20643],[-71.050694,42.206428],[-71.051524,42.20617],[-71.051896,42.206181],[-71.052152,42.205922],[-71.053056,42.205692],[-71.055194,42.205982],[-71.055591,42.205868],[-71.055926,42.205974],[-71.056191,42.20583],[-71.056889,42.20598],[-71.057306,42.205904],[-71.058126,42.206194],[-71.059422,42.205956],[-71.060388,42.206314],[-71.067968,42.204989],[-71.069679,42.204508],[-71.073314,42.20422],[-71.074471,42.204224],[-71.074795,42.204347],[-71.075143,42.204739],[-71.076997,42.20452],[-71.07776,42.204789],[-71.079186,42.204614],[-71.07979,42.204771],[-71.080123,42.204721],[-71.080463,42.20493],[-71.080747,42.204948],[-71.081282,42.204866],[-71.081612,42.20466],[-71.082244,42.204749],[-71.082405,42.20465],[-71.082475,42.204374],[-71.082752,42.204266]]]}}]}
