{"type":"FeatureCollection","metadata":{"source":"data/regions.geojson grown by a coastal buffer for the vessel layer","clip":[[40.8,-74.0],[47.7,-66.0]]},"features":[{"type":"Feature","properties":{"key":"nh","bufferDeg":0.2},"geometry":{"type":"Polygon","coordinates":[[[-72.7512,42.8047],[-72.7552,42.8807],[-72.7507,42.9128],[-72.73,42.9655],[-72.7294,42.9943],[-72.6998,43.0641],[-72.657,43.1072],[-72.6536,43.1179],[-72.6504,43.1874],[-72.636,43.2843],[-72.6108,43.3541],[-72.61,43.4258],[-72.591,43.4698],[-72.5986,43.5024],[-72.5898,43.5724],[-72.5748,43.6038],[-72.5666,43.6458],[-72.5298,43.7061],[-72.5057,43.7252],[-72.4916,43.746],[-72.4785,43.7957],[-72.4387,43.85],[-72.4102,43.8776],[-72.3815,43.8949],[-72.3714,43.9355],[-72.3427,43.9894],[-72.312,44.0223],[-72.3108,44.0435],[-72.2782,44.1128],[-72.2547,44.1396],[-72.2653,44.1715],[-72.2588,44.2197],[-72.2644,44.2363],[-72.2633,44.3162],[-72.2217,44.4023],[-72.1975,44.4248],[-72.169,44.4654],[-72.1043,44.5077],[-71.9287,44.5473],[-71.8647,44.5863],[-71.7948,44.6013],[-71.7891,44.6078],[-71.788,44.6183],[-71.8141,44.6603],[-71.8244,44.6976],[-71.8306,44.7758],[-71.8062,44.8503],[-71.7493,44.9126],[-71.7331,44.9399],[-71.741,44.9713],[-71.7331,45.0422],[-71.6866,45.1369],[-71.6495,45.2007],[-71.6391,45.2091],[-71.6389,45.2775],[-71.6068,45.3528],[-71.5473,45.4088],[-71.4675,45.4362],[-71.3512,45.4908],[-71.2791,45.5023],[-71.2076,45.4872],[-71.19,45.4761],[-71.0979,45.505],[-71.0211,45.4954],[-70.9537,45.4573],[-70.9058,45.3965],[-70.8846,45.322],[-70.8338,44.7088],[-70.7778,43.6459],[-70.7532,43.5837],[-70.7551,43.497],[-70.7658,43.4622],[-70.7628,43.4479],[-70.7467,43.4282],[-70.6898,43.3919],[-70.6515,43.3478],[-70.6151,43.2724],[-70.6145,43.2493],[-70.5811,43.2313],[-70.5339,43.1766],[-70.528,43.1605],[-70.4544,43.1032],[-70.4012,43.0218],[-70.3887,42.9897],[-70.3751,42.9188],[-70.3875,42.8477],[-70.4243,42.7857],[-70.4808,42.7407],[-70.5495,42.7187],[-70.6199,42.7156],[-70.6539,42.6919],[-70.7282,42.6748],[-70.8623,42.6614],[-70.9185,42.6764],[-70.9376,42.6517],[-71.0268,42.6117],[-71.0805,42.5648],[-71.1504,42.5398],[-71.1772,42.5406],[-71.2166,42.5128],[-71.2997,42.4971],[-72.4635,42.527],[-72.5486,42.5484],[-72.5924,42.5845],[-72.6182,42.594],[-72.6735,42.643],[-72.6932,42.6814],[-72.7145,42.7067],[-72.7512,42.8047]]]}},{"type":"Feature","properties":{"key":"me","bufferDeg":0.2},"geometry":{"type":"Polygon","coordinates":[[[-71.1861,43.4301],[-71.1648,43.5329],[-71.1723,43.5558],[-71.1885,43.7754],[-71.233,44.6837],[-71.2832,45.289],[-71.271,45.3761],[-71.2226,45.4496],[-71.1335,45.5055],[-71.0616,45.5411],[-70.9814,45.5455],[-70.9669,45.5403],[-70.9403,45.5672],[-70.9041,45.5885],[-70.8993,45.6074],[-70.8762,45.6335],[-70.8378,45.7015],[-70.7424,45.7815],[-70.7089,45.7938],[-70.6762,45.8283],[-70.6045,45.8589],[-70.5761,45.9166],[-70.5145,45.9701],[-70.5169,45.9981],[-70.5065,46.1064],[-70.4862,46.1572],[-70.4922,46.2053],[-70.4723,46.2795],[-70.4375,46.3255],[-70.4194,46.3699],[-70.3432,46.4802],[-70.2795,46.5297],[-70.232,46.5521],[-70.1927,46.737],[-70.1378,46.8377],[-69.3652,47.602],[-69.3009,47.6446],[-69.2253,47.6598],[-69.1451,47.6545],[-69.0757,47.6331],[-68.9958,47.6223],[-68.9185,47.5832],[-68.8658,47.522],[-68.847,47.4868],[-68.8308,47.4144],[-68.6986,47.4432],[-68.6394,47.4781],[-68.5034,47.4965],[-68.4841,47.5139],[-68.3933,47.5524],[-68.2731,47.56],[-68.1789,47.5474],[-68.0372,47.4871],[-68.0106,47.4583],[-67.9811,47.4378],[-67.9485,47.4254],[-67.8185,47.3437],[-67.7859,47.2998],[-67.7515,47.2705],[-67.6973,47.2443],[-67.6409,47.2003],[-67.6036,47.1391],[-67.5902,47.0688],[-67.5818,46.019],[-67.5651,45.9923],[-67.5507,45.9231],[-67.5604,45.8588],[-67.5594,45.8063],[-67.5319,45.7945],[-67.473,45.8036],[-67.3989,45.7958],[-67.3328,45.7613],[-67.262,45.6909],[-67.2258,45.6037],[-67.2193,45.4664],[-67.2311,45.436],[-67.2225,45.4134],[-67.2225,45.3824],[-67.1782,45.3664],[-67.119,45.358],[-67.0614,45.3366],[-67.013,45.2988],[-66.9667,45.2494],[-66.8652,45.0816],[-66.8,45.0178],[-66.7806,44.9647],[-66.7144,44.898],[-66.6865,44.8153],[-66.6965,44.7286],[-66.7424,44.6544],[-66.7596,44.6368],[-66.9095,44.5429],[-67.0025,44.461],[-67.1598,44.3735],[-67.2252,44.3566],[-67.2581,44.339],[-67.3138,44.3265],[-67.3756,44.2704],[-67.4182,44.2447],[-67.4864,44.2144],[-67.5827,44.1886],[-67.6808,44.1887],[-67.7114,44.1615],[-67.7682,44.1349],[-67.8028,44.1249],[-67.8809,44.1177],[-67.9833,44.0792],[-67.9994,44.0311],[-68.0674,43.9529],[-68.1391,43.9102],[-68.1796,43.8989],[-68.2202,43.8754],[-68.2831,43.8554],[-68.3814,43.8467],[-68.4575,43.7899],[-68.5047,43.7708],[-68.5294,43.7268],[-68.5447,43.7118],[-68.6214,43.6621],[-68.6539,43.6155],[-68.7405,43.5553],[-68.8173,43.5359],[-68.861,43.5338],[-68.9282,43.5421],[-68.9831,43.5586],[-69.0814,43.6104],[-69.0985,43.6068],[-69.1649,43.5505],[-69.2451,43.5155],[-69.3313,43.5045],[-69.3927,43.513],[-69.4461,43.5363],[-69.529,43.5083],[-69.6024,43.5015],[-69.6419,43.4779],[-69.6963,43.4602],[-69.8152,43.4472],[-70.0497,43.3517],[-70.1906,43.231],[-70.2168,43.191],[-70.2061,43.1492],[-70.2082,43.0706],[-70.2625,42.963],[-70.3468,42.901],[-70.3894,42.8127],[-70.4022,42.798],[-70.4501,42.7578],[-70.5021,42.7309],[-70.579,42.7171],[-70.6553,42.7339],[-70.7194,42.7786],[-70.7506,42.8276],[-70.8398,42.9038],[-70.9371,42.9603],[-70.9849,43.0045],[-71.016,43.0617],[-71.0321,43.1376],[-71.0583,43.1669],[-71.0998,43.1942],[-71.1453,43.2488],[-71.1866,43.3667],[-71.1861,43.4301]]]}},{"type":"Feature","properties":{"key":"vt","bufferDeg":0.2},"geometry":{"type":"Polygon","coordinates":[[[-73.6216,43.6872],[-73.5828,43.7745],[-73.5923,43.8132],[-73.5877,43.8421],[-73.6066,43.9401],[-73.6359,44.0171],[-73.6322,44.0927],[-73.5951,44.2217],[-73.5497,44.3123],[-73.5263,44.3334],[-73.5319,44.3993],[-73.5192,44.4387],[-73.5604,44.4993],[-73.5855,44.5755],[-73.5867,44.6555],[-73.5658,44.7252],[-73.5622,44.7652],[-73.5783,44.8132],[-73.5762,44.8955],[-73.5498,44.9614],[-73.5537,45.0062],[-73.5228,45.0986],[-73.4792,45.1573],[-73.4174,45.1964],[-73.3456,45.2107],[-72.8494,45.2167],[-72.3113,45.2038],[-71.4673,45.2136],[-71.3893,45.1987],[-71.3233,45.1547],[-71.2795,45.0884],[-71.265,45.0104],[-71.282,44.9328],[-71.2962,44.9128],[-71.3004,44.8577],[-71.3445,44.7725],[-71.3811,44.7361],[-71.3616,44.7052],[-71.3447,44.6496],[-71.3353,44.5745],[-71.3546,44.5013],[-71.3851,44.4602],[-71.3949,44.4193],[-71.439,44.3574],[-71.517,44.3054],[-71.5604,44.2643],[-71.6709,44.217],[-71.7566,44.163],[-71.8124,44.1457],[-71.8374,44.1453],[-71.8374,44.0316],[-71.8722,43.958],[-71.8937,43.9391],[-71.9156,43.8695],[-71.9377,43.8433],[-71.9513,43.813],[-71.9891,43.7765],[-72.0009,43.7261],[-72.0634,43.6298],[-72.1216,43.5907],[-72.1412,43.5304],[-72.1829,43.4651],[-72.1972,43.3983],[-72.1914,43.3807],[-72.1958,43.2985],[-72.2155,43.2251],[-72.2411,43.1764],[-72.2333,43.1057],[-72.2534,42.945],[-72.2898,42.8794],[-72.3056,42.8637],[-72.2665,42.7831],[-72.2592,42.7087],[-72.2798,42.6369],[-72.3253,42.5776],[-72.3894,42.5392],[-72.4631,42.527],[-73.2811,42.5461],[-73.3642,42.5663],[-73.4313,42.6195],[-73.47,42.6958],[-73.4845,42.7517],[-73.4888,42.8305],[-73.4768,42.8748],[-73.4543,43.3806],[-73.5303,43.4146],[-73.5911,43.4681],[-73.6256,43.5414],[-73.6283,43.6223],[-73.6216,43.6872]]]}},{"type":"Feature","properties":{"key":"ct","bufferDeg":0.2},"geometry":{"type":"Polygon","coordinates":[[[-73.8825,40.974],[-73.9176,41.0377],[-73.9276,41.1097],[-73.9112,41.1805],[-73.8705,41.2408],[-73.811,41.2826],[-73.7501,41.3104],[-73.6866,42.0663],[-73.6665,42.1384],[-73.6212,42.198],[-73.5573,42.2369],[-73.4835,42.2495],[-72.81,42.2367],[-72.7822,42.2303],[-72.7489,42.2362],[-72.5927,42.2292],[-72.5285,42.2346],[-71.7977,42.2235],[-71.7235,42.208],[-71.6604,42.166],[-71.6175,42.1036],[-71.6008,42.0297],[-71.5883,41.6272],[-71.5979,41.4074],[-71.6182,41.3284],[-71.6386,41.3023],[-71.6503,41.2534],[-71.7075,41.1838],[-71.7356,41.1622],[-71.8731,41.1074],[-71.9143,41.1093],[-71.9408,41.1037],[-72.0446,41.0657],[-72.9568,40.8916],[-73.3546,40.8],[-73.7448,40.8],[-73.7784,40.8257],[-73.8256,40.8772],[-73.8482,40.932],[-73.8825,40.974]]]}},{"type":"Feature","properties":{"key":"ma","bufferDeg":0.2},"geometry":{"type":"Polygon","coordinates":[[[-73.5008,41.8496],[-73.5816,41.8684],[-73.6479,41.9184],[-73.6882,41.9909],[-73.7081,42.0917],[-73.6958,42.1553],[-73.4524,42.8151],[-73.4087,42.8848],[-73.3407,42.9309],[-73.2598,42.9458],[-71.3623,42.8987],[-71.3386,42.9132],[-71.3023,42.9559],[-71.2365,42.9963],[-71.2027,43.0089],[-71.1608,43.0118],[-71.0611,43.0569],[-70.9173,43.0863],[-70.8599,43.082],[-70.8259,43.0717],[-70.7418,43.0746],[-70.6659,43.0624],[-70.6003,43.0225],[-70.5545,42.9608],[-70.5459,42.9276],[-70.5096,42.9202],[-70.4174,42.8745],[-70.3581,42.8097],[-70.3182,42.7218],[-70.3064,42.6658],[-70.3053,42.5891],[-70.3331,42.5176],[-70.3528,42.4865],[-70.4046,42.4281],[-70.4374,42.4053],[-70.4631,42.3284],[-70.3043,42.3168],[-70.2408,42.3309],[-70.1841,42.3342],[-70.1368,42.3313],[-70.0438,42.3097],[-69.9634,42.2762],[-69.8789,42.2216],[-69.8388,42.1829],[-69.7602,42.0824],[-69.7338,42.0378],[-69.6761,41.8781],[-69.6599,41.7548],[-69.6606,41.686],[-69.6725,41.6149],[-69.6967,41.5537],[-69.7577,41.4456],[-69.728,41.4006],[-69.6949,41.293],[-69.6945,41.2618],[-69.7197,41.162],[-69.741,41.1237],[-69.818,41.0465],[-69.9054,41.0056],[-69.9513,40.9942],[-70.0022,40.9883],[-70.1513,40.9942],[-70.2456,41.016],[-70.3933,41.0735],[-70.438,41.0665],[-70.5405,41.0822],[-70.5778,41.0996],[-70.5957,41.0988],[-70.6296,41.0601],[-70.7042,41.0169],[-70.7806,41.0012],[-70.8206,41.0006],[-70.8891,41.0116],[-70.9318,41.0264],[-71.0066,41.0728],[-71.0253,41.0912],[-71.0748,41.1698],[-71.1578,41.2221],[-71.1907,41.2635],[-71.2138,41.2753],[-71.2654,41.3379],[-71.2979,41.3994],[-71.32,41.4721],[-71.3257,41.5266],[-71.3827,41.5864],[-71.4645,41.634],[-71.5093,41.6897],[-71.5352,41.7512],[-71.5372,41.7751],[-71.5645,41.814],[-71.7941,41.8082],[-71.8751,41.8246],[-72.5224,41.8344],[-72.5854,41.8247],[-72.663,41.8329],[-72.7446,41.8045],[-72.795,41.7989],[-72.8821,41.8085],[-72.9314,41.8389],[-73.5008,41.8496]]]}},{"type":"Feature","properties":{"key":"ri","bufferDeg":0.2},"geometry":{"type":"Polygon","coordinates":[[[-72.0274,41.4862],[-71.9926,41.5382],[-71.9873,41.6571],[-71.9991,42.0013],[-71.9863,42.0787],[-71.9448,42.1452],[-71.8808,42.1907],[-71.8043,42.208],[-71.3865,42.2187],[-71.3084,42.205],[-71.2417,42.162],[-71.1971,42.0964],[-71.1816,42.0195],[-71.1445,41.9458],[-71.1422,41.9064],[-71.1092,41.8822],[-71.0854,41.8544],[-71.022,41.827],[-70.9708,41.778],[-70.94,41.7141],[-70.9262,41.552],[-70.9118,41.5247],[-70.8897,41.4522],[-70.8962,41.3766],[-70.9305,41.3089],[-70.9874,41.2588],[-71.065,41.2208],[-71.2797,41.1603],[-71.296,41.0705],[-71.3104,41.0399],[-71.3779,40.9605],[-71.404,40.9425],[-71.48,40.9107],[-71.577,40.8973],[-71.6266,40.8992],[-71.7207,40.9269],[-71.7701,40.9561],[-71.7994,40.9855],[-71.87,41.0004],[-71.9348,41.0451],[-72.0511,41.1655],[-72.0963,41.239],[-72.1063,41.3247],[-72.0793,41.4066],[-72.0303,41.471],[-72.0274,41.4862]]]}},{"type":"Feature","properties":{"key":"boston","bufferDeg":0.06},"geometry":{"type":"Polygon","coordinates":[[[-71.3301,42.3348],[-71.3147,42.3791],[-71.3,42.3987],[-71.2696,42.4136],[-71.2539,42.4482],[-71.2285,42.4745],[-71.2074,42.4908],[-71.1613,42.4959],[-71.1235,42.5133],[-71.0656,42.5009],[-71.0125,42.5098],[-70.9868,42.5],[-70.9729,42.5042],[-70.9288,42.5001],[-70.9077,42.4861],[-70.8943,42.4645],[-70.892,42.4468],[-70.754,42.4607],[-70.7303,42.4577],[-70.709,42.4451],[-70.6941,42.4248],[-70.6888,42.4001],[-70.6922,42.3541],[-70.717,42.3229],[-70.749,42.3133],[-70.8454,42.3125],[-70.8555,42.2842],[-70.8781,42.2648],[-70.884,42.2405],[-70.9015,42.2187],[-70.924,42.1393],[-70.9556,42.1121],[-70.9764,42.1083],[-71.0471,42.1145],[-71.0795,42.1441],[-71.1049,42.1407],[-71.1269,42.1457],[-71.2546,42.2565],[-71.3065,42.2805],[-71.3209,42.2965],[-71.3301,42.3348]]]}},{"type":"Feature","properties":{"key":"new-england","bufferDeg":0.2},"geometry":{"type":"Polygon","coordinates":[[[-73.9276,41.1097],[-73.9112,41.1805],[-73.8705,41.2408],[-73.811,41.2826],[-73.7501,41.3104],[-73.6919,42.0031],[-73.7081,42.0917],[-73.6958,42.1553],[-73.4809,42.7379],[-73.4888,42.8305],[-73.4768,42.8748],[-73.4543,43.3806],[-73.5303,43.4146],[-73.5911,43.4681],[-73.6256,43.5414],[-73.6283,43.6223],[-73.6216,43.6872],[-73.5828,43.7745],[-73.5923,43.8132],[-73.5877,43.8421],[-73.6066,43.9401],[-73.6359,44.0171],[-73.6322,44.0927],[-73.5951,44.2217],[-73.5497,44.3123],[-73.5263,44.3334],[-73.5319,44.3993],[-73.5192,44.4387],[-73.5604,44.4993],[-73.5855,44.5755],[-73.5867,44.6555],[-73.5658,44.7252],[-73.5622,44.7652],[-73.5783,44.8132],[-73.5762,44.8955],[-73.5498,44.9614],[-73.5537,45.0062],[-73.5342,45.0753],[-73.4792,45.1573],[-73.4174,45.1964],[-73.3456,45.2107],[-72.8451,45.2167],[-72.3113,45.2038],[-71.6391,45.2116],[-71.6389,45.2775],[-71.6068,45.3528],[-71.5473,45.4088],[-71.4675,45.4362],[-71.3512,45.4908],[-71.2791,45.5023],[-71.2076,45.4872],[-71.19,45.4761],[-71.0616,45.5411],[-70.9814,45.5455],[-70.9669,45.5403],[-70.9403,45.5672],[-70.9041,45.5885],[-70.8993,45.6074],[-70.8762,45.6335],[-70.8378,45.7015],[-70.7424,45.7815],[-70.7089,45.7938],[-70.6762,45.8283],[-70.6045,45.8589],[-70.5761,45.9166],[-70.5145,45.9701],[-70.5169,45.9981],[-70.5065,46.1064],[-70.4862,46.1572],[-70.4922,46.2053],[-70.4723,46.2795],[-70.4375,46.3255],[-70.4194,46.3699],[-70.3432,46.4802],[-70.2795,46.5297],[-70.232,46.5521],[-70.1927,46.737],[-70.1378,46.8377],[-69.3652,47.602],[-69.3009,47.6446],[-69.2253,47.6598],[-69.1451,47.6545],[-69.0757,47.6331],[-68.9844,47.6182],[-68.9185,47.5832],[-68.8658,47.522],[-68.847,47.4868],[-68.8308,47.4144],[-68.6986,47.4432],[-68.6394,47.4781],[-68.5034,47.4965],[-68.4841,47.5139],[-68.3933,47.5524],[-68.2731,47.56],[-68.1789,47.5474],[-68.0372,47.4871],[-68.0106,47.4583],[-67.9811,47.4378],[-67.9485,47.4254],[-67.8185,47.3437],[-67.7859,47.2998],[-67.7515,47.2705],[-67.6973,47.2443],[-67.6409,47.2003],[-67.6036,47.1391],[-67.5902,47.0688],[-67.5818,46.019],[-67.5651,45.9923],[-67.5507,45.9231],[-67.5604,45.8588],[-67.5594,45.8063],[-67.5319,45.7945],[-67.473,45.8036],[-67.3989,45.7958],[-67.3328,45.7613],[-67.262,45.6909],[-67.2258,45.6037],[-67.2193,45.4664],[-67.2311,45.436],[-67.2225,45.4134],[-67.2225,45.3824],[-67.1782,45.3664],[-67.119,45.358],[-67.0614,45.3366],[-67.013,45.2988],[-66.9667,45.2494],[-66.8652,45.0816],[-66.8,45.0178],[-66.7806,44.9647],[-66.7144,44.898],[-66.6865,44.8153],[-66.6965,44.7286],[-66.7424,44.6544],[-66.7596,44.6368],[-66.9095,44.5429],[-67.0025,44.461],[-67.122,44.3908],[-67.1846,44.3652],[-67.2252,44.3566],[-67.2581,44.339],[-67.3138,44.3265],[-67.3756,44.2704],[-67.4864,44.2144],[-67.5827,44.1886],[-67.6808,44.1887],[-67.7114,44.1615],[-67.7682,44.1349],[-67.8028,44.1249],[-67.8809,44.1177],[-67.9833,44.0792],[-67.9994,44.0311],[-68.0674,43.9529],[-68.1391,43.9102],[-68.1796,43.8989],[-68.2202,43.8754],[-68.2831,43.8554],[-68.3814,43.8467],[-68.4575,43.7899],[-68.5047,43.7708],[-68.5294,43.7268],[-68.5447,43.7118],[-68.6214,43.6621],[-68.6539,43.6155],[-68.7405,43.5553],[-68.8173,43.5359],[-68.861,43.5338],[-68.9282,43.5421],[-68.9831,43.5586],[-69.0814,43.6104],[-69.0985,43.6068],[-69.1649,43.5505],[-69.2451,43.5155],[-69.3313,43.5045],[-69.3927,43.513],[-69.4461,43.5363],[-69.529,43.5083],[-69.6024,43.5015],[-69.6419,43.4779],[-69.6963,43.4602],[-69.8152,43.4472],[-70.0497,43.3517],[-70.1906,43.231],[-70.2168,43.191],[-70.2061,43.1492],[-70.2112,43.0575],[-70.2625,42.963],[-70.3468,42.901],[-70.3788,42.8346],[-70.3423,42.7833],[-70.3182,42.7218],[-70.3064,42.6658],[-70.3053,42.5891],[-70.3331,42.5176],[-70.3528,42.4865],[-70.4046,42.4281],[-70.4374,42.4053],[-70.4631,42.3284],[-70.3043,42.3168],[-70.2408,42.3309],[-70.1841,42.3342],[-70.1368,42.3313],[-70.0438,42.3097],[-69.9634,42.2762],[-69.8789,42.2216],[-69.8388,42.1829],[-69.7602,42.0824],[-69.7338,42.0378],[-69.6761,41.8781],[-69.6599,41.7548],[-69.6606,41.686],[-69.6725,41.6149],[-69.6967,41.5537],[-69.7577,41.4456],[-69.728,41.4006],[-69.6949,41.293],[-69.6945,41.2618],[-69.7197,41.162],[-69.741,41.1237],[-69.818,41.0465],[-69.9054,41.0056],[-69.9513,40.9942],[-70.0022,40.9883],[-70.1124,40.9898],[-70.2456,41.016],[-70.3933,41.0735],[-70.438,41.0665],[-70.5405,41.0822],[-70.5778,41.0996],[-70.5957,41.0988],[-70.6296,41.0601],[-70.7042,41.0169],[-70.7806,41.0012],[-70.8206,41.0006],[-70.8891,41.0116],[-70.9318,41.0264],[-71.0066,41.0728],[-71.0253,41.0912],[-71.0748,41.1698],[-71.1296,41.2026],[-71.2797,41.1603],[-71.296,41.0705],[-71.3104,41.0399],[-71.3779,40.9605],[-71.404,40.9425],[-71.48,40.9107],[-71.5318,40.9008],[-71.6266,40.8992],[-71.7207,40.9269],[-71.7701,40.9561],[-71.7994,40.9855],[-71.87,41.0004],[-71.9348,41.0451],[-71.9771,41.0889],[-72.0446,41.0657],[-72.9568,40.8916],[-73.3546,40.8],[-73.7448,40.8],[-73.7784,40.8257],[-73.8256,40.8772],[-73.8482,40.932],[-73.8825,40.974],[-73.9176,41.0377],[-73.9276,41.1097]]]}}]}
